{"type":"FeatureCollection","name":"alturas","description":"Galibos declarados en OpenStreetMap. Solo los que informan una altura numerica; maxheight=default queda afuera porque no es una medida.","attribution":"Datos de OpenStreetMap (ODbL)","generatedOn":"2026-08-31","features":[{"type":"Feature","properties":{"metres":4.1,"name":"Avenida General Paz","osm":"way/4927908"},"geometry":{"type":"Point","coordinates":[-58.467714,-34.535355]}},{"type":"Feature","properties":{"metres":4.1,"name":"Avenida General Paz","osm":"way/4927924"},"geometry":{"type":"Point","coordinates":[-58.495799,-34.547846]}},{"type":"Feature","properties":{"metres":4.2,"name":"Avenida General Mosconi","osm":"way/10054711"},"geometry":{"type":"Point","coordinates":[-58.519226,-34.596739]}},{"type":"Feature","properties":{"metres":4.1,"name":"Avenida General Paz","osm":"way/10435703"},"geometry":{"type":"Point","coordinates":[-58.522952,-34.598828]}},{"type":"Feature","properties":{"metres":4.1,"name":"Avenida General Paz","osm":"way/10435723"},"geometry":{"type":"Point","coordinates":[-58.522864,-34.598978]}},{"type":"Feature","properties":{"metres":4.5,"name":"Avenida Jorge Newbery","osm":"way/10615635"},"geometry":{"type":"Point","coordinates":[-58.459163,-34.596577]}},{"type":"Feature","properties":{"metres":5.3,"name":"Viaducto Carranza","osm":"way/10813157"},"geometry":{"type":"Point","coordinates":[-58.43531,-34.575082]}},{"type":"Feature","properties":{"metres":4.1,"name":"Avenida Del Libertador","osm":"way/18961386"},"geometry":{"type":"Point","coordinates":[-58.443307,-34.561646]}},{"type":"Feature","properties":{"metres":4.1,"name":"Avenida General Paz","osm":"way/20866005"},"geometry":{"type":"Point","coordinates":[-58.480378,-34.540995]}},{"type":"Feature","properties":{"metres":4.1,"name":"Avenida General Paz","osm":"way/20866009"},"geometry":{"type":"Point","coordinates":[-58.488184,-34.544531]}},{"type":"Feature","properties":{"metres":4.1,"name":"Avenida Lacarra","osm":"way/21630401"},"geometry":{"type":"Point","coordinates":[-58.467029,-34.651542]}},{"type":"Feature","properties":{"metres":4.1,"name":"Puente Nicolás Avellaneda","osm":"way/21844797"},"geometry":{"type":"Point","coordinates":[-58.358898,-34.63375]}},{"type":"Feature","properties":{"metres":4.8,"name":"Velázquez","osm":"way/22278550"},"geometry":{"type":"Point","coordinates":[-58.4567,-34.648343]}},{"type":"Feature","properties":{"metres":4.1,"name":"Avenida General Paz","osm":"way/22569857"},"geometry":{"type":"Point","coordinates":[-58.530052,-34.63078]}},{"type":"Feature","properties":{"metres":4.1,"name":"Avenida General Paz","osm":"way/22571266"},"geometry":{"type":"Point","coordinates":[-58.485404,-34.68671]}},{"type":"Feature","properties":{"metres":4.1,"name":"Avenida General Paz","osm":"way/22571272"},"geometry":{"type":"Point","coordinates":[-58.495309,-34.679415]}},{"type":"Feature","properties":{"metres":4.1,"name":"Avenida General Paz","osm":"way/22573937"},"geometry":{"type":"Point","coordinates":[-58.526461,-34.605781]}},{"type":"Feature","properties":{"metres":4.1,"name":"Avenida General Paz","osm":"way/22573940"},"geometry":{"type":"Point","coordinates":[-58.525158,-34.603343]}},{"type":"Feature","properties":{"metres":4.1,"name":"Avenida General Paz","osm":"way/22573947"},"geometry":{"type":"Point","coordinates":[-58.53083,-34.615906]}},{"type":"Feature","properties":{"metres":3.8,"name":null,"osm":"way/22991359"},"geometry":{"type":"Point","coordinates":[-58.4676,-34.535077]}},{"type":"Feature","properties":{"metres":3.8,"name":null,"osm":"way/22991677"},"geometry":{"type":"Point","coordinates":[-58.467696,-34.535612]}},{"type":"Feature","properties":{"metres":4.1,"name":null,"osm":"way/22992879"},"geometry":{"type":"Point","coordinates":[-58.48666,-34.543592]}},{"type":"Feature","properties":{"metres":4.1,"name":null,"osm":"way/22992883"},"geometry":{"type":"Point","coordinates":[-58.485657,-34.543133]}},{"type":"Feature","properties":{"metres":4.1,"name":null,"osm":"way/22993831"},"geometry":{"type":"Point","coordinates":[-58.49437,-34.547417]}},{"type":"Feature","properties":{"metres":4.1,"name":null,"osm":"way/22993833"},"geometry":{"type":"Point","coordinates":[-58.494652,-34.547271]}},{"type":"Feature","properties":{"metres":4.1,"name":null,"osm":"way/22994611"},"geometry":{"type":"Point","coordinates":[-58.476152,-34.539385]}},{"type":"Feature","properties":{"metres":4.1,"name":"Avenida Lacarra","osm":"way/23129542"},"geometry":{"type":"Point","coordinates":[-58.46753,-34.65115]}},{"type":"Feature","properties":{"metres":4.1,"name":"Avenida Lacarra","osm":"way/23129543"},"geometry":{"type":"Point","coordinates":[-58.467747,-34.650858]}},{"type":"Feature","properties":{"metres":3.8,"name":"Reforma Universitaria de 1918","osm":"way/23633489"},"geometry":{"type":"Point","coordinates":[-58.439033,-34.545453]}},{"type":"Feature","properties":{"metres":4.1,"name":"Avenida Del Libertador","osm":"way/23633575"},"geometry":{"type":"Point","coordinates":[-58.439371,-34.562639]}},{"type":"Feature","properties":{"metres":4.1,"name":"Avenida General Paz","osm":"way/23651410"},"geometry":{"type":"Point","coordinates":[-58.50744,-34.565851]}},{"type":"Feature","properties":{"metres":4.1,"name":"Avenida General Paz","osm":"way/23651412"},"geometry":{"type":"Point","coordinates":[-58.499449,-34.549652]}},{"type":"Feature","properties":{"metres":4.1,"name":"Avenida General Paz","osm":"way/23651413"},"geometry":{"type":"Point","coordinates":[-58.514507,-34.580643]}},{"type":"Feature","properties":{"metres":4.1,"name":"Avenida General Paz","osm":"way/23651414"},"geometry":{"type":"Point","coordinates":[-58.510475,-34.571668]}},{"type":"Feature","properties":{"metres":2.1,"name":"Algarrobo","osm":"way/24714204"},"geometry":{"type":"Point","coordinates":[-58.378291,-34.657208]}},{"type":"Feature","properties":{"metres":2.1,"name":"Ciudad de la Paz","osm":"way/26605714"},"geometry":{"type":"Point","coordinates":[-58.43904,-34.575955]}},{"type":"Feature","properties":{"metres":3.4,"name":"Yatay","osm":"way/26732862"},"geometry":{"type":"Point","coordinates":[-58.428584,-34.612703]}},{"type":"Feature","properties":{"metres":4.1,"name":"Autopista Teniente General Luis Dellepiane","osm":"way/27995502"},"geometry":{"type":"Point","coordinates":[-58.481315,-34.682311]}},{"type":"Feature","properties":{"metres":4.1,"name":null,"osm":"way/28516183"},"geometry":{"type":"Point","coordinates":[-58.530234,-34.623939]}},{"type":"Feature","properties":{"metres":4.1,"name":null,"osm":"way/28516214"},"geometry":{"type":"Point","coordinates":[-58.530914,-34.620535]}},{"type":"Feature","properties":{"metres":3.8,"name":null,"osm":"way/28516237"},"geometry":{"type":"Point","coordinates":[-58.530682,-34.616169]}},{"type":"Feature","properties":{"metres":4.1,"name":"Avenida Coronel Roca","osm":"way/28533925"},"geometry":{"type":"Point","coordinates":[-58.469854,-34.698003]}},{"type":"Feature","properties":{"metres":4.1,"name":null,"osm":"way/28533938"},"geometry":{"type":"Point","coordinates":[-58.474655,-34.694609]}},{"type":"Feature","properties":{"metres":4.1,"name":null,"osm":"way/28534020"},"geometry":{"type":"Point","coordinates":[-58.50334,-34.556163]}},{"type":"Feature","properties":{"metres":4.8,"name":"La Pampa","osm":"way/28679984"},"geometry":{"type":"Point","coordinates":[-58.446554,-34.560319]}},{"type":"Feature","properties":{"metres":4.1,"name":"Griveo","osm":"way/29055691"},"geometry":{"type":"Point","coordinates":[-58.52157,-34.594765]}},{"type":"Feature","properties":{"metres":4.1,"name":"Avenida Eva Perón","osm":"way/29196738"},"geometry":{"type":"Point","coordinates":[-58.502207,-34.674282]}},{"type":"Feature","properties":{"metres":3.6,"name":"Avenida Olazábal","osm":"way/38036500"},"geometry":{"type":"Point","coordinates":[-58.468326,-34.566098]}},{"type":"Feature","properties":{"metres":4.1,"name":null,"osm":"way/39319436"},"geometry":{"type":"Point","coordinates":[-58.519134,-34.661378]}},{"type":"Feature","properties":{"metres":4.1,"name":null,"osm":"way/39473430"},"geometry":{"type":"Point","coordinates":[-58.517435,-34.587225]}},{"type":"Feature","properties":{"metres":4.1,"name":null,"osm":"way/39473432"},"geometry":{"type":"Point","coordinates":[-58.52004,-34.591835]}},{"type":"Feature","properties":{"metres":4.8,"name":"Plumerillo","osm":"way/40639638"},"geometry":{"type":"Point","coordinates":[-58.44908,-34.660202]}},{"type":"Feature","properties":{"metres":4.5,"name":"Avenida Garmendia","osm":"way/46978098"},"geometry":{"type":"Point","coordinates":[-58.465551,-34.596363]}},{"type":"Feature","properties":{"metres":4.1,"name":"Avenida Juan Bautista Justo","osm":"way/47003101"},"geometry":{"type":"Point","coordinates":[-58.52943,-34.634818]}},{"type":"Feature","properties":{"metres":4.8,"name":"Mendoza","osm":"way/47303248"},"geometry":{"type":"Point","coordinates":[-58.451559,-34.557537]}},{"type":"Feature","properties":{"metres":2.9,"name":"Castro Barros","osm":"way/47413530"},"geometry":{"type":"Point","coordinates":[-58.418278,-34.628236]}},{"type":"Feature","properties":{"metres":4.1,"name":"Avenida Coronel Roca","osm":"way/48055914"},"geometry":{"type":"Point","coordinates":[-58.470653,-34.698477]}},{"type":"Feature","properties":{"metres":4.0,"name":"Avenida Luis María Campos","osm":"way/48070877"},"geometry":{"type":"Point","coordinates":[-58.4313,-34.574756]}},{"type":"Feature","properties":{"metres":4.1,"name":"Avenida General Paz","osm":"way/48395657"},"geometry":{"type":"Point","coordinates":[-58.491399,-34.545895]}},{"type":"Feature","properties":{"metres":4.1,"name":"Avenida General Paz","osm":"way/48395661"},"geometry":{"type":"Point","coordinates":[-58.490499,-34.545477]}},{"type":"Feature","properties":{"metres":2.1,"name":"Gualeguay","osm":"way/52854685"},"geometry":{"type":"Point","coordinates":[-58.361168,-34.625622]}},{"type":"Feature","properties":{"metres":3.9,"name":"Avenida Presidente Sarmiento","osm":"way/53204961"},"geometry":{"type":"Point","coordinates":[-58.4081,-34.567526]}},{"type":"Feature","properties":{"metres":4.1,"name":"Avenida General Paz","osm":"way/53242364"},"geometry":{"type":"Point","coordinates":[-58.474037,-34.538043]}},{"type":"Feature","properties":{"metres":4.1,"name":"Avenida General Paz","osm":"way/53242371"},"geometry":{"type":"Point","coordinates":[-58.472446,-34.537574]}},{"type":"Feature","properties":{"metres":4.1,"name":"Avenida General Paz","osm":"way/53242377"},"geometry":{"type":"Point","coordinates":[-58.478865,-34.540297]}},{"type":"Feature","properties":{"metres":4.1,"name":"Avenida General Paz","osm":"way/53242382"},"geometry":{"type":"Point","coordinates":[-58.477198,-34.539596]}},{"type":"Feature","properties":{"metres":4.1,"name":"Avenida General Paz","osm":"way/53242401"},"geometry":{"type":"Point","coordinates":[-58.471728,-34.537112]}},{"type":"Feature","properties":{"metres":4.1,"name":"Avenida General Paz","osm":"way/53242410"},"geometry":{"type":"Point","coordinates":[-58.469831,-34.536448]}},{"type":"Feature","properties":{"metres":4.1,"name":null,"osm":"way/53246300"},"geometry":{"type":"Point","coordinates":[-58.475347,-34.538324]}},{"type":"Feature","properties":{"metres":4.1,"name":"Avenida General Paz","osm":"way/53246828"},"geometry":{"type":"Point","coordinates":[-58.494354,-34.547307]}},{"type":"Feature","properties":{"metres":4.1,"name":"Avenida General Paz","osm":"way/53246841"},"geometry":{"type":"Point","coordinates":[-58.492487,-34.546369]}},{"type":"Feature","properties":{"metres":4.1,"name":null,"osm":"way/53246857"},"geometry":{"type":"Point","coordinates":[-58.485151,-34.543363]}},{"type":"Feature","properties":{"metres":4.5,"name":"Arenales","osm":"way/53652416"},"geometry":{"type":"Point","coordinates":[-58.410071,-34.587859]}},{"type":"Feature","properties":{"metres":2.7,"name":"Jean Jaures","osm":"way/53875154"},"geometry":{"type":"Point","coordinates":[-58.410382,-34.608871]}},{"type":"Feature","properties":{"metres":2.7,"name":"Tomás Manuel de Anchorena","osm":"way/53875156"},"geometry":{"type":"Point","coordinates":[-58.411843,-34.608333]}},{"type":"Feature","properties":{"metres":4.1,"name":"Avenida General Paz","osm":"way/55594677"},"geometry":{"type":"Point","coordinates":[-58.509942,-34.570678]}},{"type":"Feature","properties":{"metres":4.1,"name":"Avenida General Paz","osm":"way/55594678"},"geometry":{"type":"Point","coordinates":[-58.509587,-34.569925]}},{"type":"Feature","properties":{"metres":4.1,"name":"Avenida General Paz","osm":"way/55594679"},"geometry":{"type":"Point","coordinates":[-58.510169,-34.570875]}},{"type":"Feature","properties":{"metres":4.1,"name":"Avenida General Paz","osm":"way/55594681"},"geometry":{"type":"Point","coordinates":[-58.509045,-34.568978]}},{"type":"Feature","properties":{"metres":4.1,"name":"Avenida General Paz","osm":"way/55594683"},"geometry":{"type":"Point","coordinates":[-58.509187,-34.568917]}},{"type":"Feature","properties":{"metres":4.1,"name":"Avenida General Paz","osm":"way/55594684"},"geometry":{"type":"Point","coordinates":[-58.50873,-34.568457]}},{"type":"Feature","properties":{"metres":4.1,"name":"Avenida General Paz","osm":"way/55594685"},"geometry":{"type":"Point","coordinates":[-58.509,-34.568618]}},{"type":"Feature","properties":{"metres":4.1,"name":"Avenida General Paz","osm":"way/55594689"},"geometry":{"type":"Point","coordinates":[-58.509894,-34.570238]}},{"type":"Feature","properties":{"metres":4.1,"name":"Avenida General Paz","osm":"way/55594690"},"geometry":{"type":"Point","coordinates":[-58.509379,-34.569536]}},{"type":"Feature","properties":{"metres":4.1,"name":"Avenida General Paz","osm":"way/55594692"},"geometry":{"type":"Point","coordinates":[-58.509704,-34.569843]}},{"type":"Feature","properties":{"metres":4.1,"name":"Avenida General Paz","osm":"way/59708384"},"geometry":{"type":"Point","coordinates":[-58.508368,-34.567906]}},{"type":"Feature","properties":{"metres":4.1,"name":null,"osm":"way/61431768"},"geometry":{"type":"Point","coordinates":[-58.475294,-34.539132]}},{"type":"Feature","properties":{"metres":3.8,"name":null,"osm":"way/62897857"},"geometry":{"type":"Point","coordinates":[-58.467011,-34.535847]}},{"type":"Feature","properties":{"metres":4.8,"name":"Mariscal Antonio José de Sucre","osm":"way/62898031"},"geometry":{"type":"Point","coordinates":[-58.447592,-34.559497]}},{"type":"Feature","properties":{"metres":4.8,"name":"Olazábal","osm":"way/62898056"},"geometry":{"type":"Point","coordinates":[-58.452767,-34.556849]}},{"type":"Feature","properties":{"metres":4.1,"name":null,"osm":"way/62940932"},"geometry":{"type":"Point","coordinates":[-58.477444,-34.53975]}},{"type":"Feature","properties":{"metres":4.1,"name":null,"osm":"way/62940957"},"geometry":{"type":"Point","coordinates":[-58.474121,-34.538025]}},{"type":"Feature","properties":{"metres":4.1,"name":null,"osm":"way/62940970"},"geometry":{"type":"Point","coordinates":[-58.476816,-34.539013]}},{"type":"Feature","properties":{"metres":2.1,"name":"Ciudad de la Paz","osm":"way/63514292"},"geometry":{"type":"Point","coordinates":[-58.439574,-34.575625]}},{"type":"Feature","properties":{"metres":2.5,"name":"Franklin Delano Roosevelt","osm":"way/64503792"},"geometry":{"type":"Point","coordinates":[-58.456846,-34.555098]}},{"type":"Feature","properties":{"metres":4.2,"name":"Monroe","osm":"way/69340136"},"geometry":{"type":"Point","coordinates":[-58.472388,-34.566081]}},{"type":"Feature","properties":{"metres":4.1,"name":"Avenida Congreso","osm":"way/69606686"},"geometry":{"type":"Point","coordinates":[-58.478654,-34.563753]}},{"type":"Feature","properties":{"metres":4.1,"name":"Avenida Congreso","osm":"way/69606693"},"geometry":{"type":"Point","coordinates":[-58.479745,-34.5643]}},{"type":"Feature","properties":{"metres":4.1,"name":"Avenida Congreso","osm":"way/69606710"},"geometry":{"type":"Point","coordinates":[-58.479258,-34.564053]}},{"type":"Feature","properties":{"metres":3.0,"name":"Holmberg","osm":"way/69821403"},"geometry":{"type":"Point","coordinates":[-58.477927,-34.56818]}},{"type":"Feature","properties":{"metres":4.3,"name":"Avenida Federico Lacroze","osm":"way/75104850"},"geometry":{"type":"Point","coordinates":[-58.446381,-34.572503]}},{"type":"Feature","properties":{"metres":4.8,"name":"La Pampa","osm":"way/79876731"},"geometry":{"type":"Point","coordinates":[-58.446233,-34.56013]}},{"type":"Feature","properties":{"metres":4.1,"name":"Superí","osm":"way/80287693"},"geometry":{"type":"Point","coordinates":[-58.485883,-34.543834]}},{"type":"Feature","properties":{"metres":4.1,"name":null,"osm":"way/81722529"},"geometry":{"type":"Point","coordinates":[-58.528003,-34.609694]}},{"type":"Feature","properties":{"metres":3.8,"name":null,"osm":"way/81722548"},"geometry":{"type":"Point","coordinates":[-58.5298,-34.612468]}},{"type":"Feature","properties":{"metres":4.4,"name":"Avenida 27 de Febrero","osm":"way/81722570"},"geometry":{"type":"Point","coordinates":[-58.461757,-34.704534]}},{"type":"Feature","properties":{"metres":4.4,"name":"Avenida 27 de Febrero","osm":"way/81722576"},"geometry":{"type":"Point","coordinates":[-58.461899,-34.704502]}},{"type":"Feature","properties":{"metres":3.3,"name":"La Cachila","osm":"way/83215622"},"geometry":{"type":"Point","coordinates":[-58.46614,-34.53445]}},{"type":"Feature","properties":{"metres":4.1,"name":"Autopista Teniente General Luis Dellepiane","osm":"way/85468554"},"geometry":{"type":"Point","coordinates":[-58.467351,-34.651715]}},{"type":"Feature","properties":{"metres":4.1,"name":"Autopista Teniente General Luis Dellepiane","osm":"way/85468557"},"geometry":{"type":"Point","coordinates":[-58.466978,-34.651559]}},{"type":"Feature","properties":{"metres":4.1,"name":"Avenida Congreso","osm":"way/86113926"},"geometry":{"type":"Point","coordinates":[-58.477995,-34.563415]}},{"type":"Feature","properties":{"metres":2.5,"name":"Franklin Delano Roosevelt","osm":"way/86576240"},"geometry":{"type":"Point","coordinates":[-58.456062,-34.554654]}},{"type":"Feature","properties":{"metres":2.8,"name":"Besares","osm":"way/86576264"},"geometry":{"type":"Point","coordinates":[-58.465271,-34.542389]}},{"type":"Feature","properties":{"metres":2.8,"name":"Pacheco","osm":"way/86784045"},"geometry":{"type":"Point","coordinates":[-58.484885,-34.572275]}},{"type":"Feature","properties":{"metres":5.1,"name":"Avenida San Martín","osm":"way/92415504"},"geometry":{"type":"Point","coordinates":[-58.504886,-34.593895]}},{"type":"Feature","properties":{"metres":4.1,"name":"Avenida General Paz","osm":"way/93202803"},"geometry":{"type":"Point","coordinates":[-58.522442,-34.597635]}},{"type":"Feature","properties":{"metres":4.1,"name":"Avenida General Paz","osm":"way/93202806"},"geometry":{"type":"Point","coordinates":[-58.521543,-34.595667]}},{"type":"Feature","properties":{"metres":4.1,"name":"Avenida General Paz","osm":"way/93202807"},"geometry":{"type":"Point","coordinates":[-58.521936,-34.596691]}},{"type":"Feature","properties":{"metres":4.8,"name":"Avenida Ana María Janer","osm":"way/93248644"},"geometry":{"type":"Point","coordinates":[-58.449853,-34.659635]}},{"type":"Feature","properties":{"metres":4.1,"name":"Avenida General Paz","osm":"way/99621789"},"geometry":{"type":"Point","coordinates":[-58.525324,-34.603349]}},{"type":"Feature","properties":{"metres":4.1,"name":"Avenida General Paz","osm":"way/99621856"},"geometry":{"type":"Point","coordinates":[-58.52492,-34.602834]}},{"type":"Feature","properties":{"metres":4.1,"name":"Avenida General Paz","osm":"way/99621863"},"geometry":{"type":"Point","coordinates":[-58.526328,-34.605492]}},{"type":"Feature","properties":{"metres":4.1,"name":"Avenida General Paz","osm":"way/102645082"},"geometry":{"type":"Point","coordinates":[-58.519854,-34.59204]}},{"type":"Feature","properties":{"metres":4.1,"name":"Avenida General Paz","osm":"way/102645083"},"geometry":{"type":"Point","coordinates":[-58.521774,-34.595823]}},{"type":"Feature","properties":{"metres":4.1,"name":"Avenida General Paz","osm":"way/102645084"},"geometry":{"type":"Point","coordinates":[-58.521377,-34.594942]}},{"type":"Feature","properties":{"metres":4.1,"name":"Avenida General Paz","osm":"way/102645085"},"geometry":{"type":"Point","coordinates":[-58.521101,-34.594711]}},{"type":"Feature","properties":{"metres":4.1,"name":"Avenida General Paz","osm":"way/102645086"},"geometry":{"type":"Point","coordinates":[-58.521159,-34.59483]}},{"type":"Feature","properties":{"metres":4.1,"name":"Avenida General Paz","osm":"way/102645087"},"geometry":{"type":"Point","coordinates":[-58.520792,-34.593694]}},{"type":"Feature","properties":{"metres":3.6,"name":"Manuela Pedraza","osm":"way/109338439"},"geometry":{"type":"Point","coordinates":[-58.462754,-34.549443]}},{"type":"Feature","properties":{"metres":3.6,"name":"Crisólogo Larralde","osm":"way/109338441"},"geometry":{"type":"Point","coordinates":[-58.46372,-34.546699]}},{"type":"Feature","properties":{"metres":4.1,"name":"Avenida General Paz","osm":"way/115811560"},"geometry":{"type":"Point","coordinates":[-58.52459,-34.60179]}},{"type":"Feature","properties":{"metres":4.1,"name":"Avenida General Paz","osm":"way/119241286"},"geometry":{"type":"Point","coordinates":[-58.499383,-34.676156]}},{"type":"Feature","properties":{"metres":2.5,"name":null,"osm":"way/121035144"},"geometry":{"type":"Point","coordinates":[-58.48888,-34.54592]}},{"type":"Feature","properties":{"metres":4.1,"name":"Agrelo","osm":"way/129805505"},"geometry":{"type":"Point","coordinates":[-58.498738,-34.677383]}},{"type":"Feature","properties":{"metres":4.8,"name":"Avenida Lafuente","osm":"way/137063318"},"geometry":{"type":"Point","coordinates":[-58.45447,-34.65028]}},{"type":"Feature","properties":{"metres":3.0,"name":"Colonia Express: Buenos Aires - Colonia del Sacramento","osm":"way/149507968"},"geometry":{"type":"Point","coordinates":[-58.346405,-34.632961]}},{"type":"Feature","properties":{"metres":4.8,"name":"Avenida Riestra","osm":"way/158888787"},"geometry":{"type":"Point","coordinates":[-58.450662,-34.65613]}},{"type":"Feature","properties":{"metres":4.1,"name":null,"osm":"way/164495753"},"geometry":{"type":"Point","coordinates":[-58.51552,-34.582204]}},{"type":"Feature","properties":{"metres":2.8,"name":"Iberá","osm":"way/166475285"},"geometry":{"type":"Point","coordinates":[-58.460476,-34.551428]}},{"type":"Feature","properties":{"metres":4.2,"name":"Monroe","osm":"way/166704151"},"geometry":{"type":"Point","coordinates":[-58.473399,-34.56669]}},{"type":"Feature","properties":{"metres":4.1,"name":"Avenida Teniente General Luis Dellepiane","osm":"way/172838885"},"geometry":{"type":"Point","coordinates":[-58.467259,-34.650758]}},{"type":"Feature","properties":{"metres":3.5,"name":"Monroe","osm":"way/176605353"},"geometry":{"type":"Point","coordinates":[-58.454445,-34.555022]}},{"type":"Feature","properties":{"metres":3.2,"name":"Blanco Encalada","osm":"way/186082866"},"geometry":{"type":"Point","coordinates":[-58.453726,-34.556002]}},{"type":"Feature","properties":{"metres":4.1,"name":null,"osm":"way/198871820"},"geometry":{"type":"Point","coordinates":[-58.529787,-34.635777]}},{"type":"Feature","properties":{"metres":3.9,"name":null,"osm":"way/205083556"},"geometry":{"type":"Point","coordinates":[-58.408534,-34.567651]}},{"type":"Feature","properties":{"metres":4.8,"name":"Avenida Ana María Janer","osm":"way/205346273"},"geometry":{"type":"Point","coordinates":[-58.449784,-34.659648]}},{"type":"Feature","properties":{"metres":4.5,"name":"Avenida Rivadavia","osm":"way/206452728"},"geometry":{"type":"Point","coordinates":[-58.447141,-34.622938]}},{"type":"Feature","properties":{"metres":4.1,"name":"Avenida General Paz","osm":"way/219731983"},"geometry":{"type":"Point","coordinates":[-58.470249,-34.536477]}},{"type":"Feature","properties":{"metres":4.1,"name":"Avenida General Paz","osm":"way/219731984"},"geometry":{"type":"Point","coordinates":[-58.469134,-34.536129]}},{"type":"Feature","properties":{"metres":4.1,"name":"Avenida General Paz","osm":"way/219731985"},"geometry":{"type":"Point","coordinates":[-58.469495,-34.536139]}},{"type":"Feature","properties":{"metres":4.1,"name":"Avenida General Paz","osm":"way/219731986"},"geometry":{"type":"Point","coordinates":[-58.466567,-34.53507]}},{"type":"Feature","properties":{"metres":4.1,"name":"Avenida General Paz","osm":"way/221472043"},"geometry":{"type":"Point","coordinates":[-58.530323,-34.625241]}},{"type":"Feature","properties":{"metres":4.1,"name":"Avenida General Paz","osm":"way/221472044"},"geometry":{"type":"Point","coordinates":[-58.530427,-34.623414]}},{"type":"Feature","properties":{"metres":4.1,"name":"Avenida General Paz","osm":"way/221472045"},"geometry":{"type":"Point","coordinates":[-58.530466,-34.625486]}},{"type":"Feature","properties":{"metres":4.1,"name":"Avenida General Paz","osm":"way/221472046"},"geometry":{"type":"Point","coordinates":[-58.530343,-34.627487]}},{"type":"Feature","properties":{"metres":4.8,"name":"Coronel Martiniano Chilavert","osm":"way/221568101"},"geometry":{"type":"Point","coordinates":[-58.447422,-34.661602]}},{"type":"Feature","properties":{"metres":4.8,"name":null,"osm":"way/221577836"},"geometry":{"type":"Point","coordinates":[-58.461151,-34.643955]}},{"type":"Feature","properties":{"metres":4.8,"name":null,"osm":"way/221646319"},"geometry":{"type":"Point","coordinates":[-58.454594,-34.651336]}},{"type":"Feature","properties":{"metres":4.8,"name":"Avenida Perito Moreno","osm":"way/221661235"},"geometry":{"type":"Point","coordinates":[-58.454432,-34.650882]}},{"type":"Feature","properties":{"metres":3.8,"name":"Reforma Universitaria de 1918","osm":"way/221667340"},"geometry":{"type":"Point","coordinates":[-58.439045,-34.545357]}},{"type":"Feature","properties":{"metres":4.1,"name":null,"osm":"way/223091980"},"geometry":{"type":"Point","coordinates":[-58.494488,-34.547383]}},{"type":"Feature","properties":{"metres":4.1,"name":"Avenida General Paz","osm":"way/223092019"},"geometry":{"type":"Point","coordinates":[-58.47923,-34.540794]}},{"type":"Feature","properties":{"metres":4.1,"name":"Avenida General Paz","osm":"way/223092020"},"geometry":{"type":"Point","coordinates":[-58.485477,-34.543671]}},{"type":"Feature","properties":{"metres":4.1,"name":null,"osm":"way/223092065"},"geometry":{"type":"Point","coordinates":[-58.489724,-34.545883]}},{"type":"Feature","properties":{"metres":4.1,"name":null,"osm":"way/226508728"},"geometry":{"type":"Point","coordinates":[-58.494485,-34.547587]}},{"type":"Feature","properties":{"metres":4.1,"name":"Avenida General Paz","osm":"way/226508738"},"geometry":{"type":"Point","coordinates":[-58.497112,-34.548384]}},{"type":"Feature","properties":{"metres":4.1,"name":"Avenida General Paz","osm":"way/226508739"},"geometry":{"type":"Point","coordinates":[-58.495909,-34.54799]}},{"type":"Feature","properties":{"metres":4.1,"name":null,"osm":"way/226508763"},"geometry":{"type":"Point","coordinates":[-58.497191,-34.548223]}},{"type":"Feature","properties":{"metres":4.8,"name":"Avenida Juramento","osm":"way/226612457"},"geometry":{"type":"Point","coordinates":[-58.450453,-34.558337]}},{"type":"Feature","properties":{"metres":4.1,"name":"Avenida General Paz","osm":"way/229110325"},"geometry":{"type":"Point","coordinates":[-58.530305,-34.628556]}},{"type":"Feature","properties":{"metres":4.1,"name":null,"osm":"way/234155843"},"geometry":{"type":"Point","coordinates":[-58.509018,-34.668573]}},{"type":"Feature","properties":{"metres":4.1,"name":"Avenida General Paz","osm":"way/234947415"},"geometry":{"type":"Point","coordinates":[-58.483921,-34.542678]}},{"type":"Feature","properties":{"metres":4.1,"name":null,"osm":"way/240078449"},"geometry":{"type":"Point","coordinates":[-58.489959,-34.545712]}},{"type":"Feature","properties":{"metres":4.1,"name":"Avenida Del Libertador","osm":"way/241194497"},"geometry":{"type":"Point","coordinates":[-58.444709,-34.560055]}},{"type":"Feature","properties":{"metres":4.1,"name":"Avenida Del Libertador","osm":"way/241194498"},"geometry":{"type":"Point","coordinates":[-58.44515,-34.559577]}},{"type":"Feature","properties":{"metres":4.1,"name":"Avenida General Paz","osm":"way/244316718"},"geometry":{"type":"Point","coordinates":[-58.465225,-34.702159]}},{"type":"Feature","properties":{"metres":4.3,"name":"Avenida Federico Lacroze","osm":"way/246308296"},"geometry":{"type":"Point","coordinates":[-58.447019,-34.573539]}},{"type":"Feature","properties":{"metres":4.1,"name":"Avenida General Paz","osm":"way/250154366"},"geometry":{"type":"Point","coordinates":[-58.530637,-34.622544]}},{"type":"Feature","properties":{"metres":4.1,"name":"Avenida General Paz","osm":"way/250154367"},"geometry":{"type":"Point","coordinates":[-58.52632,-34.605826]}},{"type":"Feature","properties":{"metres":4.1,"name":"Avenida General Paz","osm":"way/250154368"},"geometry":{"type":"Point","coordinates":[-58.529025,-34.611241]}},{"type":"Feature","properties":{"metres":2.1,"name":"Ciudad de la Paz","osm":"way/253355108"},"geometry":{"type":"Point","coordinates":[-58.43799,-34.576619]}},{"type":"Feature","properties":{"metres":2.1,"name":"Ciudad de la Paz","osm":"way/253355109"},"geometry":{"type":"Point","coordinates":[-58.438619,-34.576226]}},{"type":"Feature","properties":{"metres":3.1,"name":"Paso Bajo Nivel Arias","osm":"way/254648330"},"geometry":{"type":"Point","coordinates":[-58.490137,-34.549497]}},{"type":"Feature","properties":{"metres":4.1,"name":"Avenida General Paz","osm":"way/255176555"},"geometry":{"type":"Point","coordinates":[-58.479727,-34.54056]}},{"type":"Feature","properties":{"metres":153.0,"name":null,"osm":"way/256804284"},"geometry":{"type":"Point","coordinates":[-58.359257,-34.612422]}},{"type":"Feature","properties":{"metres":4.5,"name":"Avenida Juan Bautista Justo","osm":"way/261660282"},"geometry":{"type":"Point","coordinates":[-58.437854,-34.587839]}},{"type":"Feature","properties":{"metres":4.1,"name":"Avenida General Paz","osm":"way/263739895"},"geometry":{"type":"Point","coordinates":[-58.499167,-34.67648]}},{"type":"Feature","properties":{"metres":4.1,"name":"Avenida General Paz","osm":"way/268206173"},"geometry":{"type":"Point","coordinates":[-58.499283,-34.549872]}},{"type":"Feature","properties":{"metres":4.1,"name":null,"osm":"way/269328945"},"geometry":{"type":"Point","coordinates":[-58.495589,-34.547337]}},{"type":"Feature","properties":{"metres":4.1,"name":"Avenida General Paz","osm":"way/269335842"},"geometry":{"type":"Point","coordinates":[-58.49648,-34.548349]}},{"type":"Feature","properties":{"metres":4.1,"name":"Avenida General Paz","osm":"way/272135184"},"geometry":{"type":"Point","coordinates":[-58.495883,-34.67878]}},{"type":"Feature","properties":{"metres":3.6,"name":"Congreso","osm":"way/286005467"},"geometry":{"type":"Point","coordinates":[-58.457892,-34.553045]}},{"type":"Feature","properties":{"metres":3.6,"name":"Congreso","osm":"way/286005468"},"geometry":{"type":"Point","coordinates":[-58.45826,-34.553234]}},{"type":"Feature","properties":{"metres":4.1,"name":"Avenida General Paz","osm":"way/288856943"},"geometry":{"type":"Point","coordinates":[-58.499104,-34.549537]}},{"type":"Feature","properties":{"metres":4.1,"name":"Avenida General Paz","osm":"way/289661752"},"geometry":{"type":"Point","coordinates":[-58.516732,-34.585044]}},{"type":"Feature","properties":{"metres":4.1,"name":"Avenida de los Constituyentes","osm":"way/289885356"},"geometry":{"type":"Point","coordinates":[-58.509186,-34.569904]}},{"type":"Feature","properties":{"metres":4.1,"name":"Avenida General Paz","osm":"way/291271628"},"geometry":{"type":"Point","coordinates":[-58.494822,-34.547413]}},{"type":"Feature","properties":{"metres":4.1,"name":"Avenida General Paz","osm":"way/291271629"},"geometry":{"type":"Point","coordinates":[-58.493253,-34.546816]}},{"type":"Feature","properties":{"metres":4.1,"name":"Avenida General Paz","osm":"way/291271630"},"geometry":{"type":"Point","coordinates":[-58.493558,-34.546852]}},{"type":"Feature","properties":{"metres":4.1,"name":"Avenida General Paz","osm":"way/291271631"},"geometry":{"type":"Point","coordinates":[-58.492683,-34.546562]}},{"type":"Feature","properties":{"metres":4.1,"name":"Avenida General Paz","osm":"way/292491999"},"geometry":{"type":"Point","coordinates":[-58.503395,-34.673279]}},{"type":"Feature","properties":{"metres":3.8,"name":"Avenida General Paz","osm":"way/292492003"},"geometry":{"type":"Point","coordinates":[-58.508502,-34.669412]}},{"type":"Feature","properties":{"metres":4.1,"name":"Avenida General Paz","osm":"way/292492004"},"geometry":{"type":"Point","coordinates":[-58.503136,-34.673316]}},{"type":"Feature","properties":{"metres":3.4,"name":"Monroe","osm":"way/293056093"},"geometry":{"type":"Point","coordinates":[-58.454961,-34.555328]}},{"type":"Feature","properties":{"metres":4.1,"name":"Avenida General Paz","osm":"way/293501231"},"geometry":{"type":"Point","coordinates":[-58.464314,-34.70253]}},{"type":"Feature","properties":{"metres":4.1,"name":"Avenida General Paz","osm":"way/294448245"},"geometry":{"type":"Point","coordinates":[-58.485501,-34.686798]}},{"type":"Feature","properties":{"metres":4.1,"name":"Avenida General Paz","osm":"way/294448249"},"geometry":{"type":"Point","coordinates":[-58.491511,-34.682082]}},{"type":"Feature","properties":{"metres":4.1,"name":"Rodolfo Scapino","osm":"way/295448726"},"geometry":{"type":"Point","coordinates":[-58.499105,-34.677219]}},{"type":"Feature","properties":{"metres":4.1,"name":"Avenida General Paz","osm":"way/298244218"},"geometry":{"type":"Point","coordinates":[-58.520252,-34.592543]}},{"type":"Feature","properties":{"metres":3.8,"name":"Avenida General Paz","osm":"way/298244221"},"geometry":{"type":"Point","coordinates":[-58.514649,-34.580606]}},{"type":"Feature","properties":{"metres":4.1,"name":"Avenida General Paz","osm":"way/298244222"},"geometry":{"type":"Point","coordinates":[-58.518369,-34.588872]}},{"type":"Feature","properties":{"metres":4.1,"name":"Avenida General Paz","osm":"way/298244226"},"geometry":{"type":"Point","coordinates":[-58.512743,-34.576895]}},{"type":"Feature","properties":{"metres":4.1,"name":null,"osm":"way/298463823"},"geometry":{"type":"Point","coordinates":[-58.500178,-34.55022]}},{"type":"Feature","properties":{"metres":4.1,"name":"Avenida General Paz","osm":"way/298463825"},"geometry":{"type":"Point","coordinates":[-58.505145,-34.560669]}},{"type":"Feature","properties":{"metres":4.1,"name":"Avenida General Paz","osm":"way/298463830"},"geometry":{"type":"Point","coordinates":[-58.508273,-34.567408]}},{"type":"Feature","properties":{"metres":4.1,"name":"Avenida General Paz","osm":"way/298463831"},"geometry":{"type":"Point","coordinates":[-58.504762,-34.559498]}},{"type":"Feature","properties":{"metres":4.1,"name":"Avenida General Paz","osm":"way/298463832"},"geometry":{"type":"Point","coordinates":[-58.501047,-34.551637]}},{"type":"Feature","properties":{"metres":4.1,"name":"Avenida General Paz","osm":"way/298739053"},"geometry":{"type":"Point","coordinates":[-58.487949,-34.544292]}},{"type":"Feature","properties":{"metres":4.1,"name":"Avenida General Paz","osm":"way/298739054"},"geometry":{"type":"Point","coordinates":[-58.487238,-34.543595]}},{"type":"Feature","properties":{"metres":3.8,"name":"Avenida General Paz","osm":"way/300806989"},"geometry":{"type":"Point","coordinates":[-58.508324,-34.669398]}},{"type":"Feature","properties":{"metres":4.1,"name":"Avenida Del Libertador","osm":"way/301608076"},"geometry":{"type":"Point","coordinates":[-58.443931,-34.56113]}},{"type":"Feature","properties":{"metres":4.1,"name":"Avenida Del Libertador","osm":"way/301608079"},"geometry":{"type":"Point","coordinates":[-58.441296,-34.56244]}},{"type":"Feature","properties":{"metres":4.1,"name":"Avenida Del Libertador","osm":"way/301608080"},"geometry":{"type":"Point","coordinates":[-58.441304,-34.562343]}},{"type":"Feature","properties":{"metres":4.1,"name":"Avenida Del Libertador","osm":"way/301608083"},"geometry":{"type":"Point","coordinates":[-58.443244,-34.561778]}},{"type":"Feature","properties":{"metres":4.1,"name":"Avenida General Paz","osm":"way/303130470"},"geometry":{"type":"Point","coordinates":[-58.519153,-34.590198]}},{"type":"Feature","properties":{"metres":4.1,"name":"Avenida General Paz","osm":"way/303130474"},"geometry":{"type":"Point","coordinates":[-58.530281,-34.613911]}},{"type":"Feature","properties":{"metres":4.1,"name":"Avenida General Paz","osm":"way/303130475"},"geometry":{"type":"Point","coordinates":[-58.516344,-34.584573]}},{"type":"Feature","properties":{"metres":4.1,"name":"Avenida General Paz","osm":"way/303130478"},"geometry":{"type":"Point","coordinates":[-58.530483,-34.614699]}},{"type":"Feature","properties":{"metres":4.1,"name":"Avenida General Paz","osm":"way/303130480"},"geometry":{"type":"Point","coordinates":[-58.492174,-34.546337]}},{"type":"Feature","properties":{"metres":4.1,"name":"Avenida General Paz","osm":"way/303130481"},"geometry":{"type":"Point","coordinates":[-58.510566,-34.572242]}},{"type":"Feature","properties":{"metres":4.1,"name":"Avenida General Paz","osm":"way/303130485"},"geometry":{"type":"Point","coordinates":[-58.528162,-34.609744]}},{"type":"Feature","properties":{"metres":4.1,"name":"Avenida General Paz","osm":"way/303130486"},"geometry":{"type":"Point","coordinates":[-58.510902,-34.572608]}},{"type":"Feature","properties":{"metres":4.1,"name":"Avenida General Paz","osm":"way/303130487"},"geometry":{"type":"Point","coordinates":[-58.500805,-34.551495]}},{"type":"Feature","properties":{"metres":4.1,"name":"Avenida General Paz","osm":"way/303130488"},"geometry":{"type":"Point","coordinates":[-58.531002,-34.616034]}},{"type":"Feature","properties":{"metres":4.1,"name":"Avenida General Paz","osm":"way/303404812"},"geometry":{"type":"Point","coordinates":[-58.530231,-34.62675]}},{"type":"Feature","properties":{"metres":4.1,"name":null,"osm":"way/303412719"},"geometry":{"type":"Point","coordinates":[-58.495433,-34.547426]}},{"type":"Feature","properties":{"metres":3.6,"name":"Manuela Pedraza","osm":"way/305215467"},"geometry":{"type":"Point","coordinates":[-58.461975,-34.549054]}},{"type":"Feature","properties":{"metres":3.6,"name":"Manuela Pedraza","osm":"way/305215468"},"geometry":{"type":"Point","coordinates":[-58.461183,-34.548657]}},{"type":"Feature","properties":{"metres":2.1,"name":"Puente Bosch","osm":"way/305429230"},"geometry":{"type":"Point","coordinates":[-58.37818,-34.657644]}},{"type":"Feature","properties":{"metres":4.1,"name":"Avenida General Paz","osm":"way/305653256"},"geometry":{"type":"Point","coordinates":[-58.514554,-34.58114]}},{"type":"Feature","properties":{"metres":4.1,"name":"Avenida General Paz","osm":"way/305654322"},"geometry":{"type":"Point","coordinates":[-58.47603,-34.693962]}},{"type":"Feature","properties":{"metres":4.8,"name":"Avenida Juramento","osm":"way/312352619"},"geometry":{"type":"Point","coordinates":[-58.450112,-34.558119]}},{"type":"Feature","properties":{"metres":5.1,"name":"Paso Bajo Nivel Balbin Gatica - Goyeneche","osm":"way/312879959"},"geometry":{"type":"Point","coordinates":[-58.487987,-34.554895]}},{"type":"Feature","properties":{"metres":4.1,"name":"Avenida Juan Bautista Justo","osm":"way/313857390"},"geometry":{"type":"Point","coordinates":[-58.530263,-34.63467]}},{"type":"Feature","properties":{"metres":4.1,"name":"Avenida General Paz","osm":"way/317526836"},"geometry":{"type":"Point","coordinates":[-58.502331,-34.554328]}},{"type":"Feature","properties":{"metres":2.15,"name":null,"osm":"way/318025860"},"geometry":{"type":"Point","coordinates":[-58.426685,-34.578593]}},{"type":"Feature","properties":{"metres":2.15,"name":null,"osm":"way/318025866"},"geometry":{"type":"Point","coordinates":[-58.42777,-34.579868]}},{"type":"Feature","properties":{"metres":4.5,"name":"Avenida Warnes","osm":"way/318656095"},"geometry":{"type":"Point","coordinates":[-58.46557,-34.596438]}},{"type":"Feature","properties":{"metres":2.8,"name":"Soler","osm":"way/319368380"},"geometry":{"type":"Point","coordinates":[-58.430281,-34.582718]}},{"type":"Feature","properties":{"metres":4.2,"name":"Autopista 25 de Mayo","osm":"way/325211950"},"geometry":{"type":"Point","coordinates":[-58.371703,-34.622641]}},{"type":"Feature","properties":{"metres":3.9,"name":"Juan Zufriategui","osm":"way/347993688"},"geometry":{"type":"Point","coordinates":[-58.463628,-34.534611]}},{"type":"Feature","properties":{"metres":3.6,"name":"Congreso","osm":"way/356660852"},"geometry":{"type":"Point","coordinates":[-58.457026,-34.552598]}},{"type":"Feature","properties":{"metres":4.1,"name":null,"osm":"way/357942439"},"geometry":{"type":"Point","coordinates":[-58.526475,-34.605525]}},{"type":"Feature","properties":{"metres":4.1,"name":null,"osm":"way/359453731"},"geometry":{"type":"Point","coordinates":[-58.475713,-34.539488]}},{"type":"Feature","properties":{"metres":4.1,"name":"Avenida General Paz","osm":"way/360972841"},"geometry":{"type":"Point","coordinates":[-58.477632,-34.539818]}},{"type":"Feature","properties":{"metres":4.1,"name":"Avenida General Paz","osm":"way/360972842"},"geometry":{"type":"Point","coordinates":[-58.480305,-34.541114]}},{"type":"Feature","properties":{"metres":4.1,"name":null,"osm":"way/361630992"},"geometry":{"type":"Point","coordinates":[-58.517915,-34.588293]}},{"type":"Feature","properties":{"metres":5.3,"name":"Viaducto Carranza","osm":"way/362337743"},"geometry":{"type":"Point","coordinates":[-58.434928,-34.575257]}},{"type":"Feature","properties":{"metres":5.3,"name":"Viaducto Carranza","osm":"way/362337747"},"geometry":{"type":"Point","coordinates":[-58.43296,-34.576126]}},{"type":"Feature","properties":{"metres":5.3,"name":"Viaducto Carranza","osm":"way/362337751"},"geometry":{"type":"Point","coordinates":[-58.434047,-34.575574]}},{"type":"Feature","properties":{"metres":5.3,"name":"Viaducto Carranza","osm":"way/362337755"},"geometry":{"type":"Point","coordinates":[-58.434088,-34.575633]}},{"type":"Feature","properties":{"metres":5.3,"name":"Viaducto Carranza","osm":"way/362337759"},"geometry":{"type":"Point","coordinates":[-58.435262,-34.575023]}},{"type":"Feature","properties":{"metres":5.3,"name":"Viaducto Carranza","osm":"way/362337763"},"geometry":{"type":"Point","coordinates":[-58.43489,-34.575191]}},{"type":"Feature","properties":{"metres":5.3,"name":"Viaducto Carranza","osm":"way/362337768"},"geometry":{"type":"Point","coordinates":[-58.435658,-34.574851]}},{"type":"Feature","properties":{"metres":5.3,"name":"Viaducto Carranza","osm":"way/362337771"},"geometry":{"type":"Point","coordinates":[-58.436159,-34.574588]}},{"type":"Feature","properties":{"metres":5.3,"name":"Viaducto Carranza","osm":"way/362337772"},"geometry":{"type":"Point","coordinates":[-58.436037,-34.574735]}},{"type":"Feature","properties":{"metres":4.2,"name":"Metrobús 25 de Mayo","osm":"way/363208220"},"geometry":{"type":"Point","coordinates":[-58.464866,-34.648857]}},{"type":"Feature","properties":{"metres":4.1,"name":"Avenida General Paz","osm":"way/366750487"},"geometry":{"type":"Point","coordinates":[-58.530127,-34.631979]}},{"type":"Feature","properties":{"metres":4.2,"name":"Monroe","osm":"way/367372237"},"geometry":{"type":"Point","coordinates":[-58.474173,-34.567156]}},{"type":"Feature","properties":{"metres":4.2,"name":"Monroe","osm":"way/367372238"},"geometry":{"type":"Point","coordinates":[-58.472841,-34.566357]}},{"type":"Feature","properties":{"metres":4.1,"name":null,"osm":"way/370513894"},"geometry":{"type":"Point","coordinates":[-58.518101,-34.588116]}},{"type":"Feature","properties":{"metres":3.9,"name":null,"osm":"way/371434599"},"geometry":{"type":"Point","coordinates":[-58.466627,-34.535227]}},{"type":"Feature","properties":{"metres":3.6,"name":"Crisólogo Larralde","osm":"way/371542835"},"geometry":{"type":"Point","coordinates":[-58.464,-34.546839]}},{"type":"Feature","properties":{"metres":3.8,"name":"Avenida General Paz","osm":"way/373347876"},"geometry":{"type":"Point","coordinates":[-58.512889,-34.576844]}},{"type":"Feature","properties":{"metres":4.1,"name":"Avenida General Paz","osm":"way/374041667"},"geometry":{"type":"Point","coordinates":[-58.530557,-34.623869]}},{"type":"Feature","properties":{"metres":4.1,"name":"Avenida General Paz","osm":"way/374223831"},"geometry":{"type":"Point","coordinates":[-58.474384,-34.538328]}},{"type":"Feature","properties":{"metres":4.1,"name":"Avenida General Paz","osm":"way/374223832"},"geometry":{"type":"Point","coordinates":[-58.476205,-34.539112]}},{"type":"Feature","properties":{"metres":4.1,"name":"Avenida General Paz","osm":"way/374223833"},"geometry":{"type":"Point","coordinates":[-58.477712,-34.539691]}},{"type":"Feature","properties":{"metres":4.1,"name":"Avenida General Paz","osm":"way/374223834"},"geometry":{"type":"Point","coordinates":[-58.477292,-34.539472]}},{"type":"Feature","properties":{"metres":4.1,"name":"Avenida General Paz","osm":"way/374223835"},"geometry":{"type":"Point","coordinates":[-58.473558,-34.538011]}},{"type":"Feature","properties":{"metres":4.1,"name":"Avenida General Paz","osm":"way/374223836"},"geometry":{"type":"Point","coordinates":[-58.474999,-34.538415]}},{"type":"Feature","properties":{"metres":4.1,"name":"Avenida General Paz","osm":"way/374223837"},"geometry":{"type":"Point","coordinates":[-58.475575,-34.538824]}},{"type":"Feature","properties":{"metres":4.1,"name":"Avenida General Paz","osm":"way/374223838"},"geometry":{"type":"Point","coordinates":[-58.475908,-34.538806]}},{"type":"Feature","properties":{"metres":5.1,"name":null,"osm":"way/375881326"},"geometry":{"type":"Point","coordinates":[-58.366359,-34.622026]}},{"type":"Feature","properties":{"metres":5.1,"name":"Paseo del Bajo - Presidente Dr. Raúl R. Alfonsín","osm":"way/375881382"},"geometry":{"type":"Point","coordinates":[-58.364474,-34.623789]}},{"type":"Feature","properties":{"metres":4.1,"name":"Avenida General Paz","osm":"way/378389135"},"geometry":{"type":"Point","coordinates":[-58.530103,-34.628197]}},{"type":"Feature","properties":{"metres":5.05,"name":"Avenida de los Constituyentes","osm":"way/380145412"},"geometry":{"type":"Point","coordinates":[-58.496895,-34.578242]}},{"type":"Feature","properties":{"metres":3.0,"name":"Donado","osm":"way/380891318"},"geometry":{"type":"Point","coordinates":[-58.478933,-34.568597]}},{"type":"Feature","properties":{"metres":3.0,"name":"Holmberg","osm":"way/380891321"},"geometry":{"type":"Point","coordinates":[-58.478178,-34.567896]}},{"type":"Feature","properties":{"metres":4.1,"name":null,"osm":"way/397374022"},"geometry":{"type":"Point","coordinates":[-58.518309,-34.589309]}},{"type":"Feature","properties":{"metres":4.1,"name":null,"osm":"way/397374023"},"geometry":{"type":"Point","coordinates":[-58.518189,-34.588817]}},{"type":"Feature","properties":{"metres":4.1,"name":"Avenida General Paz","osm":"way/402068412"},"geometry":{"type":"Point","coordinates":[-58.520652,-34.593746]}},{"type":"Feature","properties":{"metres":4.1,"name":"Avenida General Paz","osm":"way/405237624"},"geometry":{"type":"Point","coordinates":[-58.502704,-34.55513]}},{"type":"Feature","properties":{"metres":4.1,"name":"Avenida General Paz","osm":"way/405237625"},"geometry":{"type":"Point","coordinates":[-58.50285,-34.555441]}},{"type":"Feature","properties":{"metres":4.1,"name":null,"osm":"way/405407893"},"geometry":{"type":"Point","coordinates":[-58.519068,-34.589447]}},{"type":"Feature","properties":{"metres":5.1,"name":"Avenida San Martín","osm":"way/405411395"},"geometry":{"type":"Point","coordinates":[-58.50301,-34.594676]}},{"type":"Feature","properties":{"metres":4.25,"name":"Coronel Esteban Bonorino","osm":"way/407514455"},"geometry":{"type":"Point","coordinates":[-58.454545,-34.637698]}},{"type":"Feature","properties":{"metres":4.1,"name":"Avenida Del Libertador","osm":"way/418576256"},"geometry":{"type":"Point","coordinates":[-58.439385,-34.562729]}},{"type":"Feature","properties":{"metres":4.1,"name":"Avenida Del Libertador","osm":"way/418587775"},"geometry":{"type":"Point","coordinates":[-58.445058,-34.559812]}},{"type":"Feature","properties":{"metres":4.1,"name":null,"osm":"way/422128735"},"geometry":{"type":"Point","coordinates":[-58.519792,-34.592357]}},{"type":"Feature","properties":{"metres":2.4,"name":"Ceretti","osm":"way/426037786"},"geometry":{"type":"Point","coordinates":[-58.493523,-34.577621]}},{"type":"Feature","properties":{"metres":2.5,"name":null,"osm":"way/437512115"},"geometry":{"type":"Point","coordinates":[-58.487594,-34.545975]}},{"type":"Feature","properties":{"metres":3.1,"name":"Avenida del Fomentista","osm":"way/439441645"},"geometry":{"type":"Point","coordinates":[-58.512467,-34.581501]}},{"type":"Feature","properties":{"metres":2.4,"name":"Ceretti","osm":"way/440436963"},"geometry":{"type":"Point","coordinates":[-58.493664,-34.577444]}},{"type":"Feature","properties":{"metres":2.8,"name":"Altolaguirre","osm":"way/440436964"},"geometry":{"type":"Point","coordinates":[-58.490819,-34.577042]}},{"type":"Feature","properties":{"metres":2.1,"name":"Avenida Ruiz Huidobro","osm":"way/451419671"},"geometry":{"type":"Point","coordinates":[-58.488627,-34.551714]}},{"type":"Feature","properties":{"metres":3.8,"name":"Reforma Universitaria de 1918","osm":"way/454892463"},"geometry":{"type":"Point","coordinates":[-58.439229,-34.545407]}},{"type":"Feature","properties":{"metres":2.2,"name":null,"osm":"way/459123646"},"geometry":{"type":"Point","coordinates":[-58.418909,-34.578725]}},{"type":"Feature","properties":{"metres":4.8,"name":"Avenida Perito Moreno","osm":"way/462876180"},"geometry":{"type":"Point","coordinates":[-58.454418,-34.650797]}},{"type":"Feature","properties":{"metres":3.0,"name":null,"osm":"way/463322792"},"geometry":{"type":"Point","coordinates":[-58.459142,-34.674051]}},{"type":"Feature","properties":{"metres":5.05,"name":"Avenida de los Constituyentes","osm":"way/471171580"},"geometry":{"type":"Point","coordinates":[-58.493574,-34.580791]}},{"type":"Feature","properties":{"metres":3.0,"name":"Holmberg","osm":"way/471190513"},"geometry":{"type":"Point","coordinates":[-58.478586,-34.567436]}},{"type":"Feature","properties":{"metres":5.05,"name":"Avenida de los Constituyentes","osm":"way/471284559"},"geometry":{"type":"Point","coordinates":[-58.495198,-34.57957]}},{"type":"Feature","properties":{"metres":4.2,"name":"Monroe","osm":"way/471642329"},"geometry":{"type":"Point","coordinates":[-58.474513,-34.567364]}},{"type":"Feature","properties":{"metres":2.8,"name":"Besares","osm":"way/472716990"},"geometry":{"type":"Point","coordinates":[-58.466063,-34.542783]}},{"type":"Feature","properties":{"metres":2.8,"name":"Besares","osm":"way/472716994"},"geometry":{"type":"Point","coordinates":[-58.465679,-34.542597]}},{"type":"Feature","properties":{"metres":4.5,"name":"Avenida Warnes","osm":"way/473611220"},"geometry":{"type":"Point","coordinates":[-58.465123,-34.596546]}},{"type":"Feature","properties":{"metres":4.5,"name":"Avenida Warnes","osm":"way/473611221"},"geometry":{"type":"Point","coordinates":[-58.464944,-34.596448]}},{"type":"Feature","properties":{"metres":2.1,"name":null,"osm":"way/476370275"},"geometry":{"type":"Point","coordinates":[-58.404085,-34.598756]}},{"type":"Feature","properties":{"metres":5.1,"name":"Túnel Gustavo Cerati","osm":"way/480725608"},"geometry":{"type":"Point","coordinates":[-58.489596,-34.592476]}},{"type":"Feature","properties":{"metres":5.1,"name":"Túnel Gustavo Cerati","osm":"way/480966514"},"geometry":{"type":"Point","coordinates":[-58.488962,-34.591821]}},{"type":"Feature","properties":{"metres":5.1,"name":"Avenida Francisco Beiró","osm":"way/480966515"},"geometry":{"type":"Point","coordinates":[-58.492588,-34.594039]}},{"type":"Feature","properties":{"metres":5.1,"name":"Túnel Gustavo Cerati","osm":"way/480966516"},"geometry":{"type":"Point","coordinates":[-58.489692,-34.592454]}},{"type":"Feature","properties":{"metres":4.1,"name":null,"osm":"way/483593874"},"geometry":{"type":"Point","coordinates":[-58.496278,-34.547774]}},{"type":"Feature","properties":{"metres":4.1,"name":"Avenida General Paz","osm":"way/486275801"},"geometry":{"type":"Point","coordinates":[-58.502726,-34.555551]}},{"type":"Feature","properties":{"metres":4.1,"name":"Avenida Teniente General Luis Dellepiane","osm":"way/487890810"},"geometry":{"type":"Point","coordinates":[-58.467347,-34.65041]}},{"type":"Feature","properties":{"metres":3.1,"name":"Metrobús 9 de Julio (Norte)","osm":"way/492697720"},"geometry":{"type":"Point","coordinates":[-58.379793,-34.624044]}},{"type":"Feature","properties":{"metres":5.0,"name":null,"osm":"way/505662910"},"geometry":{"type":"Point","coordinates":[-58.471497,-34.664425]}},{"type":"Feature","properties":{"metres":4.8,"name":"Balbastro","osm":"way/537586034"},"geometry":{"type":"Point","coordinates":[-58.456246,-34.648784]}},{"type":"Feature","properties":{"metres":5.05,"name":"Avenida de los Constituyentes","osm":"way/544268794"},"geometry":{"type":"Point","coordinates":[-58.496096,-34.578866]}},{"type":"Feature","properties":{"metres":5.05,"name":"Avenida de los Constituyentes","osm":"way/544268796"},"geometry":{"type":"Point","coordinates":[-58.493766,-34.580653]}},{"type":"Feature","properties":{"metres":4.1,"name":"Avenida Lacarra","osm":"way/553137600"},"geometry":{"type":"Point","coordinates":[-58.466734,-34.651615]}},{"type":"Feature","properties":{"metres":4.1,"name":"Avenida General Paz","osm":"way/554290854"},"geometry":{"type":"Point","coordinates":[-58.485307,-34.543121]}},{"type":"Feature","properties":{"metres":4.1,"name":null,"osm":"way/560802654"},"geometry":{"type":"Point","coordinates":[-58.529811,-34.632914]}},{"type":"Feature","properties":{"metres":3.5,"name":"Superí","osm":"way/562053322"},"geometry":{"type":"Point","coordinates":[-58.468059,-34.566101]}},{"type":"Feature","properties":{"metres":5.1,"name":"Paso Bajo Nivel Balbin Gatica - Goyeneche","osm":"way/614089690"},"geometry":{"type":"Point","coordinates":[-58.486806,-34.554871]}},{"type":"Feature","properties":{"metres":5.1,"name":"Paso Bajo Nivel Balbin Gatica - Goyeneche","osm":"way/614107219"},"geometry":{"type":"Point","coordinates":[-58.486002,-34.554917]}},{"type":"Feature","properties":{"metres":5.1,"name":"Paso Bajo Nivel Balbin Gatica - Goyeneche","osm":"way/614107220"},"geometry":{"type":"Point","coordinates":[-58.487987,-34.554972]}},{"type":"Feature","properties":{"metres":5.1,"name":"Paso Bajo Nivel Balbin Gatica - Goyeneche","osm":"way/614107226"},"geometry":{"type":"Point","coordinates":[-58.484267,-34.55487]}},{"type":"Feature","properties":{"metres":5.1,"name":"Paso Bajo Nivel Balbin Gatica - Goyeneche","osm":"way/614107230"},"geometry":{"type":"Point","coordinates":[-58.484254,-34.554805]}},{"type":"Feature","properties":{"metres":4.1,"name":"Avenida General Paz","osm":"way/615073908"},"geometry":{"type":"Point","coordinates":[-58.484972,-34.542709]}},{"type":"Feature","properties":{"metres":4.1,"name":"Avenida General Paz","osm":"way/615073909"},"geometry":{"type":"Point","coordinates":[-58.484033,-34.542336]}},{"type":"Feature","properties":{"metres":5.1,"name":"Avenida 27 de Febrero","osm":"way/623971142"},"geometry":{"type":"Point","coordinates":[-58.44027,-34.679801]}},{"type":"Feature","properties":{"metres":4.1,"name":"Avenida General Paz","osm":"way/625810438"},"geometry":{"type":"Point","coordinates":[-58.488216,-34.684587]}},{"type":"Feature","properties":{"metres":4.1,"name":"Avenida General Paz","osm":"way/625810440"},"geometry":{"type":"Point","coordinates":[-58.485082,-34.686957]}},{"type":"Feature","properties":{"metres":4.1,"name":"Avenida General Paz","osm":"way/625810448"},"geometry":{"type":"Point","coordinates":[-58.52461,-34.602183]}},{"type":"Feature","properties":{"metres":4.1,"name":"Avenida General Paz","osm":"way/625810452"},"geometry":{"type":"Point","coordinates":[-58.473612,-34.537885]}},{"type":"Feature","properties":{"metres":4.1,"name":"Avenida General Paz","osm":"way/625810453"},"geometry":{"type":"Point","coordinates":[-58.468612,-34.53589]}},{"type":"Feature","properties":{"metres":4.1,"name":"Avenida General Paz","osm":"way/625810457"},"geometry":{"type":"Point","coordinates":[-58.466015,-34.534737]}},{"type":"Feature","properties":{"metres":4.1,"name":"Avenida General Paz","osm":"way/625859769"},"geometry":{"type":"Point","coordinates":[-58.527817,-34.608669]}},{"type":"Feature","properties":{"metres":4.8,"name":"Balbastro","osm":"way/633723087"},"geometry":{"type":"Point","coordinates":[-58.455802,-34.649152]}},{"type":"Feature","properties":{"metres":4.8,"name":"Crisóstomo Álvarez","osm":"way/633723093"},"geometry":{"type":"Point","coordinates":[-58.458645,-34.646458]}},{"type":"Feature","properties":{"metres":4.8,"name":"Zuviría","osm":"way/633723097"},"geometry":{"type":"Point","coordinates":[-58.459532,-34.64555]}},{"type":"Feature","properties":{"metres":4.8,"name":"Echeandia","osm":"way/633723105"},"geometry":{"type":"Point","coordinates":[-58.46065,-34.644466]}},{"type":"Feature","properties":{"metres":5.1,"name":"Paseo del Bajo - Presidente Dr. Raúl R. Alfonsín","osm":"way/640456533"},"geometry":{"type":"Point","coordinates":[-58.366534,-34.612792]}},{"type":"Feature","properties":{"metres":5.1,"name":"Paseo del Bajo - Presidente Dr. Raúl R. Alfonsín","osm":"way/640456534"},"geometry":{"type":"Point","coordinates":[-58.370807,-34.590517]}},{"type":"Feature","properties":{"metres":4.8,"name":"José Barros Pazos","osm":"way/640613604"},"geometry":{"type":"Point","coordinates":[-58.448278,-34.66087]}},{"type":"Feature","properties":{"metres":5.1,"name":"Avenida Nazca","osm":"way/644884216"},"geometry":{"type":"Point","coordinates":[-58.49034,-34.600813]}},{"type":"Feature","properties":{"metres":5.1,"name":"Paseo del Bajo - Presidente Dr. Raúl R. Alfonsín","osm":"way/654631776"},"geometry":{"type":"Point","coordinates":[-58.367073,-34.606616]}},{"type":"Feature","properties":{"metres":5.1,"name":"Paseo del Bajo - Presidente Dr. Raúl R. Alfonsín","osm":"way/662233911"},"geometry":{"type":"Point","coordinates":[-58.372428,-34.585543]}},{"type":"Feature","properties":{"metres":5.1,"name":"Paseo del Bajo - Presidente Dr. Raúl R. Alfonsín","osm":"way/662233912"},"geometry":{"type":"Point","coordinates":[-58.370716,-34.590456]}},{"type":"Feature","properties":{"metres":5.1,"name":"Paseo del Bajo - Presidente Dr. Raúl R. Alfonsín","osm":"way/662233914"},"geometry":{"type":"Point","coordinates":[-58.372554,-34.585548]}},{"type":"Feature","properties":{"metres":4.1,"name":"Avenida General Paz","osm":"way/670140904"},"geometry":{"type":"Point","coordinates":[-58.470798,-34.53688]}},{"type":"Feature","properties":{"metres":4.8,"name":"Echeverría","osm":"way/673762741"},"geometry":{"type":"Point","coordinates":[-58.449173,-34.558996]}},{"type":"Feature","properties":{"metres":5.1,"name":"Paseo del Bajo - Presidente Dr. Raúl R. Alfonsín","osm":"way/679629928"},"geometry":{"type":"Point","coordinates":[-58.372049,-34.586978]}},{"type":"Feature","properties":{"metres":5.1,"name":"Paseo del Bajo - Presidente Dr. Raúl R. Alfonsín","osm":"way/679629929"},"geometry":{"type":"Point","coordinates":[-58.369499,-34.59521]}},{"type":"Feature","properties":{"metres":5.1,"name":"Paseo del Bajo - Presidente Dr. Raúl R. Alfonsín","osm":"way/679629930"},"geometry":{"type":"Point","coordinates":[-58.369589,-34.59524]}},{"type":"Feature","properties":{"metres":5.1,"name":"Paseo del Bajo - Presidente Dr. Raúl R. Alfonsín","osm":"way/679638273"},"geometry":{"type":"Point","coordinates":[-58.370479,-34.591837]}},{"type":"Feature","properties":{"metres":5.1,"name":"Paseo del Bajo - Presidente Dr. Raúl R. Alfonsín","osm":"way/679638274"},"geometry":{"type":"Point","coordinates":[-58.370576,-34.591842]}},{"type":"Feature","properties":{"metres":3.2,"name":"Blanco Encalada","osm":"way/680085210"},"geometry":{"type":"Point","coordinates":[-58.454421,-34.556437]}},{"type":"Feature","properties":{"metres":5.1,"name":null,"osm":"way/680257320"},"geometry":{"type":"Point","coordinates":[-58.365733,-34.619898]}},{"type":"Feature","properties":{"metres":5.1,"name":"Paseo del Bajo - Presidente Dr. Raúl R. Alfonsín","osm":"way/680257321"},"geometry":{"type":"Point","coordinates":[-58.365784,-34.620262]}},{"type":"Feature","properties":{"metres":5.1,"name":"Paseo del Bajo - Presidente Dr. Raúl R. Alfonsín","osm":"way/680257324"},"geometry":{"type":"Point","coordinates":[-58.365701,-34.621105]}},{"type":"Feature","properties":{"metres":4.8,"name":"Mendoza","osm":"way/680360276"},"geometry":{"type":"Point","coordinates":[-58.451038,-34.557222]}},{"type":"Feature","properties":{"metres":4.8,"name":"Mendoza","osm":"way/680360278"},"geometry":{"type":"Point","coordinates":[-58.451337,-34.557399]}},{"type":"Feature","properties":{"metres":3.1,"name":"Metrobús 9 de Julio (Norte)","osm":"way/686011048"},"geometry":{"type":"Point","coordinates":[-58.379697,-34.624205]}},{"type":"Feature","properties":{"metres":4.2,"name":"Metrobús 25 de Mayo","osm":"way/686503878"},"geometry":{"type":"Point","coordinates":[-58.466191,-34.650288]}},{"type":"Feature","properties":{"metres":4.8,"name":"Mariscal Antonio José de Sucre","osm":"way/689784614"},"geometry":{"type":"Point","coordinates":[-58.447806,-34.559616]}},{"type":"Feature","properties":{"metres":5.1,"name":"Paseo del Bajo - Presidente Dr. Raúl R. Alfonsín","osm":"way/693657272"},"geometry":{"type":"Point","coordinates":[-58.36194,-34.625163]}},{"type":"Feature","properties":{"metres":5.1,"name":null,"osm":"way/697069050"},"geometry":{"type":"Point","coordinates":[-58.368418,-34.622553]}},{"type":"Feature","properties":{"metres":4.8,"name":"Echeverría","osm":"way/701979654"},"geometry":{"type":"Point","coordinates":[-58.448915,-34.55884]}},{"type":"Feature","properties":{"metres":5.1,"name":"Túnel Gustavo Cerati","osm":"way/708180109"},"geometry":{"type":"Point","coordinates":[-58.488831,-34.5917]}},{"type":"Feature","properties":{"metres":5.1,"name":"Túnel Gustavo Cerati","osm":"way/708180117"},"geometry":{"type":"Point","coordinates":[-58.489968,-34.592738]}},{"type":"Feature","properties":{"metres":5.1,"name":"Túnel Gustavo Cerati","osm":"way/708180118"},"geometry":{"type":"Point","coordinates":[-58.490508,-34.592965]}},{"type":"Feature","properties":{"metres":5.1,"name":"Túnel Gustavo Cerati","osm":"way/708180119"},"geometry":{"type":"Point","coordinates":[-58.49118,-34.59346]}},{"type":"Feature","properties":{"metres":5.1,"name":"Túnel Gustavo Cerati","osm":"way/708180120"},"geometry":{"type":"Point","coordinates":[-58.491195,-34.59338]}},{"type":"Feature","properties":{"metres":5.1,"name":"Túnel Gustavo Cerati","osm":"way/708180121"},"geometry":{"type":"Point","coordinates":[-58.492191,-34.593832]}},{"type":"Feature","properties":{"metres":4.8,"name":"Echeverría","osm":"way/713251580"},"geometry":{"type":"Point","coordinates":[-58.448832,-34.558789]}},{"type":"Feature","properties":{"metres":4.5,"name":"Avenida Córdoba","osm":"way/722092107"},"geometry":{"type":"Point","coordinates":[-58.438562,-34.588645]}},{"type":"Feature","properties":{"metres":4.5,"name":"Avenida Juan Bautista Justo","osm":"way/722092111"},"geometry":{"type":"Point","coordinates":[-58.437964,-34.587824]}},{"type":"Feature","properties":{"metres":5.1,"name":"Paseo del Bajo - Presidente Dr. Raúl R. Alfonsín","osm":"way/797145176"},"geometry":{"type":"Point","coordinates":[-58.366966,-34.608585]}},{"type":"Feature","properties":{"metres":5.1,"name":"Paseo del Bajo - Presidente Dr. Raúl R. Alfonsín","osm":"way/797145177"},"geometry":{"type":"Point","coordinates":[-58.36699,-34.608322]}},{"type":"Feature","properties":{"metres":5.1,"name":"Paseo del Bajo - Presidente Dr. Raúl R. Alfonsín","osm":"way/797145178"},"geometry":{"type":"Point","coordinates":[-58.366966,-34.606619]}},{"type":"Feature","properties":{"metres":5.1,"name":"Paseo del Bajo - Presidente Dr. Raúl R. Alfonsín","osm":"way/797145179"},"geometry":{"type":"Point","coordinates":[-58.366888,-34.608317]}},{"type":"Feature","properties":{"metres":5.1,"name":"Paseo del Bajo - Presidente Dr. Raúl R. Alfonsín","osm":"way/797145181"},"geometry":{"type":"Point","coordinates":[-58.366861,-34.60952]}},{"type":"Feature","properties":{"metres":5.1,"name":"Paseo del Bajo - Presidente Dr. Raúl R. Alfonsín","osm":"way/797145182"},"geometry":{"type":"Point","coordinates":[-58.366945,-34.608778]}},{"type":"Feature","properties":{"metres":5.1,"name":"Paseo del Bajo - Presidente Dr. Raúl R. Alfonsín","osm":"way/797145183"},"geometry":{"type":"Point","coordinates":[-58.36686,-34.608579]}},{"type":"Feature","properties":{"metres":5.1,"name":"Paseo del Bajo - Presidente Dr. Raúl R. Alfonsín","osm":"way/797145184"},"geometry":{"type":"Point","coordinates":[-58.36684,-34.608772]}},{"type":"Feature","properties":{"metres":5.1,"name":"Paseo del Bajo - Presidente Dr. Raúl R. Alfonsín","osm":"way/797145186"},"geometry":{"type":"Point","coordinates":[-58.366026,-34.617167]}},{"type":"Feature","properties":{"metres":5.1,"name":"Paseo del Bajo - Presidente Dr. Raúl R. Alfonsín","osm":"way/797145187"},"geometry":{"type":"Point","coordinates":[-58.366003,-34.617356]}},{"type":"Feature","properties":{"metres":5.1,"name":"Paseo del Bajo - Presidente Dr. Raúl R. Alfonsín","osm":"way/797145188"},"geometry":{"type":"Point","coordinates":[-58.366091,-34.617546]}},{"type":"Feature","properties":{"metres":5.1,"name":"Paseo del Bajo - Presidente Dr. Raúl R. Alfonsín","osm":"way/797145189"},"geometry":{"type":"Point","coordinates":[-58.366128,-34.617175]}},{"type":"Feature","properties":{"metres":5.1,"name":"Paseo del Bajo - Presidente Dr. Raúl R. Alfonsín","osm":"way/797145190"},"geometry":{"type":"Point","coordinates":[-58.366129,-34.616287]}},{"type":"Feature","properties":{"metres":5.1,"name":"Paseo del Bajo - Presidente Dr. Raúl R. Alfonsín","osm":"way/797145191"},"geometry":{"type":"Point","coordinates":[-58.366079,-34.616738]}},{"type":"Feature","properties":{"metres":5.1,"name":"Paseo del Bajo - Presidente Dr. Raúl R. Alfonsín","osm":"way/797145192"},"geometry":{"type":"Point","coordinates":[-58.366153,-34.616979]}},{"type":"Feature","properties":{"metres":5.1,"name":"Paseo del Bajo - Presidente Dr. Raúl R. Alfonsín","osm":"way/797145193"},"geometry":{"type":"Point","coordinates":[-58.366179,-34.616745]}},{"type":"Feature","properties":{"metres":5.1,"name":"Paseo del Bajo - Presidente Dr. Raúl R. Alfonsín","osm":"way/797145195"},"geometry":{"type":"Point","coordinates":[-58.366759,-34.609512]}},{"type":"Feature","properties":{"metres":5.1,"name":"Paseo del Bajo - Presidente Dr. Raúl R. Alfonsín","osm":"way/797145196"},"geometry":{"type":"Point","coordinates":[-58.366696,-34.610103]}},{"type":"Feature","properties":{"metres":5.1,"name":"Paseo del Bajo - Presidente Dr. Raúl R. Alfonsín","osm":"way/797145197"},"geometry":{"type":"Point","coordinates":[-58.366707,-34.610843]}},{"type":"Feature","properties":{"metres":5.1,"name":"Paseo del Bajo - Presidente Dr. Raúl R. Alfonsín","osm":"way/797145198"},"geometry":{"type":"Point","coordinates":[-58.366795,-34.610111]}},{"type":"Feature","properties":{"metres":5.1,"name":"Paseo del Bajo - Presidente Dr. Raúl R. Alfonsín","osm":"way/797145199"},"geometry":{"type":"Point","coordinates":[-58.366573,-34.611591]}},{"type":"Feature","properties":{"metres":5.1,"name":"Paseo del Bajo - Presidente Dr. Raúl R. Alfonsín","osm":"way/797145200"},"geometry":{"type":"Point","coordinates":[-58.366564,-34.612003]}},{"type":"Feature","properties":{"metres":5.1,"name":"Paseo del Bajo - Presidente Dr. Raúl R. Alfonsín","osm":"way/797145201"},"geometry":{"type":"Point","coordinates":[-58.36666,-34.612315]}},{"type":"Feature","properties":{"metres":5.1,"name":"Paseo del Bajo - Presidente Dr. Raúl R. Alfonsín","osm":"way/797145202"},"geometry":{"type":"Point","coordinates":[-58.366661,-34.612004]}},{"type":"Feature","properties":{"metres":5.1,"name":"Paseo del Bajo - Presidente Dr. Raúl R. Alfonsín","osm":"way/797145204"},"geometry":{"type":"Point","coordinates":[-58.366941,-34.607806]}},{"type":"Feature","properties":{"metres":5.1,"name":"Paseo del Bajo - Presidente Dr. Raúl R. Alfonsín","osm":"way/797145205"},"geometry":{"type":"Point","coordinates":[-58.366613,-34.610839]}},{"type":"Feature","properties":{"metres":5.1,"name":"Paseo del Bajo - Presidente Dr. Raúl R. Alfonsín","osm":"way/797145206"},"geometry":{"type":"Point","coordinates":[-58.366672,-34.611405]}},{"type":"Feature","properties":{"metres":5.1,"name":"Paseo del Bajo - Presidente Dr. Raúl R. Alfonsín","osm":"way/797145207"},"geometry":{"type":"Point","coordinates":[-58.366685,-34.611059]}},{"type":"Feature","properties":{"metres":5.1,"name":"Paseo del Bajo - Presidente Dr. Raúl R. Alfonsín","osm":"way/797145208"},"geometry":{"type":"Point","coordinates":[-58.366564,-34.612314]}},{"type":"Feature","properties":{"metres":5.1,"name":"Paseo del Bajo - Presidente Dr. Raúl R. Alfonsín","osm":"way/797145209"},"geometry":{"type":"Point","coordinates":[-58.366551,-34.612588]}},{"type":"Feature","properties":{"metres":5.1,"name":"Paseo del Bajo - Presidente Dr. Raúl R. Alfonsín","osm":"way/797145210"},"geometry":{"type":"Point","coordinates":[-58.366576,-34.61326]}},{"type":"Feature","properties":{"metres":5.1,"name":"Paseo del Bajo - Presidente Dr. Raúl R. Alfonsín","osm":"way/797145211"},"geometry":{"type":"Point","coordinates":[-58.366632,-34.612798]}},{"type":"Feature","properties":{"metres":5.1,"name":"Paseo del Bajo - Presidente Dr. Raúl R. Alfonsín","osm":"way/797145213"},"geometry":{"type":"Point","coordinates":[-58.36659,-34.611054]}},{"type":"Feature","properties":{"metres":5.1,"name":"Paseo del Bajo - Presidente Dr. Raúl R. Alfonsín","osm":"way/797145214"},"geometry":{"type":"Point","coordinates":[-58.366579,-34.611405]}},{"type":"Feature","properties":{"metres":5.1,"name":"Paseo del Bajo - Presidente Dr. Raúl R. Alfonsín","osm":"way/797145215"},"geometry":{"type":"Point","coordinates":[-58.366654,-34.612594]}},{"type":"Feature","properties":{"metres":5.1,"name":"Paseo del Bajo - Presidente Dr. Raúl R. Alfonsín","osm":"way/797145216"},"geometry":{"type":"Point","coordinates":[-58.366666,-34.611592]}},{"type":"Feature","properties":{"metres":5.1,"name":"Paseo del Bajo - Presidente Dr. Raúl R. Alfonsín","osm":"way/797145217"},"geometry":{"type":"Point","coordinates":[-58.366481,-34.613253]}},{"type":"Feature","properties":{"metres":5.1,"name":"Paseo del Bajo - Presidente Dr. Raúl R. Alfonsín","osm":"way/797145218"},"geometry":{"type":"Point","coordinates":[-58.366456,-34.613467]}},{"type":"Feature","properties":{"metres":5.1,"name":"Paseo del Bajo - Presidente Dr. Raúl R. Alfonsín","osm":"way/797145219"},"geometry":{"type":"Point","coordinates":[-58.366512,-34.613836]}},{"type":"Feature","properties":{"metres":5.1,"name":"Paseo del Bajo - Presidente Dr. Raúl R. Alfonsín","osm":"way/797145220"},"geometry":{"type":"Point","coordinates":[-58.366551,-34.613474]}},{"type":"Feature","properties":{"metres":5.1,"name":"Paseo del Bajo - Presidente Dr. Raúl R. Alfonsín","osm":"way/797145221"},"geometry":{"type":"Point","coordinates":[-58.366443,-34.614436]}},{"type":"Feature","properties":{"metres":5.1,"name":"Paseo del Bajo - Presidente Dr. Raúl R. Alfonsín","osm":"way/797145222"},"geometry":{"type":"Point","coordinates":[-58.366489,-34.614024]}},{"type":"Feature","properties":{"metres":5.1,"name":"Paseo del Bajo - Presidente Dr. Raúl R. Alfonsín","osm":"way/797145223"},"geometry":{"type":"Point","coordinates":[-58.366415,-34.61383]}},{"type":"Feature","properties":{"metres":5.1,"name":"Paseo del Bajo - Presidente Dr. Raúl R. Alfonsín","osm":"way/797145224"},"geometry":{"type":"Point","coordinates":[-58.366392,-34.614019]}},{"type":"Feature","properties":{"metres":5.1,"name":"Paseo del Bajo - Presidente Dr. Raúl R. Alfonsín","osm":"way/797145225"},"geometry":{"type":"Point","coordinates":[-58.366381,-34.614968]}},{"type":"Feature","properties":{"metres":5.1,"name":"Paseo del Bajo - Presidente Dr. Raúl R. Alfonsín","osm":"way/797145226"},"geometry":{"type":"Point","coordinates":[-58.366422,-34.614626]}},{"type":"Feature","properties":{"metres":5.1,"name":"Paseo del Bajo - Presidente Dr. Raúl R. Alfonsín","osm":"way/797145227"},"geometry":{"type":"Point","coordinates":[-58.366346,-34.61443]}},{"type":"Feature","properties":{"metres":5.1,"name":"Paseo del Bajo - Presidente Dr. Raúl R. Alfonsín","osm":"way/797145228"},"geometry":{"type":"Point","coordinates":[-58.366322,-34.61462]}},{"type":"Feature","properties":{"metres":5.1,"name":"Paseo del Bajo - Presidente Dr. Raúl R. Alfonsín","osm":"way/797145229"},"geometry":{"type":"Point","coordinates":[-58.366326,-34.615472]}},{"type":"Feature","properties":{"metres":5.1,"name":"Paseo del Bajo - Presidente Dr. Raúl R. Alfonsín","osm":"way/797145230"},"geometry":{"type":"Point","coordinates":[-58.36636,-34.615156]}},{"type":"Feature","properties":{"metres":5.1,"name":"Paseo del Bajo - Presidente Dr. Raúl R. Alfonsín","osm":"way/797145231"},"geometry":{"type":"Point","coordinates":[-58.366284,-34.614962]}},{"type":"Feature","properties":{"metres":5.1,"name":"Paseo del Bajo - Presidente Dr. Raúl R. Alfonsín","osm":"way/797145232"},"geometry":{"type":"Point","coordinates":[-58.366264,-34.61515]}},{"type":"Feature","properties":{"metres":5.1,"name":"Paseo del Bajo - Presidente Dr. Raúl R. Alfonsín","osm":"way/797145233"},"geometry":{"type":"Point","coordinates":[-58.366231,-34.616292]}},{"type":"Feature","properties":{"metres":5.1,"name":"Paseo del Bajo - Presidente Dr. Raúl R. Alfonsín","osm":"way/797145234"},"geometry":{"type":"Point","coordinates":[-58.36625,-34.616116]}},{"type":"Feature","properties":{"metres":5.1,"name":"Paseo del Bajo - Presidente Dr. Raúl R. Alfonsín","osm":"way/797145235"},"geometry":{"type":"Point","coordinates":[-58.366203,-34.615669]}},{"type":"Feature","properties":{"metres":5.1,"name":"Paseo del Bajo - Presidente Dr. Raúl R. Alfonsín","osm":"way/797145236"},"geometry":{"type":"Point","coordinates":[-58.366152,-34.616111]}},{"type":"Feature","properties":{"metres":5.1,"name":"Paseo del Bajo - Presidente Dr. Raúl R. Alfonsín","osm":"way/797145237"},"geometry":{"type":"Point","coordinates":[-58.366227,-34.615465]}},{"type":"Feature","properties":{"metres":5.1,"name":"Paseo del Bajo - Presidente Dr. Raúl R. Alfonsín","osm":"way/797145238"},"geometry":{"type":"Point","coordinates":[-58.365927,-34.618259]}},{"type":"Feature","properties":{"metres":5.1,"name":"Paseo del Bajo - Presidente Dr. Raúl R. Alfonsín","osm":"way/797145239"},"geometry":{"type":"Point","coordinates":[-58.366041,-34.618259]}},{"type":"Feature","properties":{"metres":5.1,"name":"Paseo del Bajo - Presidente Dr. Raúl R. Alfonsín","osm":"way/797145240"},"geometry":{"type":"Point","coordinates":[-58.366305,-34.615673]}},{"type":"Feature","properties":{"metres":4.8,"name":"Santander","osm":"way/799795990"},"geometry":{"type":"Point","coordinates":[-58.457647,-34.647389]}},{"type":"Feature","properties":{"metres":5.1,"name":"Avenida Nazca","osm":"way/815058353"},"geometry":{"type":"Point","coordinates":[-58.488176,-34.603484]}},{"type":"Feature","properties":{"metres":5.1,"name":"Avenida Nazca","osm":"way/815058354"},"geometry":{"type":"Point","coordinates":[-58.489797,-34.601656]}},{"type":"Feature","properties":{"metres":3.3,"name":"La Cachila","osm":"way/816374000"},"geometry":{"type":"Point","coordinates":[-58.465756,-34.535105]}},{"type":"Feature","properties":{"metres":3.3,"name":"La Cachila","osm":"way/816374001"},"geometry":{"type":"Point","coordinates":[-58.465763,-34.535052]}},{"type":"Feature","properties":{"metres":3.4,"name":"Yatay","osm":"way/827623819"},"geometry":{"type":"Point","coordinates":[-58.428499,-34.612881]}},{"type":"Feature","properties":{"metres":4.5,"name":"Avenida Warnes","osm":"way/828224221"},"geometry":{"type":"Point","coordinates":[-58.465366,-34.596424]}},{"type":"Feature","properties":{"metres":5.1,"name":"Paseo del Bajo - Presidente Dr. Raúl R. Alfonsín","osm":"way/851725343"},"geometry":{"type":"Point","coordinates":[-58.371424,-34.588443]}},{"type":"Feature","properties":{"metres":5.1,"name":"Paseo del Bajo - Presidente Dr. Raúl R. Alfonsín","osm":"way/851725344"},"geometry":{"type":"Point","coordinates":[-58.371025,-34.58985]}},{"type":"Feature","properties":{"metres":5.1,"name":"Paseo del Bajo - Presidente Dr. Raúl R. Alfonsín","osm":"way/851725345"},"geometry":{"type":"Point","coordinates":[-58.371793,-34.587688]}},{"type":"Feature","properties":{"metres":5.1,"name":"Paseo del Bajo - Presidente Dr. Raúl R. Alfonsín","osm":"way/851725346"},"geometry":{"type":"Point","coordinates":[-58.371114,-34.589283]}},{"type":"Feature","properties":{"metres":3.0,"name":null,"osm":"way/864894593"},"geometry":{"type":"Point","coordinates":[-58.36139,-34.624462]}},{"type":"Feature","properties":{"metres":4.1,"name":"Avenida San Juan","osm":"way/932700832"},"geometry":{"type":"Point","coordinates":[-58.38001,-34.622132]}},{"type":"Feature","properties":{"metres":5.1,"name":"Paseo del Bajo - Presidente Dr. Raúl R. Alfonsín","osm":"way/939599143"},"geometry":{"type":"Point","coordinates":[-58.371225,-34.589317]}},{"type":"Feature","properties":{"metres":5.1,"name":"Paseo del Bajo - Presidente Dr. Raúl R. Alfonsín","osm":"way/939599144"},"geometry":{"type":"Point","coordinates":[-58.371519,-34.588468]}},{"type":"Feature","properties":{"metres":5.1,"name":"Paseo del Bajo - Presidente Dr. Raúl R. Alfonsín","osm":"way/939599145"},"geometry":{"type":"Point","coordinates":[-58.371979,-34.586949]}},{"type":"Feature","properties":{"metres":5.1,"name":"Paseo del Bajo - Presidente Dr. Raúl R. Alfonsín","osm":"way/939599146"},"geometry":{"type":"Point","coordinates":[-58.371701,-34.587659]}},{"type":"Feature","properties":{"metres":3.3,"name":"Juan Zufriategui","osm":"way/1017493624"},"geometry":{"type":"Point","coordinates":[-58.464811,-34.534396]}},{"type":"Feature","properties":{"metres":3.9,"name":"Juan Zufriategui","osm":"way/1018648670"},"geometry":{"type":"Point","coordinates":[-58.463864,-34.53456]}},{"type":"Feature","properties":{"metres":5.1,"name":"Paseo del Bajo - Presidente Dr. Raúl R. Alfonsín","osm":"way/1033903900"},"geometry":{"type":"Point","coordinates":[-58.367748,-34.600373]}},{"type":"Feature","properties":{"metres":5.1,"name":"Paseo del Bajo - Presidente Dr. Raúl R. Alfonsín","osm":"way/1033903901"},"geometry":{"type":"Point","coordinates":[-58.367829,-34.600083]}},{"type":"Feature","properties":{"metres":2.04,"name":null,"osm":"way/1038129854"},"geometry":{"type":"Point","coordinates":[-58.38277,-34.597838]}},{"type":"Feature","properties":{"metres":4.1,"name":"Metrobús 9 de Julio (Norte)","osm":"way/1041963585"},"geometry":{"type":"Point","coordinates":[-58.380273,-34.621946]}},{"type":"Feature","properties":{"metres":4.2,"name":"Metrobús 25 de Mayo","osm":"way/1043412010"},"geometry":{"type":"Point","coordinates":[-58.464991,-34.648982]}},{"type":"Feature","properties":{"metres":4.2,"name":"Metrobús 25 de Mayo","osm":"way/1043412011"},"geometry":{"type":"Point","coordinates":[-58.465722,-34.649736]}},{"type":"Feature","properties":{"metres":4.1,"name":"Avenida de los Constituyentes","osm":"way/1065982390"},"geometry":{"type":"Point","coordinates":[-58.50947,-34.56982]}},{"type":"Feature","properties":{"metres":4.5,"name":"Avenida Garmendia","osm":"way/1066610827"},"geometry":{"type":"Point","coordinates":[-58.46557,-34.596438]}},{"type":"Feature","properties":{"metres":4.5,"name":"Avenida Warnes","osm":"way/1066610828"},"geometry":{"type":"Point","coordinates":[-58.465632,-34.59635]}},{"type":"Feature","properties":{"metres":4.1,"name":"Avenida de los Constituyentes","osm":"way/1066617018"},"geometry":{"type":"Point","coordinates":[-58.509567,-34.569564]}},{"type":"Feature","properties":{"metres":2.0,"name":null,"osm":"way/1071416661"},"geometry":{"type":"Point","coordinates":[-58.410861,-34.557254]}},{"type":"Feature","properties":{"metres":5.1,"name":"Avenida San Martín","osm":"way/1136343615"},"geometry":{"type":"Point","coordinates":[-58.505311,-34.593729]}},{"type":"Feature","properties":{"metres":5.1,"name":"Avenida San Martín","osm":"way/1136343617"},"geometry":{"type":"Point","coordinates":[-58.503681,-34.594345]}},{"type":"Feature","properties":{"metres":4.1,"name":null,"osm":"way/1151106810"},"geometry":{"type":"Point","coordinates":[-58.474216,-34.538056]}},{"type":"Feature","properties":{"metres":4.1,"name":null,"osm":"way/1151106811"},"geometry":{"type":"Point","coordinates":[-58.474297,-34.53849]}},{"type":"Feature","properties":{"metres":4.1,"name":null,"osm":"way/1151106812"},"geometry":{"type":"Point","coordinates":[-58.474561,-34.537885]}},{"type":"Feature","properties":{"metres":4.1,"name":null,"osm":"way/1151106813"},"geometry":{"type":"Point","coordinates":[-58.474114,-34.538401]}},{"type":"Feature","properties":{"metres":4.2,"name":"Avenida General Mosconi","osm":"way/1176508028"},"geometry":{"type":"Point","coordinates":[-58.519939,-34.597179]}},{"type":"Feature","properties":{"metres":5.1,"name":"Paseo del Bajo - Presidente Dr. Raúl R. Alfonsín","osm":"way/1188172160"},"geometry":{"type":"Point","coordinates":[-58.366047,-34.61817]}},{"type":"Feature","properties":{"metres":5.1,"name":"Paseo del Bajo - Presidente Dr. Raúl R. Alfonsín","osm":"way/1188172161"},"geometry":{"type":"Point","coordinates":[-58.365986,-34.617539]}},{"type":"Feature","properties":{"metres":5.1,"name":"Paseo del Bajo - Presidente Dr. Raúl R. Alfonsín","osm":"way/1188172162"},"geometry":{"type":"Point","coordinates":[-58.366062,-34.617921]}},{"type":"Feature","properties":{"metres":5.1,"name":"Paseo del Bajo - Presidente Dr. Raúl R. Alfonsín","osm":"way/1188172163"},"geometry":{"type":"Point","coordinates":[-58.365955,-34.617917]}},{"type":"Feature","properties":{"metres":5.1,"name":"Paseo del Bajo - Presidente Dr. Raúl R. Alfonsín","osm":"way/1188172164"},"geometry":{"type":"Point","coordinates":[-58.367392,-34.602913]}},{"type":"Feature","properties":{"metres":5.1,"name":"Paseo del Bajo - Presidente Dr. Raúl R. Alfonsín","osm":"way/1188172165"},"geometry":{"type":"Point","coordinates":[-58.367431,-34.602605]}},{"type":"Feature","properties":{"metres":5.1,"name":"Paseo del Bajo - Presidente Dr. Raúl R. Alfonsín","osm":"way/1188172167"},"geometry":{"type":"Point","coordinates":[-58.367035,-34.604858]}},{"type":"Feature","properties":{"metres":5.1,"name":"Paseo del Bajo - Presidente Dr. Raúl R. Alfonsín","osm":"way/1188172168"},"geometry":{"type":"Point","coordinates":[-58.367486,-34.601562]}},{"type":"Feature","properties":{"metres":5.1,"name":"Paseo del Bajo - Presidente Dr. Raúl R. Alfonsín","osm":"way/1188172169"},"geometry":{"type":"Point","coordinates":[-58.367548,-34.601806]}},{"type":"Feature","properties":{"metres":5.1,"name":"Paseo del Bajo - Presidente Dr. Raúl R. Alfonsín","osm":"way/1188172170"},"geometry":{"type":"Point","coordinates":[-58.367683,-34.601019]}},{"type":"Feature","properties":{"metres":5.1,"name":"Paseo del Bajo - Presidente Dr. Raúl R. Alfonsín","osm":"way/1188172174"},"geometry":{"type":"Point","coordinates":[-58.367828,-34.600394]}},{"type":"Feature","properties":{"metres":5.1,"name":"Paseo del Bajo - Presidente Dr. Raúl R. Alfonsín","osm":"way/1188172181"},"geometry":{"type":"Point","coordinates":[-58.368241,-34.599124]}},{"type":"Feature","properties":{"metres":5.1,"name":"Paseo del Bajo - Presidente Dr. Raúl R. Alfonsín","osm":"way/1188172183"},"geometry":{"type":"Point","coordinates":[-58.368051,-34.5994]}},{"type":"Feature","properties":{"metres":4.1,"name":null,"osm":"way/1215911533"},"geometry":{"type":"Point","coordinates":[-58.518071,-34.58892]}},{"type":"Feature","properties":{"metres":4.1,"name":"Avenida Lacarra","osm":"way/1219906440"},"geometry":{"type":"Point","coordinates":[-58.467483,-34.651058]}},{"type":"Feature","properties":{"metres":4.1,"name":"Avenida Teniente General Luis Dellepiane","osm":"way/1219906442"},"geometry":{"type":"Point","coordinates":[-58.467411,-34.651245]}},{"type":"Feature","properties":{"metres":4.1,"name":"Avenida Teniente General Luis Dellepiane","osm":"way/1219906443"},"geometry":{"type":"Point","coordinates":[-58.467346,-34.651163]}},{"type":"Feature","properties":{"metres":4.8,"name":"Avenida Mariano Acosta","osm":"way/1225124600"},"geometry":{"type":"Point","coordinates":[-58.456712,-34.654154]}},{"type":"Feature","properties":{"metres":4.8,"name":"Avenida Castañares","osm":"way/1225124602"},"geometry":{"type":"Point","coordinates":[-58.456767,-34.653956]}},{"type":"Feature","properties":{"metres":4.8,"name":"Avenida General Francisco Fernández de La Cruz","osm":"way/1225341347"},"geometry":{"type":"Point","coordinates":[-58.446311,-34.662435]}},{"type":"Feature","properties":{"metres":4.8,"name":"Avenida General Francisco Fernández de La Cruz","osm":"way/1225341348"},"geometry":{"type":"Point","coordinates":[-58.446444,-34.662376]}},{"type":"Feature","properties":{"metres":4.8,"name":"Avenida Mariano Acosta","osm":"way/1225341354"},"geometry":{"type":"Point","coordinates":[-58.453797,-34.656637]}},{"type":"Feature","properties":{"metres":2.0,"name":null,"osm":"way/1227946055"},"geometry":{"type":"Point","coordinates":[-58.43807,-34.546441]}},{"type":"Feature","properties":{"metres":4.1,"name":"Avenida General Paz","osm":"way/1238770827"},"geometry":{"type":"Point","coordinates":[-58.474599,-34.694967]}},{"type":"Feature","properties":{"metres":4.1,"name":"Avenida General Paz","osm":"way/1238770830"},"geometry":{"type":"Point","coordinates":[-58.506985,-34.564266]}},{"type":"Feature","properties":{"metres":4.1,"name":"Avenida General Paz","osm":"way/1238770831"},"geometry":{"type":"Point","coordinates":[-58.469908,-34.53633]}},{"type":"Feature","properties":{"metres":4.1,"name":"Avenida General Paz","osm":"way/1238770832"},"geometry":{"type":"Point","coordinates":[-58.468058,-34.535637]}},{"type":"Feature","properties":{"metres":4.1,"name":"Avenida General Paz","osm":"way/1238770833"},"geometry":{"type":"Point","coordinates":[-58.530521,-34.621782]}},{"type":"Feature","properties":{"metres":4.1,"name":"Avenida General Paz","osm":"way/1238770838"},"geometry":{"type":"Point","coordinates":[-58.467062,-34.700701]}},{"type":"Feature","properties":{"metres":60.0,"name":null,"osm":"way/1263088349"},"geometry":{"type":"Point","coordinates":[-58.530674,-34.623173]}},{"type":"Feature","properties":{"metres":2.2,"name":null,"osm":"way/1263467991"},"geometry":{"type":"Point","coordinates":[-58.413211,-34.556354]}},{"type":"Feature","properties":{"metres":5.1,"name":"Paseo del Bajo - Presidente Dr. Raúl R. Alfonsín","osm":"way/1267257099"},"geometry":{"type":"Point","coordinates":[-58.367145,-34.604862]}},{"type":"Feature","properties":{"metres":5.1,"name":"Paseo del Bajo - Presidente Dr. Raúl R. Alfonsín","osm":"way/1267257100"},"geometry":{"type":"Point","coordinates":[-58.367136,-34.605298]}},{"type":"Feature","properties":{"metres":4.5,"name":"Avenida Corrientes","osm":"way/1268297569"},"geometry":{"type":"Point","coordinates":[-58.446503,-34.592708]}},{"type":"Feature","properties":{"metres":2.2,"name":null,"osm":"way/1276574867"},"geometry":{"type":"Point","coordinates":[-58.420808,-34.576181]}},{"type":"Feature","properties":{"metres":2.2,"name":null,"osm":"way/1276574868"},"geometry":{"type":"Point","coordinates":[-58.420836,-34.57617]}},{"type":"Feature","properties":{"metres":3.8,"name":"Reforma Universitaria de 1918","osm":"way/1276688452"},"geometry":{"type":"Point","coordinates":[-58.439157,-34.54543]}},{"type":"Feature","properties":{"metres":3.8,"name":"Reforma Universitaria de 1918","osm":"way/1276688453"},"geometry":{"type":"Point","coordinates":[-58.439218,-34.545407]}},{"type":"Feature","properties":{"metres":5.1,"name":"Paseo del Bajo - Presidente Dr. Raúl R. Alfonsín","osm":"way/1281777277"},"geometry":{"type":"Point","coordinates":[-58.365934,-34.619906]}},{"type":"Feature","properties":{"metres":5.1,"name":"Paseo del Bajo - Presidente Dr. Raúl R. Alfonsín","osm":"way/1301074002"},"geometry":{"type":"Point","coordinates":[-58.368337,-34.598571]}},{"type":"Feature","properties":{"metres":5.1,"name":"Paseo del Bajo - Presidente Dr. Raúl R. Alfonsín","osm":"way/1301074003"},"geometry":{"type":"Point","coordinates":[-58.368153,-34.599104]}},{"type":"Feature","properties":{"metres":5.1,"name":"Paseo del Bajo - Presidente Dr. Raúl R. Alfonsín","osm":"way/1301074004"},"geometry":{"type":"Point","coordinates":[-58.36792,-34.6001]}},{"type":"Feature","properties":{"metres":5.1,"name":"Paseo del Bajo - Presidente Dr. Raúl R. Alfonsín","osm":"way/1301074005"},"geometry":{"type":"Point","coordinates":[-58.368139,-34.59942]}},{"type":"Feature","properties":{"metres":5.1,"name":"Paseo del Bajo - Presidente Dr. Raúl R. Alfonsín","osm":"way/1301074006"},"geometry":{"type":"Point","coordinates":[-58.368433,-34.59856]}},{"type":"Feature","properties":{"metres":5.1,"name":"Paseo del Bajo - Presidente Dr. Raúl R. Alfonsín","osm":"way/1301074007"},"geometry":{"type":"Point","coordinates":[-58.368553,-34.598215]}},{"type":"Feature","properties":{"metres":5.1,"name":"Paseo del Bajo - Presidente Dr. Raúl R. Alfonsín","osm":"way/1301074008"},"geometry":{"type":"Point","coordinates":[-58.369087,-34.596393]}},{"type":"Feature","properties":{"metres":5.1,"name":"Paseo del Bajo - Presidente Dr. Raúl R. Alfonsín","osm":"way/1301074009"},"geometry":{"type":"Point","coordinates":[-58.368448,-34.598234]}},{"type":"Feature","properties":{"metres":3.9,"name":"Avenida Presidente Sarmiento","osm":"way/1323077889"},"geometry":{"type":"Point","coordinates":[-58.408874,-34.568413]}},{"type":"Feature","properties":{"metres":3.9,"name":"Avenida Presidente Sarmiento","osm":"way/1323077891"},"geometry":{"type":"Point","coordinates":[-58.40921,-34.568771]}},{"type":"Feature","properties":{"metres":3.9,"name":"Avenida Presidente Sarmiento","osm":"way/1323077892"},"geometry":{"type":"Point","coordinates":[-58.40902,-34.568571]}},{"type":"Feature","properties":{"metres":2.1,"name":"Puente Bosch","osm":"way/1323956691"},"geometry":{"type":"Point","coordinates":[-58.378233,-34.657444]}},{"type":"Feature","properties":{"metres":4.1,"name":"Avenida General Paz","osm":"way/1326411126"},"geometry":{"type":"Point","coordinates":[-58.4919,-34.546216]}},{"type":"Feature","properties":{"metres":4.1,"name":"Avenida General Paz","osm":"way/1326411130"},"geometry":{"type":"Point","coordinates":[-58.493311,-34.546726]}},{"type":"Feature","properties":{"metres":4.1,"name":"Avenida General Paz","osm":"way/1326411131"},"geometry":{"type":"Point","coordinates":[-58.492937,-34.546556]}},{"type":"Feature","properties":{"metres":4.1,"name":"Avenida General Paz","osm":"way/1326411132"},"geometry":{"type":"Point","coordinates":[-58.492266,-34.546377]}},{"type":"Feature","properties":{"metres":4.1,"name":"Avenida General Paz","osm":"way/1326411133"},"geometry":{"type":"Point","coordinates":[-58.492874,-34.546646]}},{"type":"Feature","properties":{"metres":4.1,"name":null,"osm":"way/1327650675"},"geometry":{"type":"Point","coordinates":[-58.467405,-34.65032]}},{"type":"Feature","properties":{"metres":2.4,"name":"Ceretti","osm":"way/1329678582"},"geometry":{"type":"Point","coordinates":[-58.493729,-34.577358]}},{"type":"Feature","properties":{"metres":2.4,"name":"Ceretti","osm":"way/1329678583"},"geometry":{"type":"Point","coordinates":[-58.493123,-34.578115]}},{"type":"Feature","properties":{"metres":3.0,"name":"Holmberg","osm":"way/1329717042"},"geometry":{"type":"Point","coordinates":[-58.478726,-34.567252]}},{"type":"Feature","properties":{"metres":2.8,"name":"Pacheco","osm":"way/1329717043"},"geometry":{"type":"Point","coordinates":[-58.484317,-34.572981]}},{"type":"Feature","properties":{"metres":2.4,"name":"Ceretti","osm":"way/1330280511"},"geometry":{"type":"Point","coordinates":[-58.493239,-34.577971]}},{"type":"Feature","properties":{"metres":2.8,"name":"Besares","osm":"way/1331695110"},"geometry":{"type":"Point","coordinates":[-58.465584,-34.54255]}},{"type":"Feature","properties":{"metres":4.1,"name":"Avenida General Paz","osm":"way/1331703000"},"geometry":{"type":"Point","coordinates":[-58.493316,-34.546728]}},{"type":"Feature","properties":{"metres":2.2,"name":null,"osm":"way/1332062663"},"geometry":{"type":"Point","coordinates":[-58.42076,-34.576066]}},{"type":"Feature","properties":{"metres":2.2,"name":null,"osm":"way/1333045792"},"geometry":{"type":"Point","coordinates":[-58.419152,-34.578549]}},{"type":"Feature","properties":{"metres":2.2,"name":null,"osm":"way/1333045793"},"geometry":{"type":"Point","coordinates":[-58.419078,-34.578674]}},{"type":"Feature","properties":{"metres":4.1,"name":"Avenida Eva Perón","osm":"way/1334086713"},"geometry":{"type":"Point","coordinates":[-58.501659,-34.673978]}},{"type":"Feature","properties":{"metres":4.1,"name":"Avenida Eva Perón","osm":"way/1334086714"},"geometry":{"type":"Point","coordinates":[-58.501931,-34.674129]}},{"type":"Feature","properties":{"metres":3.8,"name":null,"osm":"way/1334393285"},"geometry":{"type":"Point","coordinates":[-58.467031,-34.534997]}},{"type":"Feature","properties":{"metres":4.1,"name":null,"osm":"way/1336682298"},"geometry":{"type":"Point","coordinates":[-58.476997,-34.539846]}},{"type":"Feature","properties":{"metres":4.1,"name":null,"osm":"way/1336682299"},"geometry":{"type":"Point","coordinates":[-58.477367,-34.539668]}},{"type":"Feature","properties":{"metres":4.1,"name":null,"osm":"way/1336682300"},"geometry":{"type":"Point","coordinates":[-58.477354,-34.539276]}},{"type":"Feature","properties":{"metres":4.1,"name":null,"osm":"way/1336682301"},"geometry":{"type":"Point","coordinates":[-58.477542,-34.539406]}},{"type":"Feature","properties":{"metres":4.1,"name":"Puente Bosch","osm":"way/1343250500"},"geometry":{"type":"Point","coordinates":[-58.378205,-34.657254]}},{"type":"Feature","properties":{"metres":2.2,"name":null,"osm":"way/1347514962"},"geometry":{"type":"Point","coordinates":[-58.411256,-34.557703]}},{"type":"Feature","properties":{"metres":2.2,"name":null,"osm":"way/1347514963"},"geometry":{"type":"Point","coordinates":[-58.412513,-34.556856]}},{"type":"Feature","properties":{"metres":2.0,"name":null,"osm":"way/1347724955"},"geometry":{"type":"Point","coordinates":[-58.411304,-34.556956]}},{"type":"Feature","properties":{"metres":4.1,"name":null,"osm":"way/1368603511"},"geometry":{"type":"Point","coordinates":[-58.47595,-34.538341]}},{"type":"Feature","properties":{"metres":4.1,"name":null,"osm":"way/1368603512"},"geometry":{"type":"Point","coordinates":[-58.476104,-34.538303]}},{"type":"Feature","properties":{"metres":4.1,"name":null,"osm":"way/1368603516"},"geometry":{"type":"Point","coordinates":[-58.476254,-34.538466]}},{"type":"Feature","properties":{"metres":4.1,"name":null,"osm":"way/1368603517"},"geometry":{"type":"Point","coordinates":[-58.476261,-34.538512]}},{"type":"Feature","properties":{"metres":4.5,"name":"Avenida Warnes","osm":"way/1415958399"},"geometry":{"type":"Point","coordinates":[-58.465362,-34.596251]}},{"type":"Feature","properties":{"metres":4.1,"name":null,"osm":"way/1421076937"},"geometry":{"type":"Point","coordinates":[-58.483836,-34.542398]}},{"type":"Feature","properties":{"metres":4.1,"name":null,"osm":"way/1421076938"},"geometry":{"type":"Point","coordinates":[-58.483435,-34.542577]}},{"type":"Feature","properties":{"metres":4.1,"name":"Avenida Lacarra","osm":"way/1428186265"},"geometry":{"type":"Point","coordinates":[-58.466718,-34.651784]}},{"type":"Feature","properties":{"metres":4.1,"name":"Avenida Congreso","osm":"way/1428348110"},"geometry":{"type":"Point","coordinates":[-58.479086,-34.563966]}},{"type":"Feature","properties":{"metres":4.1,"name":"Avenida Congreso","osm":"way/1428348111"},"geometry":{"type":"Point","coordinates":[-58.479038,-34.563942]}},{"type":"Feature","properties":{"metres":4.2,"name":"Monroe","osm":"way/1428348113"},"geometry":{"type":"Point","coordinates":[-58.472904,-34.566396]}},{"type":"Feature","properties":{"metres":2.47,"name":null,"osm":"way/1443746051"},"geometry":{"type":"Point","coordinates":[-58.512335,-34.581497]}}]}
