{"type":"FeatureCollection","name":"pasos-a-nivel","description":"Pasos a nivel ferroviarios (\"sapitos\"). El GCBA no publica este dato: sale de OpenStreetMap.","attribution":"Datos de OpenStreetMap (ODbL)","generatedOn":"2026-08-24","features":[{"type":"Feature","properties":{"barrier":"double_half","name":null,"osm":"node/84557441"},"geometry":{"type":"Point","coordinates":[-58.486727,-34.574017]}},{"type":"Feature","properties":{"barrier":null,"name":null,"osm":"node/89235586"},"geometry":{"type":"Point","coordinates":[-58.500518,-34.580321]}},{"type":"Feature","properties":{"barrier":"half","name":null,"osm":"node/89332692"},"geometry":{"type":"Point","coordinates":[-58.502734,-34.601908]}},{"type":"Feature","properties":{"barrier":"double_half","name":null,"osm":"node/89338214"},"geometry":{"type":"Point","coordinates":[-58.485842,-34.573352]}},{"type":"Feature","properties":{"barrier":"half","name":null,"osm":"node/199295297"},"geometry":{"type":"Point","coordinates":[-58.488522,-34.600954]}},{"type":"Feature","properties":{"barrier":"yes","name":null,"osm":"node/206154210"},"geometry":{"type":"Point","coordinates":[-58.434339,-34.659471]}},{"type":"Feature","properties":{"barrier":"full","name":null,"osm":"node/239629360"},"geometry":{"type":"Point","coordinates":[-58.464887,-34.627497]}},{"type":"Feature","properties":{"barrier":"half","name":null,"osm":"node/243467248"},"geometry":{"type":"Point","coordinates":[-58.477187,-34.564511]}},{"type":"Feature","properties":{"barrier":"no","name":null,"osm":"node/248046694"},"geometry":{"type":"Point","coordinates":[-58.384953,-34.577938]}},{"type":"Feature","properties":{"barrier":null,"name":null,"osm":"node/249807491"},"geometry":{"type":"Point","coordinates":[-58.490540,-34.683607]}},{"type":"Feature","properties":{"barrier":"half","name":null,"osm":"node/256022318"},"geometry":{"type":"Point","coordinates":[-58.499772,-34.635890]}},{"type":"Feature","properties":{"barrier":"full","name":null,"osm":"node/258955916"},"geometry":{"type":"Point","coordinates":[-58.467642,-34.628311]}},{"type":"Feature","properties":{"barrier":"yes","name":null,"osm":"node/286395642"},"geometry":{"type":"Point","coordinates":[-58.495149,-34.601552]}},{"type":"Feature","properties":{"barrier":"half","name":null,"osm":"node/290637123"},"geometry":{"type":"Point","coordinates":[-58.466640,-34.539968]}},{"type":"Feature","properties":{"barrier":"half","name":null,"osm":"node/292026948"},"geometry":{"type":"Point","coordinates":[-58.524552,-34.602999]}},{"type":"Feature","properties":{"barrier":"half","name":null,"osm":"node/292028737"},"geometry":{"type":"Point","coordinates":[-58.520336,-34.602848]}},{"type":"Feature","properties":{"barrier":"half","name":null,"osm":"node/292028738"},"geometry":{"type":"Point","coordinates":[-58.515780,-34.602663]}},{"type":"Feature","properties":{"barrier":"half","name":null,"osm":"node/292028740"},"geometry":{"type":"Point","coordinates":[-58.505766,-34.602113]}},{"type":"Feature","properties":{"barrier":"full","name":null,"osm":"node/292028742"},"geometry":{"type":"Point","coordinates":[-58.497080,-34.601517]}},{"type":"Feature","properties":{"barrier":"half","name":null,"osm":"node/292051708"},"geometry":{"type":"Point","coordinates":[-58.495767,-34.593392]}},{"type":"Feature","properties":{"barrier":"half","name":null,"osm":"node/292152883"},"geometry":{"type":"Point","coordinates":[-58.511596,-34.595770]}},{"type":"Feature","properties":{"barrier":"half","name":null,"osm":"node/293217575"},"geometry":{"type":"Point","coordinates":[-58.454788,-34.624010]}},{"type":"Feature","properties":{"barrier":"half","name":null,"osm":"node/293217576"},"geometry":{"type":"Point","coordinates":[-58.457697,-34.625231]}},{"type":"Feature","properties":{"barrier":"full","name":null,"osm":"node/293217578"},"geometry":{"type":"Point","coordinates":[-58.459675,-34.625961]}},{"type":"Feature","properties":{"barrier":"double_half","name":null,"osm":"node/293217581"},"geometry":{"type":"Point","coordinates":[-58.461987,-34.626637]}},{"type":"Feature","properties":{"barrier":"full","name":null,"osm":"node/293217583"},"geometry":{"type":"Point","coordinates":[-58.463421,-34.627044]}},{"type":"Feature","properties":{"barrier":"half","name":null,"osm":"node/293217584"},"geometry":{"type":"Point","coordinates":[-58.470352,-34.629130]}},{"type":"Feature","properties":{"barrier":"full","name":null,"osm":"node/293217585"},"geometry":{"type":"Point","coordinates":[-58.474156,-34.630298]}},{"type":"Feature","properties":{"barrier":"full","name":null,"osm":"node/293217587"},"geometry":{"type":"Point","coordinates":[-58.476283,-34.630952]}},{"type":"Feature","properties":{"barrier":"full","name":null,"osm":"node/293217590"},"geometry":{"type":"Point","coordinates":[-58.479456,-34.631947]}},{"type":"Feature","properties":{"barrier":"half","name":null,"osm":"node/293217592"},"geometry":{"type":"Point","coordinates":[-58.483365,-34.633158]}},{"type":"Feature","properties":{"barrier":"half","name":null,"osm":"node/293217594"},"geometry":{"type":"Point","coordinates":[-58.488633,-34.634414]}},{"type":"Feature","properties":{"barrier":"half","name":null,"osm":"node/293217596"},"geometry":{"type":"Point","coordinates":[-58.492465,-34.634956]}},{"type":"Feature","properties":{"barrier":"half","name":null,"osm":"node/293217598"},"geometry":{"type":"Point","coordinates":[-58.495467,-34.635326]}},{"type":"Feature","properties":{"barrier":"double_half","name":null,"osm":"node/293217615"},"geometry":{"type":"Point","coordinates":[-58.522602,-34.638532]}},{"type":"Feature","properties":{"barrier":"full","name":null,"osm":"node/293217616"},"geometry":{"type":"Point","coordinates":[-58.527777,-34.638923]}},{"type":"Feature","properties":{"barrier":"full","name":null,"osm":"node/293222301"},"geometry":{"type":"Point","coordinates":[-58.484463,-34.557762]}},{"type":"Feature","properties":{"barrier":"half","name":null,"osm":"node/293222577"},"geometry":{"type":"Point","coordinates":[-58.491812,-34.547203]}},{"type":"Feature","properties":{"barrier":"no","name":null,"osm":"node/315203546"},"geometry":{"type":"Point","coordinates":[-58.364952,-34.623842]}},{"type":"Feature","properties":{"barrier":"half","name":null,"osm":"node/347007013"},"geometry":{"type":"Point","coordinates":[-58.483330,-34.592674]}},{"type":"Feature","properties":{"barrier":"half","name":null,"osm":"node/421674224"},"geometry":{"type":"Point","coordinates":[-58.468463,-34.535393]}},{"type":"Feature","properties":{"barrier":"half","name":null,"osm":"node/445416601"},"geometry":{"type":"Point","coordinates":[-58.460371,-34.585556]}},{"type":"Feature","properties":{"barrier":"double_half","name":null,"osm":"node/445416603"},"geometry":{"type":"Point","coordinates":[-58.466805,-34.590579]}},{"type":"Feature","properties":{"barrier":"half","name":null,"osm":"node/445459331"},"geometry":{"type":"Point","coordinates":[-58.456093,-34.570121]}},{"type":"Feature","properties":{"barrier":"half","name":null,"osm":"node/446919159"},"geometry":{"type":"Point","coordinates":[-58.463428,-34.567424]}},{"type":"Feature","properties":{"barrier":"half","name":null,"osm":"node/469239152"},"geometry":{"type":"Point","coordinates":[-58.449056,-34.665654]}},{"type":"Feature","properties":{"barrier":"half","name":null,"osm":"node/469239154"},"geometry":{"type":"Point","coordinates":[-58.444665,-34.663810]}},{"type":"Feature","properties":{"barrier":"yes","name":null,"osm":"node/469239156"},"geometry":{"type":"Point","coordinates":[-58.442236,-34.662792]}},{"type":"Feature","properties":{"barrier":"no","name":null,"osm":"node/479746950"},"geometry":{"type":"Point","coordinates":[-58.366806,-34.610973]}},{"type":"Feature","properties":{"barrier":"double_half","name":null,"osm":"node/479747564"},"geometry":{"type":"Point","coordinates":[-58.366290,-34.616868]}},{"type":"Feature","properties":{"barrier":"no","name":null,"osm":"node/479747567"},"geometry":{"type":"Point","coordinates":[-58.366780,-34.612136]}},{"type":"Feature","properties":{"barrier":"double_half","name":null,"osm":"node/479747568"},"geometry":{"type":"Point","coordinates":[-58.367307,-34.605110]}},{"type":"Feature","properties":{"barrier":"double_half","name":null,"osm":"node/479747570"},"geometry":{"type":"Point","coordinates":[-58.367567,-34.602788]}},{"type":"Feature","properties":{"barrier":"no","name":null,"osm":"node/479747572"},"geometry":{"type":"Point","coordinates":[-58.367689,-34.601698]}},{"type":"Feature","properties":{"barrier":"double_half","name":null,"osm":"node/479747576"},"geometry":{"type":"Point","coordinates":[-58.368784,-34.598339]}},{"type":"Feature","properties":{"barrier":"half","name":null,"osm":"node/482638119"},"geometry":{"type":"Point","coordinates":[-58.481752,-34.600503]}},{"type":"Feature","properties":{"barrier":"full","name":null,"osm":"node/482656059"},"geometry":{"type":"Point","coordinates":[-58.485826,-34.633830]}},{"type":"Feature","properties":{"barrier":null,"name":null,"osm":"node/544376559"},"geometry":{"type":"Point","coordinates":[-58.363038,-34.645808]}},{"type":"Feature","properties":{"barrier":null,"name":null,"osm":"node/544376562"},"geometry":{"type":"Point","coordinates":[-58.363037,-34.645041]}},{"type":"Feature","properties":{"barrier":null,"name":null,"osm":"node/544376564"},"geometry":{"type":"Point","coordinates":[-58.362676,-34.643965]}},{"type":"Feature","properties":{"barrier":null,"name":null,"osm":"node/544376565"},"geometry":{"type":"Point","coordinates":[-58.362553,-34.643564]}},{"type":"Feature","properties":{"barrier":null,"name":null,"osm":"node/544376567"},"geometry":{"type":"Point","coordinates":[-58.362393,-34.642507]}},{"type":"Feature","properties":{"barrier":null,"name":null,"osm":"node/544376569"},"geometry":{"type":"Point","coordinates":[-58.362472,-34.641693]}},{"type":"Feature","properties":{"barrier":null,"name":null,"osm":"node/544376571"},"geometry":{"type":"Point","coordinates":[-58.362756,-34.640866]}},{"type":"Feature","properties":{"barrier":"no","name":null,"osm":"node/544376572"},"geometry":{"type":"Point","coordinates":[-58.363248,-34.639963]}},{"type":"Feature","properties":{"barrier":"no","name":null,"osm":"node/544376573"},"geometry":{"type":"Point","coordinates":[-58.364988,-34.636766]}},{"type":"Feature","properties":{"barrier":"no","name":null,"osm":"node/544376576"},"geometry":{"type":"Point","coordinates":[-58.363638,-34.639265]}},{"type":"Feature","properties":{"barrier":"no","name":null,"osm":"node/544376578"},"geometry":{"type":"Point","coordinates":[-58.364074,-34.638459]}},{"type":"Feature","properties":{"barrier":"no","name":null,"osm":"node/544376579"},"geometry":{"type":"Point","coordinates":[-58.364542,-34.637581]}},{"type":"Feature","properties":{"barrier":null,"name":null,"osm":"node/544376588"},"geometry":{"type":"Point","coordinates":[-58.365522,-34.628851]}},{"type":"Feature","properties":{"barrier":"no","name":null,"osm":"node/544376589"},"geometry":{"type":"Point","coordinates":[-58.364654,-34.628001]}},{"type":"Feature","properties":{"barrier":"double_half","name":null,"osm":"node/544376596"},"geometry":{"type":"Point","coordinates":[-58.363520,-34.625112]}},{"type":"Feature","properties":{"barrier":"no","name":null,"osm":"node/544378151"},"geometry":{"type":"Point","coordinates":[-58.366179,-34.618102]}},{"type":"Feature","properties":{"barrier":null,"name":null,"osm":"node/667454553"},"geometry":{"type":"Point","coordinates":[-58.381911,-34.574724]}},{"type":"Feature","properties":{"barrier":null,"name":null,"osm":"node/667454598"},"geometry":{"type":"Point","coordinates":[-58.381357,-34.572934]}},{"type":"Feature","properties":{"barrier":"no","name":null,"osm":"node/680729689"},"geometry":{"type":"Point","coordinates":[-58.372160,-34.591345]}},{"type":"Feature","properties":{"barrier":"double_half","name":null,"osm":"node/883520012"},"geometry":{"type":"Point","coordinates":[-58.466864,-34.590643]}},{"type":"Feature","properties":{"barrier":"double_half","name":null,"osm":"node/883520043"},"geometry":{"type":"Point","coordinates":[-58.466830,-34.590561]}},{"type":"Feature","properties":{"barrier":"no","name":null,"osm":"node/1283447416"},"geometry":{"type":"Point","coordinates":[-58.370180,-34.590067]}},{"type":"Feature","properties":{"barrier":null,"name":null,"osm":"node/1283447448"},"geometry":{"type":"Point","coordinates":[-58.382767,-34.578177]}},{"type":"Feature","properties":{"barrier":"no","name":null,"osm":"node/1286992253"},"geometry":{"type":"Point","coordinates":[-58.371905,-34.591493]}},{"type":"Feature","properties":{"barrier":null,"name":null,"osm":"node/1286992448"},"geometry":{"type":"Point","coordinates":[-58.366633,-34.584411]}},{"type":"Feature","properties":{"barrier":"no","name":null,"osm":"node/1529350330"},"geometry":{"type":"Point","coordinates":[-58.452324,-34.622625]}},{"type":"Feature","properties":{"barrier":"half","name":null,"osm":"node/1529455336"},"geometry":{"type":"Point","coordinates":[-58.499755,-34.635974]}},{"type":"Feature","properties":{"barrier":"double_half","name":null,"osm":"node/1529608304"},"geometry":{"type":"Point","coordinates":[-58.522590,-34.638655]}},{"type":"Feature","properties":{"barrier":"full","name":null,"osm":"node/1529608628"},"geometry":{"type":"Point","coordinates":[-58.527766,-34.639029]}},{"type":"Feature","properties":{"barrier":null,"name":null,"osm":"node/1530465754"},"geometry":{"type":"Point","coordinates":[-58.365746,-34.622515]}},{"type":"Feature","properties":{"barrier":"yes","name":null,"osm":"node/1534653281"},"geometry":{"type":"Point","coordinates":[-58.495252,-34.601409]}},{"type":"Feature","properties":{"barrier":"full","name":null,"osm":"node/1534661457"},"geometry":{"type":"Point","coordinates":[-58.496996,-34.601635]}},{"type":"Feature","properties":{"barrier":"half","name":null,"osm":"node/1534661483"},"geometry":{"type":"Point","coordinates":[-58.502641,-34.602021]}},{"type":"Feature","properties":{"barrier":"half","name":null,"osm":"node/1534661491"},"geometry":{"type":"Point","coordinates":[-58.505977,-34.602245]}},{"type":"Feature","properties":{"barrier":"half","name":null,"osm":"node/1534677623"},"geometry":{"type":"Point","coordinates":[-58.515974,-34.602782]}},{"type":"Feature","properties":{"barrier":"half","name":null,"osm":"node/1534677636"},"geometry":{"type":"Point","coordinates":[-58.520241,-34.602953]}},{"type":"Feature","properties":{"barrier":"half","name":null,"osm":"node/1534677647"},"geometry":{"type":"Point","coordinates":[-58.524607,-34.603115]}},{"type":"Feature","properties":{"barrier":null,"name":null,"osm":"node/1583423229"},"geometry":{"type":"Point","coordinates":[-58.361958,-34.647580]}},{"type":"Feature","properties":{"barrier":"half","name":null,"osm":"node/1596120982"},"geometry":{"type":"Point","coordinates":[-58.480110,-34.568850]}},{"type":"Feature","properties":{"barrier":"full","name":null,"osm":"node/1596121063"},"geometry":{"type":"Point","coordinates":[-58.489014,-34.575372]}},{"type":"Feature","properties":{"barrier":"double_half","name":null,"osm":"node/1596121213"},"geometry":{"type":"Point","coordinates":[-58.507043,-34.580920]}},{"type":"Feature","properties":{"barrier":"full","name":null,"osm":"node/1596266047"},"geometry":{"type":"Point","coordinates":[-58.446018,-34.620230]}},{"type":"Feature","properties":{"barrier":"no","name":null,"osm":"node/1624665364"},"geometry":{"type":"Point","coordinates":[-58.363431,-34.626424]}},{"type":"Feature","properties":{"barrier":"double_half","name":null,"osm":"node/1624666466"},"geometry":{"type":"Point","coordinates":[-58.363585,-34.624979]}},{"type":"Feature","properties":{"barrier":null,"name":null,"osm":"node/1627128921"},"geometry":{"type":"Point","coordinates":[-58.398562,-34.660887]}},{"type":"Feature","properties":{"barrier":null,"name":null,"osm":"node/1627137210"},"geometry":{"type":"Point","coordinates":[-58.399315,-34.656452]}},{"type":"Feature","properties":{"barrier":null,"name":null,"osm":"node/1630422593"},"geometry":{"type":"Point","coordinates":[-58.382172,-34.575038]}},{"type":"Feature","properties":{"barrier":null,"name":null,"osm":"node/1630537906"},"geometry":{"type":"Point","coordinates":[-58.370203,-34.581794]}},{"type":"Feature","properties":{"barrier":"no","name":null,"osm":"node/1637208907"},"geometry":{"type":"Point","coordinates":[-58.386256,-34.578048]}},{"type":"Feature","properties":{"barrier":null,"name":null,"osm":"node/1637263407"},"geometry":{"type":"Point","coordinates":[-58.399078,-34.574719]}},{"type":"Feature","properties":{"barrier":null,"name":null,"osm":"node/1637266937"},"geometry":{"type":"Point","coordinates":[-58.393329,-34.576205]}},{"type":"Feature","properties":{"barrier":null,"name":null,"osm":"node/1709837680"},"geometry":{"type":"Point","coordinates":[-58.389441,-34.645814]}},{"type":"Feature","properties":{"barrier":null,"name":null,"osm":"node/1709837683"},"geometry":{"type":"Point","coordinates":[-58.389450,-34.645697]}},{"type":"Feature","properties":{"barrier":"half","name":null,"osm":"node/1730038391"},"geometry":{"type":"Point","coordinates":[-58.456072,-34.570082]}},{"type":"Feature","properties":{"barrier":null,"name":null,"osm":"node/1912388805"},"geometry":{"type":"Point","coordinates":[-58.389428,-34.645981]}},{"type":"Feature","properties":{"barrier":"half","name":null,"osm":"node/1912405864"},"geometry":{"type":"Point","coordinates":[-58.460394,-34.585447]}},{"type":"Feature","properties":{"barrier":"double_half","name":null,"osm":"node/2033311901"},"geometry":{"type":"Point","coordinates":[-58.466892,-34.590619]}},{"type":"Feature","properties":{"barrier":"double_half","name":null,"osm":"node/2151519962"},"geometry":{"type":"Point","coordinates":[-58.486685,-34.574050]}},{"type":"Feature","properties":{"barrier":"double_half","name":null,"osm":"node/2151519968"},"geometry":{"type":"Point","coordinates":[-58.485812,-34.573390]}},{"type":"Feature","properties":{"barrier":null,"name":null,"osm":"node/2151538259"},"geometry":{"type":"Point","coordinates":[-58.500492,-34.580349]}},{"type":"Feature","properties":{"barrier":"double_half","name":null,"osm":"node/2151543892"},"geometry":{"type":"Point","coordinates":[-58.507011,-34.580958]}},{"type":"Feature","properties":{"barrier":"full","name":null,"osm":"node/2151623793"},"geometry":{"type":"Point","coordinates":[-58.488994,-34.575399]}},{"type":"Feature","properties":{"barrier":"half","name":null,"osm":"node/2151637404"},"geometry":{"type":"Point","coordinates":[-58.480084,-34.568878]}},{"type":"Feature","properties":{"barrier":"no","name":null,"osm":"node/2151667350"},"geometry":{"type":"Point","coordinates":[-58.484506,-34.557781]}},{"type":"Feature","properties":{"barrier":"half","name":null,"osm":"node/2151667432"},"geometry":{"type":"Point","coordinates":[-58.477228,-34.564531]}},{"type":"Feature","properties":{"barrier":"half","name":null,"osm":"node/2151771022"},"geometry":{"type":"Point","coordinates":[-58.491852,-34.547221]}},{"type":"Feature","properties":{"barrier":"half","name":null,"osm":"node/2151813695"},"geometry":{"type":"Point","coordinates":[-58.463469,-34.567448]}},{"type":"Feature","properties":{"barrier":"no","name":null,"osm":"node/2151917509"},"geometry":{"type":"Point","coordinates":[-58.373423,-34.590758]}},{"type":"Feature","properties":{"barrier":"half","name":null,"osm":"node/2152507903"},"geometry":{"type":"Point","coordinates":[-58.481791,-34.600622]}},{"type":"Feature","properties":{"barrier":"half","name":null,"osm":"node/2152507923"},"geometry":{"type":"Point","coordinates":[-58.488761,-34.601096]}},{"type":"Feature","properties":{"barrier":"full","name":null,"osm":"node/2153503736"},"geometry":{"type":"Point","coordinates":[-58.464905,-34.627457]}},{"type":"Feature","properties":{"barrier":"full","name":null,"osm":"node/2153503744"},"geometry":{"type":"Point","coordinates":[-58.463439,-34.627005]}},{"type":"Feature","properties":{"barrier":"full","name":null,"osm":"node/2153503759"},"geometry":{"type":"Point","coordinates":[-58.442274,-34.618546]}},{"type":"Feature","properties":{"barrier":"full","name":null,"osm":"node/2153503767"},"geometry":{"type":"Point","coordinates":[-58.467659,-34.628276]}},{"type":"Feature","properties":{"barrier":"half","name":null,"osm":"node/2153503780"},"geometry":{"type":"Point","coordinates":[-58.457719,-34.625199]}},{"type":"Feature","properties":{"barrier":"full","name":null,"osm":"node/2153503793"},"geometry":{"type":"Point","coordinates":[-58.446031,-34.620190]}},{"type":"Feature","properties":{"barrier":"double_half","name":null,"osm":"node/2153503796"},"geometry":{"type":"Point","coordinates":[-58.462008,-34.626598]}},{"type":"Feature","properties":{"barrier":"half","name":null,"osm":"node/2153503803"},"geometry":{"type":"Point","coordinates":[-58.470367,-34.629095]}},{"type":"Feature","properties":{"barrier":"full","name":null,"osm":"node/2153503806"},"geometry":{"type":"Point","coordinates":[-58.459693,-34.625930]}},{"type":"Feature","properties":{"barrier":"half","name":null,"osm":"node/2153518171"},"geometry":{"type":"Point","coordinates":[-58.454807,-34.623973]}},{"type":"Feature","properties":{"barrier":"no","name":null,"osm":"node/2153525356"},"geometry":{"type":"Point","coordinates":[-58.453282,-34.623189]}},{"type":"Feature","properties":{"barrier":"yes","name":null,"osm":"node/2154535763"},"geometry":{"type":"Point","coordinates":[-58.434376,-34.659436]}},{"type":"Feature","properties":{"barrier":"no","name":null,"osm":"node/2303364724"},"geometry":{"type":"Point","coordinates":[-58.368410,-34.599271]}},{"type":"Feature","properties":{"barrier":"full","name":null,"osm":"node/2313826445"},"geometry":{"type":"Point","coordinates":[-58.474286,-34.674743]}},{"type":"Feature","properties":{"barrier":null,"name":null,"osm":"node/2313826448"},"geometry":{"type":"Point","coordinates":[-58.476320,-34.676448]}},{"type":"Feature","properties":{"barrier":null,"name":null,"osm":"node/2313826450"},"geometry":{"type":"Point","coordinates":[-58.483236,-34.681842]}},{"type":"Feature","properties":{"barrier":"full","name":null,"osm":"node/2329990423"},"geometry":{"type":"Point","coordinates":[-58.477627,-34.677857]}},{"type":"Feature","properties":{"barrier":"half","name":null,"osm":"node/2427317057"},"geometry":{"type":"Point","coordinates":[-58.460379,-34.585518]}},{"type":"Feature","properties":{"barrier":"half","name":null,"osm":"node/2622747873"},"geometry":{"type":"Point","coordinates":[-58.483330,-34.592636]}},{"type":"Feature","properties":{"barrier":"half","name":null,"osm":"node/2622748010"},"geometry":{"type":"Point","coordinates":[-58.495798,-34.593356]}},{"type":"Feature","properties":{"barrier":"half","name":null,"osm":"node/2622748091"},"geometry":{"type":"Point","coordinates":[-58.511590,-34.595738]}},{"type":"Feature","properties":{"barrier":"half","name":null,"osm":"node/2623912154"},"geometry":{"type":"Point","coordinates":[-58.481763,-34.600538]}},{"type":"Feature","properties":{"barrier":"half","name":null,"osm":"node/2623912155"},"geometry":{"type":"Point","coordinates":[-58.481778,-34.600581]}},{"type":"Feature","properties":{"barrier":null,"name":null,"osm":"node/2623912160"},"geometry":{"type":"Point","coordinates":[-58.488600,-34.601001]}},{"type":"Feature","properties":{"barrier":null,"name":null,"osm":"node/2623915260"},"geometry":{"type":"Point","coordinates":[-58.488686,-34.601052]}},{"type":"Feature","properties":{"barrier":"yes","name":null,"osm":"node/2623920746"},"geometry":{"type":"Point","coordinates":[-58.495228,-34.601443]}},{"type":"Feature","properties":{"barrier":"yes","name":null,"osm":"node/2623920747"},"geometry":{"type":"Point","coordinates":[-58.495176,-34.601515]}},{"type":"Feature","properties":{"barrier":"full","name":null,"osm":"node/2623925336"},"geometry":{"type":"Point","coordinates":[-58.497021,-34.601599]}},{"type":"Feature","properties":{"barrier":"half","name":null,"osm":"node/2623925346"},"geometry":{"type":"Point","coordinates":[-58.502669,-34.601987]}},{"type":"Feature","properties":{"barrier":"half","name":null,"osm":"node/2623925353"},"geometry":{"type":"Point","coordinates":[-58.505904,-34.602198]}},{"type":"Feature","properties":{"barrier":"full","name":null,"osm":"node/2623937706"},"geometry":{"type":"Point","coordinates":[-58.497055,-34.601552]}},{"type":"Feature","properties":{"barrier":"half","name":null,"osm":"node/2623937708"},"geometry":{"type":"Point","coordinates":[-58.502701,-34.601949]}},{"type":"Feature","properties":{"barrier":"half","name":null,"osm":"node/2623937710"},"geometry":{"type":"Point","coordinates":[-58.505835,-34.602154]}},{"type":"Feature","properties":{"barrier":"no","name":null,"osm":"node/2623937719"},"geometry":{"type":"Point","coordinates":[-58.515839,-34.602700]}},{"type":"Feature","properties":{"barrier":"half","name":null,"osm":"node/2623937723"},"geometry":{"type":"Point","coordinates":[-58.520305,-34.602879]}},{"type":"Feature","properties":{"barrier":"half","name":null,"osm":"node/2623937728"},"geometry":{"type":"Point","coordinates":[-58.524569,-34.603034]}},{"type":"Feature","properties":{"barrier":"no","name":null,"osm":"node/2623943622"},"geometry":{"type":"Point","coordinates":[-58.515911,-34.602744]}},{"type":"Feature","properties":{"barrier":"half","name":null,"osm":"node/2623943625"},"geometry":{"type":"Point","coordinates":[-58.520274,-34.602916]}},{"type":"Feature","properties":{"barrier":"half","name":null,"osm":"node/2623943629"},"geometry":{"type":"Point","coordinates":[-58.524590,-34.603078]}},{"type":"Feature","properties":{"barrier":null,"name":null,"osm":"node/2625238352"},"geometry":{"type":"Point","coordinates":[-58.490498,-34.683638]}},{"type":"Feature","properties":{"barrier":"yes","name":null,"osm":"node/2625247111"},"geometry":{"type":"Point","coordinates":[-58.442269,-34.662765]}},{"type":"Feature","properties":{"barrier":"half","name":null,"osm":"node/2625247115"},"geometry":{"type":"Point","coordinates":[-58.444699,-34.663785]}},{"type":"Feature","properties":{"barrier":"half","name":null,"osm":"node/2625247125"},"geometry":{"type":"Point","coordinates":[-58.449087,-34.665632]}},{"type":"Feature","properties":{"barrier":"full","name":null,"osm":"node/2625250490"},"geometry":{"type":"Point","coordinates":[-58.474312,-34.674723]}},{"type":"Feature","properties":{"barrier":null,"name":null,"osm":"node/2625250498"},"geometry":{"type":"Point","coordinates":[-58.476347,-34.676427]}},{"type":"Feature","properties":{"barrier":null,"name":null,"osm":"node/2625268776"},"geometry":{"type":"Point","coordinates":[-58.483269,-34.681812]}},{"type":"Feature","properties":{"barrier":"full","name":null,"osm":"node/2627520456"},"geometry":{"type":"Point","coordinates":[-58.474172,-34.630262]}},{"type":"Feature","properties":{"barrier":"full","name":null,"osm":"node/2627520457"},"geometry":{"type":"Point","coordinates":[-58.476295,-34.630917]}},{"type":"Feature","properties":{"barrier":"full","name":null,"osm":"node/2627520460"},"geometry":{"type":"Point","coordinates":[-58.479471,-34.631917]}},{"type":"Feature","properties":{"barrier":"half","name":null,"osm":"node/2627520462"},"geometry":{"type":"Point","coordinates":[-58.483393,-34.633128]}},{"type":"Feature","properties":{"barrier":"no","name":null,"osm":"node/2627520466"},"geometry":{"type":"Point","coordinates":[-58.485843,-34.633790]}},{"type":"Feature","properties":{"barrier":"half","name":null,"osm":"node/2627520468"},"geometry":{"type":"Point","coordinates":[-58.488673,-34.634383]}},{"type":"Feature","properties":{"barrier":"half","name":null,"osm":"node/2627520472"},"geometry":{"type":"Point","coordinates":[-58.492472,-34.634920]}},{"type":"Feature","properties":{"barrier":"half","name":null,"osm":"node/2627520473"},"geometry":{"type":"Point","coordinates":[-58.495512,-34.635291]}},{"type":"Feature","properties":{"barrier":null,"name":null,"osm":"node/2667485343"},"geometry":{"type":"Point","coordinates":[-58.399722,-34.654548]}},{"type":"Feature","properties":{"barrier":"double_half","name":null,"osm":"node/2783044536"},"geometry":{"type":"Point","coordinates":[-58.522613,-34.638405]}},{"type":"Feature","properties":{"barrier":"double_half","name":null,"osm":"node/2783044541"},"geometry":{"type":"Point","coordinates":[-58.522605,-34.638490]}},{"type":"Feature","properties":{"barrier":"double_half","name":null,"osm":"node/2783044544"},"geometry":{"type":"Point","coordinates":[-58.522594,-34.638613]}},{"type":"Feature","properties":{"barrier":"full","name":null,"osm":"node/2783064732"},"geometry":{"type":"Point","coordinates":[-58.527780,-34.638892]}},{"type":"Feature","properties":{"barrier":"half","name":null,"osm":"node/2809271044"},"geometry":{"type":"Point","coordinates":[-58.468499,-34.535408]}},{"type":"Feature","properties":{"barrier":"half","name":null,"osm":"node/2809271049"},"geometry":{"type":"Point","coordinates":[-58.466681,-34.539988]}},{"type":"Feature","properties":{"barrier":"full","name":null,"osm":"node/2848477706"},"geometry":{"type":"Point","coordinates":[-58.442292,-34.618500]}},{"type":"Feature","properties":{"barrier":"full","name":null,"osm":"node/2848477714"},"geometry":{"type":"Point","coordinates":[-58.446056,-34.620101]}},{"type":"Feature","properties":{"barrier":"full","name":null,"osm":"node/2848477716"},"geometry":{"type":"Point","coordinates":[-58.446003,-34.620262]}},{"type":"Feature","properties":{"barrier":"full","name":null,"osm":"node/3001200674"},"geometry":{"type":"Point","coordinates":[-58.477596,-34.677881]}},{"type":"Feature","properties":{"barrier":null,"name":null,"osm":"node/3115986904"},"geometry":{"type":"Point","coordinates":[-58.382461,-34.576543]}},{"type":"Feature","properties":{"barrier":"half","name":null,"osm":"node/3836771549"},"geometry":{"type":"Point","coordinates":[-58.460386,-34.585483]}},{"type":"Feature","properties":{"barrier":null,"name":null,"osm":"node/4477293541"},"geometry":{"type":"Point","coordinates":[-58.515009,-34.596243]}},{"type":"Feature","properties":{"barrier":"half","name":null,"osm":"node/4477293543"},"geometry":{"type":"Point","coordinates":[-58.515138,-34.596263]}},{"type":"Feature","properties":{"barrier":"half","name":null,"osm":"node/4477293544"},"geometry":{"type":"Point","coordinates":[-58.514978,-34.596276]}},{"type":"Feature","properties":{"barrier":null,"name":null,"osm":"node/4477293546"},"geometry":{"type":"Point","coordinates":[-58.515107,-34.596298]}},{"type":"Feature","properties":{"barrier":null,"name":null,"osm":"node/4569409663"},"geometry":{"type":"Point","coordinates":[-58.365650,-34.628994]}},{"type":"Feature","properties":{"barrier":"full","name":null,"osm":"node/5118353954"},"geometry":{"type":"Point","coordinates":[-58.527762,-34.639068]}},{"type":"Feature","properties":{"barrier":null,"name":null,"osm":"node/5358906656"},"geometry":{"type":"Point","coordinates":[-58.389455,-34.645642]}},{"type":"Feature","properties":{"barrier":null,"name":null,"osm":"node/5358906659"},"geometry":{"type":"Point","coordinates":[-58.389443,-34.645787]}},{"type":"Feature","properties":{"barrier":null,"name":null,"osm":"node/6080798743"},"geometry":{"type":"Point","coordinates":[-58.382097,-34.575288]}},{"type":"Feature","properties":{"barrier":null,"name":null,"osm":"node/6359610175"},"geometry":{"type":"Point","coordinates":[-58.383133,-34.577739]}},{"type":"Feature","properties":{"barrier":"double_half","name":null,"osm":"node/6505216645"},"geometry":{"type":"Point","coordinates":[-58.370573,-34.590397]}},{"type":"Feature","properties":{"barrier":"double_half","name":null,"osm":"node/6505216646"},"geometry":{"type":"Point","coordinates":[-58.370558,-34.590434]}},{"type":"Feature","properties":{"barrier":"no","name":null,"osm":"node/6505216656"},"geometry":{"type":"Point","coordinates":[-58.370158,-34.590102]}},{"type":"Feature","properties":{"barrier":"double_half","name":null,"osm":"node/6505216664"},"geometry":{"type":"Point","coordinates":[-58.367288,-34.605266]}},{"type":"Feature","properties":{"barrier":null,"name":null,"osm":"node/6753126158"},"geometry":{"type":"Point","coordinates":[-58.399592,-34.575195]}},{"type":"Feature","properties":{"barrier":null,"name":null,"osm":"node/6775981606"},"geometry":{"type":"Point","coordinates":[-58.399464,-34.575243]}},{"type":"Feature","properties":{"barrier":null,"name":null,"osm":"node/6789570649"},"geometry":{"type":"Point","coordinates":[-58.385418,-34.577956]}},{"type":"Feature","properties":{"barrier":null,"name":null,"osm":"node/6789570651"},"geometry":{"type":"Point","coordinates":[-58.383956,-34.573145]}},{"type":"Feature","properties":{"barrier":"no","name":null,"osm":"node/6789570652"},"geometry":{"type":"Point","coordinates":[-58.374317,-34.579473]}},{"type":"Feature","properties":{"barrier":null,"name":null,"osm":"node/7199454592"},"geometry":{"type":"Point","coordinates":[-58.369134,-34.589768]}},{"type":"Feature","properties":{"barrier":null,"name":null,"osm":"node/7199454593"},"geometry":{"type":"Point","coordinates":[-58.369143,-34.589729]}},{"type":"Feature","properties":{"barrier":null,"name":null,"osm":"node/7947057640"},"geometry":{"type":"Point","coordinates":[-58.368319,-34.583401]}},{"type":"Feature","properties":{"barrier":null,"name":null,"osm":"node/7947057643"},"geometry":{"type":"Point","coordinates":[-58.374350,-34.579970]}},{"type":"Feature","properties":{"barrier":null,"name":null,"osm":"node/7947057644"},"geometry":{"type":"Point","coordinates":[-58.374600,-34.579820]}},{"type":"Feature","properties":{"barrier":null,"name":null,"osm":"node/7947057649"},"geometry":{"type":"Point","coordinates":[-58.374627,-34.579851]}},{"type":"Feature","properties":{"barrier":null,"name":null,"osm":"node/7947057650"},"geometry":{"type":"Point","coordinates":[-58.374375,-34.579999]}},{"type":"Feature","properties":{"barrier":null,"name":null,"osm":"node/7947057653"},"geometry":{"type":"Point","coordinates":[-58.368352,-34.583434]}},{"type":"Feature","properties":{"barrier":"no","name":null,"osm":"node/7947057662"},"geometry":{"type":"Point","coordinates":[-58.374286,-34.579434]}},{"type":"Feature","properties":{"barrier":"no","name":null,"osm":"node/7947057663"},"geometry":{"type":"Point","coordinates":[-58.374037,-34.579613]}},{"type":"Feature","properties":{"barrier":"no","name":null,"osm":"node/7947057664"},"geometry":{"type":"Point","coordinates":[-58.374005,-34.579577]}},{"type":"Feature","properties":{"barrier":null,"name":null,"osm":"node/7947057665"},"geometry":{"type":"Point","coordinates":[-58.372185,-34.580662]}},{"type":"Feature","properties":{"barrier":null,"name":null,"osm":"node/7947057672"},"geometry":{"type":"Point","coordinates":[-58.368114,-34.582932]}},{"type":"Feature","properties":{"barrier":null,"name":null,"osm":"node/7947057673"},"geometry":{"type":"Point","coordinates":[-58.367954,-34.583035]}},{"type":"Feature","properties":{"barrier":null,"name":null,"osm":"node/7949652522"},"geometry":{"type":"Point","coordinates":[-58.383100,-34.577779]}},{"type":"Feature","properties":{"barrier":null,"name":null,"osm":"node/7949652526"},"geometry":{"type":"Point","coordinates":[-58.383033,-34.577856]}},{"type":"Feature","properties":{"barrier":null,"name":null,"osm":"node/7949652532"},"geometry":{"type":"Point","coordinates":[-58.383068,-34.577816]}},{"type":"Feature","properties":{"barrier":null,"name":null,"osm":"node/7949652538"},"geometry":{"type":"Point","coordinates":[-58.383003,-34.577892]}},{"type":"Feature","properties":{"barrier":null,"name":null,"osm":"node/7949652550"},"geometry":{"type":"Point","coordinates":[-58.382905,-34.578006]}},{"type":"Feature","properties":{"barrier":null,"name":null,"osm":"node/7949652564"},"geometry":{"type":"Point","coordinates":[-58.382952,-34.577952]}},{"type":"Feature","properties":{"barrier":null,"name":null,"osm":"node/7949652566"},"geometry":{"type":"Point","coordinates":[-58.382968,-34.577932]}},{"type":"Feature","properties":{"barrier":null,"name":null,"osm":"node/7949655286"},"geometry":{"type":"Point","coordinates":[-58.382899,-34.578013]}},{"type":"Feature","properties":{"barrier":null,"name":null,"osm":"node/7949655401"},"geometry":{"type":"Point","coordinates":[-58.382840,-34.578084]}},{"type":"Feature","properties":{"barrier":null,"name":null,"osm":"node/7949655405"},"geometry":{"type":"Point","coordinates":[-58.382808,-34.578128]}},{"type":"Feature","properties":{"barrier":null,"name":null,"osm":"node/7949655437"},"geometry":{"type":"Point","coordinates":[-58.385350,-34.577974]}},{"type":"Feature","properties":{"barrier":"no","name":null,"osm":"node/7949655438"},"geometry":{"type":"Point","coordinates":[-58.384860,-34.577960]}},{"type":"Feature","properties":{"barrier":"no","name":null,"osm":"node/7953399537"},"geometry":{"type":"Point","coordinates":[-58.374031,-34.579606]}},{"type":"Feature","properties":{"barrier":"no","name":null,"osm":"node/7953399538"},"geometry":{"type":"Point","coordinates":[-58.374302,-34.579454]}},{"type":"Feature","properties":{"barrier":null,"name":null,"osm":"node/7965458091"},"geometry":{"type":"Point","coordinates":[-58.384617,-34.573122]}},{"type":"Feature","properties":{"barrier":null,"name":null,"osm":"node/7965458097"},"geometry":{"type":"Point","coordinates":[-58.382204,-34.575080]}},{"type":"Feature","properties":{"barrier":null,"name":null,"osm":"node/7965458099"},"geometry":{"type":"Point","coordinates":[-58.382120,-34.575317]}},{"type":"Feature","properties":{"barrier":null,"name":null,"osm":"node/7994016961"},"geometry":{"type":"Point","coordinates":[-58.370066,-34.581873]}},{"type":"Feature","properties":{"barrier":null,"name":null,"osm":"node/8001861782"},"geometry":{"type":"Point","coordinates":[-58.372698,-34.580909]}},{"type":"Feature","properties":{"barrier":null,"name":null,"osm":"node/8001861783"},"geometry":{"type":"Point","coordinates":[-58.372721,-34.580940]}},{"type":"Feature","properties":{"barrier":null,"name":null,"osm":"node/8001864996"},"geometry":{"type":"Point","coordinates":[-58.371355,-34.581139]}},{"type":"Feature","properties":{"barrier":null,"name":null,"osm":"node/8001865002"},"geometry":{"type":"Point","coordinates":[-58.374185,-34.580106]}},{"type":"Feature","properties":{"barrier":null,"name":null,"osm":"node/8001865003"},"geometry":{"type":"Point","coordinates":[-58.374159,-34.580078]}},{"type":"Feature","properties":{"barrier":null,"name":null,"osm":"node/8001865016"},"geometry":{"type":"Point","coordinates":[-58.369409,-34.582260]}},{"type":"Feature","properties":{"barrier":null,"name":null,"osm":"node/8001865087"},"geometry":{"type":"Point","coordinates":[-58.366606,-34.584381]}},{"type":"Feature","properties":{"barrier":"full","name":null,"osm":"node/8978175363"},"geometry":{"type":"Point","coordinates":[-58.442231,-34.618658]}},{"type":"Feature","properties":{"barrier":"full","name":null,"osm":"node/8978175364"},"geometry":{"type":"Point","coordinates":[-58.442235,-34.618644]}},{"type":"Feature","properties":{"barrier":"full","name":null,"osm":"node/9052190063"},"geometry":{"type":"Point","coordinates":[-58.442251,-34.618603]}},{"type":"Feature","properties":{"barrier":"full","name":null,"osm":"node/9052190064"},"geometry":{"type":"Point","coordinates":[-58.442258,-34.618585]}},{"type":"Feature","properties":{"barrier":"half","name":null,"osm":"node/9061501779"},"geometry":{"type":"Point","coordinates":[-58.454773,-34.624042]}},{"type":"Feature","properties":{"barrier":null,"name":null,"osm":"node/9557133648"},"geometry":{"type":"Point","coordinates":[-58.365553,-34.628885]}},{"type":"Feature","properties":{"barrier":"half","name":null,"osm":"node/9588759034"},"geometry":{"type":"Point","coordinates":[-58.509502,-34.602488]}},{"type":"Feature","properties":{"barrier":"double_half","name":null,"osm":"node/9588759035"},"geometry":{"type":"Point","coordinates":[-58.509538,-34.602450]}},{"type":"Feature","properties":{"barrier":"half","name":null,"osm":"node/9588759036"},"geometry":{"type":"Point","coordinates":[-58.509576,-34.602409]}},{"type":"Feature","properties":{"barrier":"half","name":null,"osm":"node/9588759037"},"geometry":{"type":"Point","coordinates":[-58.509607,-34.602376]}},{"type":"Feature","properties":{"barrier":"half","name":null,"osm":"node/9588759039"},"geometry":{"type":"Point","coordinates":[-58.509460,-34.602398]}},{"type":"Feature","properties":{"barrier":"half","name":null,"osm":"node/9588759040"},"geometry":{"type":"Point","coordinates":[-58.509388,-34.602477]}},{"type":"Feature","properties":{"barrier":"half","name":null,"osm":"node/9588759041"},"geometry":{"type":"Point","coordinates":[-58.509422,-34.602440]}},{"type":"Feature","properties":{"barrier":"half","name":null,"osm":"node/9588759042"},"geometry":{"type":"Point","coordinates":[-58.509491,-34.602365]}},{"type":"Feature","properties":{"barrier":"no","name":null,"osm":"node/9968139232"},"geometry":{"type":"Point","coordinates":[-58.373583,-34.590676]}},{"type":"Feature","properties":{"barrier":"no","name":null,"osm":"node/9968139233"},"geometry":{"type":"Point","coordinates":[-58.373707,-34.590612]}},{"type":"Feature","properties":{"barrier":null,"name":null,"osm":"node/9994116917"},"geometry":{"type":"Point","coordinates":[-58.374063,-34.590415]}},{"type":"Feature","properties":{"barrier":null,"name":null,"osm":"node/10717460637"},"geometry":{"type":"Point","coordinates":[-58.390847,-34.580008]}},{"type":"Feature","properties":{"barrier":null,"name":null,"osm":"node/10717460638"},"geometry":{"type":"Point","coordinates":[-58.388913,-34.580952]}},{"type":"Feature","properties":{"barrier":null,"name":null,"osm":"node/10797775072"},"geometry":{"type":"Point","coordinates":[-58.362691,-34.643936]}},{"type":"Feature","properties":{"barrier":null,"name":null,"osm":"node/10797775073"},"geometry":{"type":"Point","coordinates":[-58.363102,-34.645052]}},{"type":"Feature","properties":{"barrier":"no","name":null,"osm":"node/10803526589"},"geometry":{"type":"Point","coordinates":[-58.386439,-34.578072]}},{"type":"Feature","properties":{"barrier":null,"name":null,"osm":"node/10803526602"},"geometry":{"type":"Point","coordinates":[-58.378006,-34.577258]}},{"type":"Feature","properties":{"barrier":null,"name":null,"osm":"node/10803577907"},"geometry":{"type":"Point","coordinates":[-58.378889,-34.576464]}},{"type":"Feature","properties":{"barrier":null,"name":null,"osm":"node/10803577909"},"geometry":{"type":"Point","coordinates":[-58.379151,-34.576295]}},{"type":"Feature","properties":{"barrier":null,"name":null,"osm":"node/10803577910"},"geometry":{"type":"Point","coordinates":[-58.381718,-34.574825]}},{"type":"Feature","properties":{"barrier":null,"name":null,"osm":"node/10803577916"},"geometry":{"type":"Point","coordinates":[-58.382115,-34.575213]}},{"type":"Feature","properties":{"barrier":null,"name":null,"osm":"node/10803577917"},"geometry":{"type":"Point","coordinates":[-58.382139,-34.575254]}},{"type":"Feature","properties":{"barrier":null,"name":null,"osm":"node/10806580561"},"geometry":{"type":"Point","coordinates":[-58.386436,-34.572381]}},{"type":"Feature","properties":{"barrier":null,"name":null,"osm":"node/10806580562"},"geometry":{"type":"Point","coordinates":[-58.386407,-34.572348]}},{"type":"Feature","properties":{"barrier":null,"name":null,"osm":"node/10885684251"},"geometry":{"type":"Point","coordinates":[-58.365605,-34.628944]}},{"type":"Feature","properties":{"barrier":null,"name":null,"osm":"node/10940603322"},"geometry":{"type":"Point","coordinates":[-58.390964,-34.578458]}},{"type":"Feature","properties":{"barrier":null,"name":null,"osm":"node/11049611190"},"geometry":{"type":"Point","coordinates":[-58.420996,-34.648466]}},{"type":"Feature","properties":{"barrier":null,"name":null,"osm":"node/11049611191"},"geometry":{"type":"Point","coordinates":[-58.422997,-34.648233]}},{"type":"Feature","properties":{"barrier":null,"name":null,"osm":"node/11049617640"},"geometry":{"type":"Point","coordinates":[-58.421070,-34.648401]}},{"type":"Feature","properties":{"barrier":null,"name":null,"osm":"node/11049617641"},"geometry":{"type":"Point","coordinates":[-58.423046,-34.648191]}},{"type":"Feature","properties":{"barrier":null,"name":null,"osm":"node/11253957683"},"geometry":{"type":"Point","coordinates":[-58.365940,-34.635075]}},{"type":"Feature","properties":{"barrier":null,"name":null,"osm":"node/11253957684"},"geometry":{"type":"Point","coordinates":[-58.365987,-34.635092]}},{"type":"Feature","properties":{"barrier":null,"name":null,"osm":"node/11685918883"},"geometry":{"type":"Point","coordinates":[-58.413452,-34.648869]}},{"type":"Feature","properties":{"barrier":null,"name":null,"osm":"node/11766466674"},"geometry":{"type":"Point","coordinates":[-58.374060,-34.579640]}},{"type":"Feature","properties":{"barrier":null,"name":null,"osm":"node/11766466675"},"geometry":{"type":"Point","coordinates":[-58.374338,-34.579498]}},{"type":"Feature","properties":{"barrier":null,"name":null,"osm":"node/11766466676"},"geometry":{"type":"Point","coordinates":[-58.374068,-34.579650]}},{"type":"Feature","properties":{"barrier":null,"name":null,"osm":"node/11766466677"},"geometry":{"type":"Point","coordinates":[-58.374358,-34.579522]}},{"type":"Feature","properties":{"barrier":null,"name":null,"osm":"node/11813208918"},"geometry":{"type":"Point","coordinates":[-58.467374,-34.667612]}},{"type":"Feature","properties":{"barrier":null,"name":null,"osm":"node/12079660779"},"geometry":{"type":"Point","coordinates":[-58.393274,-34.576152]}},{"type":"Feature","properties":{"barrier":"yes","name":null,"osm":"node/12120617049"},"geometry":{"type":"Point","coordinates":[-58.439963,-34.661797]}},{"type":"Feature","properties":{"barrier":"yes","name":null,"osm":"node/12120617050"},"geometry":{"type":"Point","coordinates":[-58.439930,-34.661823]}},{"type":"Feature","properties":{"barrier":null,"name":null,"osm":"node/12169199947"},"geometry":{"type":"Point","coordinates":[-58.384554,-34.583950]}},{"type":"Feature","properties":{"barrier":null,"name":null,"osm":"node/12222226230"},"geometry":{"type":"Point","coordinates":[-58.368110,-34.589511]}},{"type":"Feature","properties":{"barrier":null,"name":null,"osm":"node/12222226231"},"geometry":{"type":"Point","coordinates":[-58.368096,-34.589554]}},{"type":"Feature","properties":{"barrier":"half","name":null,"osm":"node/12319258978"},"geometry":{"type":"Point","coordinates":[-58.511651,-34.595779]}},{"type":"Feature","properties":{"barrier":"half","name":null,"osm":"node/12319258979"},"geometry":{"type":"Point","coordinates":[-58.511646,-34.595749]}},{"type":"Feature","properties":{"barrier":"half","name":null,"osm":"node/12906432526"},"geometry":{"type":"Point","coordinates":[-58.506353,-34.636763]}},{"type":"Feature","properties":{"barrier":"half","name":null,"osm":"node/12961124259"},"geometry":{"type":"Point","coordinates":[-58.506342,-34.636809]}},{"type":"Feature","properties":{"barrier":null,"name":null,"osm":"node/13314192496"},"geometry":{"type":"Point","coordinates":[-58.399032,-34.647566]}},{"type":"Feature","properties":{"barrier":null,"name":null,"osm":"node/13314220324"},"geometry":{"type":"Point","coordinates":[-58.395629,-34.648102]}},{"type":"Feature","properties":{"barrier":null,"name":null,"osm":"node/13659599916"},"geometry":{"type":"Point","coordinates":[-58.481923,-34.569984]}},{"type":"Feature","properties":{"barrier":null,"name":null,"osm":"node/13659599917"},"geometry":{"type":"Point","coordinates":[-58.481955,-34.569949]}},{"type":"Feature","properties":{"barrier":null,"name":null,"osm":"node/13953926610"},"geometry":{"type":"Point","coordinates":[-58.445041,-34.619718]}},{"type":"Feature","properties":{"barrier":null,"name":null,"osm":"node/13953926611"},"geometry":{"type":"Point","coordinates":[-58.445050,-34.619673]}}]}
