{"type":"FeatureCollection","name":"radares-velocidad","description":"Cinemometros (radares de velocidad) fijos de la Ciudad de Buenos Aires.","attribution":"Buenos Aires Data - Camaras fijas de control vehicular (CC-BY-2.5-AR)","source":"https://data.buenosaires.gob.ar/dataset/camaras-fijas-control-vehicular","generatedOn":"2026-08-31","features":[{"type":"Feature","geometry":{"type":"Point","coordinates":[-58.43205,-34.637517]},"properties":{"ubicacion":"AV. JOSE MARÍA MORENO - 1657"}},{"type":"Feature","geometry":{"type":"Point","coordinates":[-58.479359,-34.677815]},"properties":{"ubicacion":"AU. DELLEPIANE - KM 1.15"}},{"type":"Feature","geometry":{"type":"Point","coordinates":[-58.379774,-34.62278]},"properties":{"ubicacion":"AU. 25 DE MAYO - KM 8.4"}},{"type":"Feature","geometry":{"type":"Point","coordinates":[-58.374735,-34.647174]},"properties":{"ubicacion":"AU. ARTURO FRONDIZI - KM 0.5"}},{"type":"Feature","geometry":{"type":"Point","coordinates":[-58.37771,-34.634808]},"properties":{"ubicacion":"AU. ARTURO FRONDIZI - KM 2.0"}},{"type":"Feature","geometry":{"type":"Point","coordinates":[-58.428843,-34.558211]},"properties":{"ubicacion":"AV. FIGUEROA ALCORTA - 6184"}},{"type":"Feature","geometry":{"type":"Point","coordinates":[-58.448972,-34.541997]},"properties":{"ubicacion":"AU. INTENDENTE CANTILO - KM 8.7"}},{"type":"Feature","geometry":{"type":"Point","coordinates":[-58.448972,-34.541997]},"properties":{"ubicacion":"AU. INTENDENTE CANTILO - KM 8.7"}},{"type":"Feature","geometry":{"type":"Point","coordinates":[-58.474628,-34.667847]},"properties":{"ubicacion":"AU. DELLEPIANE - KM 2.3"}},{"type":"Feature","geometry":{"type":"Point","coordinates":[-58.428523,-34.598505]},"properties":{"ubicacion":"AV. ESTADO DE ISRAEL - 4488"}},{"type":"Feature","geometry":{"type":"Point","coordinates":[-58.39362,-34.627578]},"properties":{"ubicacion":"AV. JUAN DE GARAY - 2046"}},{"type":"Feature","geometry":{"type":"Point","coordinates":[-58.448878,-34.635796]},"properties":{"ubicacion":"AV. EVA PERÓN - 1825"}},{"type":"Feature","geometry":{"type":"Point","coordinates":[-58.509924,-34.649256]},"properties":{"ubicacion":"AV. EMILIO CASTRO - 6281"}},{"type":"Feature","geometry":{"type":"Point","coordinates":[-58.449202,-34.542608]},"properties":{"ubicacion":"AU. LEOPOLDO LUGONES - KM 8.7"}},{"type":"Feature","geometry":{"type":"Point","coordinates":[-58.479048,-34.677866]},"properties":{"ubicacion":"AU. DELLEPIANE - KM 1.15"}},{"type":"Feature","geometry":{"type":"Point","coordinates":[-58.438831,-34.548313]},"properties":{"ubicacion":"AU. LEOPOLDO LUGONES - KM 7.6"}},{"type":"Feature","geometry":{"type":"Point","coordinates":[-58.487918,-34.646741]},"properties":{"ubicacion":"AV. BRUIX - 4495"}},{"type":"Feature","geometry":{"type":"Point","coordinates":[-58.481786,-34.642733]},"properties":{"ubicacion":"AV. DIRECTORIO - 4155"}},{"type":"Feature","geometry":{"type":"Point","coordinates":[-58.479359,-34.677815]},"properties":{"ubicacion":"AU. DELLEPIANE - KM 1.15"}},{"type":"Feature","geometry":{"type":"Point","coordinates":[-58.521342,-34.624617]},"properties":{"ubicacion":"CALLE IRIGOYEN - 1761"}},{"type":"Feature","geometry":{"type":"Point","coordinates":[-58.492214,-34.560784]},"properties":{"ubicacion":"CALLE GALVÁN - 3640"}},{"type":"Feature","geometry":{"type":"Point","coordinates":[-58.456327,-34.698835]},"properties":{"ubicacion":"AV. 27 DE FEBRERO - 10500"}},{"type":"Feature","geometry":{"type":"Point","coordinates":[-58.456327,-34.698835]},"properties":{"ubicacion":"AV. 27 DE FEBRERO - 10500"}},{"type":"Feature","geometry":{"type":"Point","coordinates":[-58.381579,-34.582714]},"properties":{"ubicacion":"AU. ARTURO HUMBERTO ILLIA - KM 1.2"}},{"type":"Feature","geometry":{"type":"Point","coordinates":[-58.407185,-34.567341]},"properties":{"ubicacion":"AU. ARTURO HUMBERTO ILLIA - KM 3.9"}},{"type":"Feature","geometry":{"type":"Point","coordinates":[-58.407185,-34.567341]},"properties":{"ubicacion":"AU. ARTURO HUMBERTO ILLIA - KM 3.9"}},{"type":"Feature","geometry":{"type":"Point","coordinates":[-58.486354,-34.645308]},"properties":{"ubicacion":"AU. PERITO MORENO - KM 4.5"}},{"type":"Feature","geometry":{"type":"Point","coordinates":[-58.486354,-34.645308]},"properties":{"ubicacion":"AU. PERITO MORENO - KM 4.5"}},{"type":"Feature","geometry":{"type":"Point","coordinates":[-58.379774,-34.62278]},"properties":{"ubicacion":"AU. 25 DE MAYO - KM 8.4"}},{"type":"Feature","geometry":{"type":"Point","coordinates":[-58.381472,-34.582546]},"properties":{"ubicacion":"AU. ARTURO HUMBERTO ILLIA - KM 1.2"}},{"type":"Feature","geometry":{"type":"Point","coordinates":[-58.374735,-34.647174]},"properties":{"ubicacion":"AU. FRONDIZI - KM 0.5"}},{"type":"Feature","geometry":{"type":"Point","coordinates":[-58.41608,-34.56825]},"properties":{"ubicacion":"AV. FIGUEROA ALCORTA - 4740"}},{"type":"Feature","geometry":{"type":"Point","coordinates":[-58.515007,-34.639139]},"properties":{"ubicacion":"AV. RIVADAVIA - 10741"}},{"type":"Feature","geometry":{"type":"Point","coordinates":[-58.440355,-34.562421]},"properties":{"ubicacion":"AV. DEL LIBERTADOR - 5275"}},{"type":"Feature","geometry":{"type":"Point","coordinates":[-58.379715,-34.622886]},"properties":{"ubicacion":"AU. 25 DE MAYO - KM 8.4"}},{"type":"Feature","geometry":{"type":"Point","coordinates":[-58.503966,-34.587261]},"properties":{"ubicacion":"AV. GRAL. MOSCONI - 3043"}},{"type":"Feature","geometry":{"type":"Point","coordinates":[-58.410626,-34.57011]},"properties":{"ubicacion":"AV. SARMIENTO - 4290"}},{"type":"Feature","geometry":{"type":"Point","coordinates":[-58.400497,-34.62351]},"properties":{"ubicacion":"AV. SAN JUAN - 2507"}},{"type":"Feature","geometry":{"type":"Point","coordinates":[-58.512419,-34.634205]},"properties":{"ubicacion":"AV. JUAN B"}},{"type":"Feature","geometry":{"type":"Point","coordinates":[-58.403085,-34.618768]},"properties":{"ubicacion":"AV. INDEPENDENCIA - 2660"}},{"type":"Feature","geometry":{"type":"Point","coordinates":[-58.49607,-34.560037]},"properties":{"ubicacion":"AV. TRIUNVIRATO - 6300"}},{"type":"Feature","geometry":{"type":"Point","coordinates":[-58.403072,-34.623819]},"properties":{"ubicacion":"AV. SAN JUAN - 2735"}},{"type":"Feature","geometry":{"type":"Point","coordinates":[-58.413742,-34.615279]},"properties":{"ubicacion":"AV. BELGRANO - 3349"}},{"type":"Feature","geometry":{"type":"Point","coordinates":[-58.428843,-34.558211]},"properties":{"ubicacion":"AV. FIGUEROA ALCORTA - 6180"}},{"type":"Feature","geometry":{"type":"Point","coordinates":[-58.484752,-34.646162]},"properties":{"ubicacion":"AU. PERITO MORENO - KM 4.8"}},{"type":"Feature","geometry":{"type":"Point","coordinates":[-58.484752,-34.646162]},"properties":{"ubicacion":"AU. PERITO MORENO - KM 4.8"}},{"type":"Feature","geometry":{"type":"Point","coordinates":[-58.499819,-34.635783]},"properties":{"ubicacion":"AU. PERITO MORENO - KM 2.9"}},{"type":"Feature","geometry":{"type":"Point","coordinates":[-58.499819,-34.635783]},"properties":{"ubicacion":"AU. PERITO MORENO - KM 2.9"}},{"type":"Feature","geometry":{"type":"Point","coordinates":[-58.37771,-34.634808]},"properties":{"ubicacion":"AU. ARTURO FRONDIZI - KM 2.0"}},{"type":"Feature","geometry":{"type":"Point","coordinates":[-58.448972,-34.541997]},"properties":{"ubicacion":"AU. INTENDENTE CANTILO - KM 8.7"}},{"type":"Feature","geometry":{"type":"Point","coordinates":[-58.474628,-34.667847]},"properties":{"ubicacion":"AU. DELLEPIANE - KM 2.3"}},{"type":"Feature","geometry":{"type":"Point","coordinates":[-58.428523,-34.598505]},"properties":{"ubicacion":"AV. ESTADO DE ISRAEL - 4496"}},{"type":"Feature","geometry":{"type":"Point","coordinates":[-58.39362,-34.627578]},"properties":{"ubicacion":"AV. JUAN DE GARAY - 2030"}},{"type":"Feature","geometry":{"type":"Point","coordinates":[-58.467221,-34.635933]},"properties":{"ubicacion":"AV. SAN PEDRITO - 418"}},{"type":"Feature","geometry":{"type":"Point","coordinates":[-58.400724,-34.631125]},"properties":{"ubicacion":"AV. JUJUY - 1794"}},{"type":"Feature","geometry":{"type":"Point","coordinates":[-58.463905,-34.587943]},"properties":{"ubicacion":"AV. ELCANO - 4430"}},{"type":"Feature","geometry":{"type":"Point","coordinates":[-58.443227,-34.683218]},"properties":{"ubicacion":"AV. 27 DE FEBRERO - 8375"}},{"type":"Feature","geometry":{"type":"Point","coordinates":[-58.469959,-34.636173]},"properties":{"ubicacion":"AV. DIRECTORIO - 3078"}},{"type":"Feature","geometry":{"type":"Point","coordinates":[-58.504409,-34.567206]},"properties":{"ubicacion":"CALLE CRISOLOGO LARRALDE - 6037"}},{"type":"Feature","geometry":{"type":"Point","coordinates":[-58.449202,-34.542608]},"properties":{"ubicacion":"AU. LEOPOLDO LUGONES - KM 8.7"}},{"type":"Feature","geometry":{"type":"Point","coordinates":[-58.449202,-34.542608]},"properties":{"ubicacion":"AU. LEOPOLDO LUGONES - KM 8.7"}},{"type":"Feature","geometry":{"type":"Point","coordinates":[-58.479048,-34.677866]},"properties":{"ubicacion":"AU. DELLEPIANE - KM 1.15"}},{"type":"Feature","geometry":{"type":"Point","coordinates":[-58.495362,-34.562812]},"properties":{"ubicacion":"CALLE CRISOLOGO LARRALDE - 5295"}},{"type":"Feature","geometry":{"type":"Point","coordinates":[-58.379081,-34.627679]},"properties":{"ubicacion":"AU. ARTURO FRONDIZI - KM 2.6"}},{"type":"Feature","geometry":{"type":"Point","coordinates":[-58.527448,-34.6349]},"properties":{"ubicacion":"AU. PERITO MORENO - KM 0.3"}},{"type":"Feature","geometry":{"type":"Point","coordinates":[-58.461405,-34.54308]},"properties":{"ubicacion":"AV. DEL LIBERTADOR - 7725"}},{"type":"Feature","geometry":{"type":"Point","coordinates":[-58.480313,-34.590602]},"properties":{"ubicacion":"AV. DE LOS CONSTITUYENTES - 3264"}},{"type":"Feature","geometry":{"type":"Point","coordinates":[-58.426615,-34.552064]},"properties":{"ubicacion":"AV. RAFAEL OBLIGADO - 4845"}},{"type":"Feature","geometry":{"type":"Point","coordinates":[-58.391703,-34.5837]},"properties":{"ubicacion":"AV. FIGUEROA ALCORTA - 2210"}},{"type":"Feature","geometry":{"type":"Point","coordinates":[-58.445175,-34.559786]},"properties":{"ubicacion":"AV. DEL LIBERTADOR - 5666"}},{"type":"Feature","geometry":{"type":"Point","coordinates":[-58.454193,-34.611735]},"properties":{"ubicacion":"AV. GAONA - 1852"}},{"type":"Feature","geometry":{"type":"Point","coordinates":[-58.413855,-34.5738]},"properties":{"ubicacion":"AV. SARMIENTO - 3480"}},{"type":"Feature","geometry":{"type":"Point","coordinates":[-58.425513,-34.571904]},"properties":{"ubicacion":"AV. DORREGO - 3370"}},{"type":"Feature","geometry":{"type":"Point","coordinates":[-58.393885,-34.629948]},"properties":{"ubicacion":"AV. BRASIL - 2085"}},{"type":"Feature","geometry":{"type":"Point","coordinates":[-58.486566,-34.557964]},"properties":{"ubicacion":"AV. DONADO - 3660"}},{"type":"Feature","geometry":{"type":"Point","coordinates":[-58.376237,-34.622106]},"properties":{"ubicacion":"AV. SAN JUAN - 730"}},{"type":"Feature","geometry":{"type":"Point","coordinates":[-58.438557,-34.547917]},"properties":{"ubicacion":"AU. INTENDENTE CANTILO - KM 7.55"}},{"type":"Feature","geometry":{"type":"Point","coordinates":[-58.376556,-34.64009]},"properties":{"ubicacion":"AU. ARTURO FRONDIZI - KM 1.3"}},{"type":"Feature","geometry":{"type":"Point","coordinates":[-58.474928,-34.667696]},"properties":{"ubicacion":"AU. DELLEPIANE - KM 2.3"}},{"type":"Feature","geometry":{"type":"Point","coordinates":[-58.459187,-34.537088]},"properties":{"ubicacion":"AU. INTENDENTE CANTILO - KM 9.86"}},{"type":"Feature","geometry":{"type":"Point","coordinates":[-58.459187,-34.537088]},"properties":{"ubicacion":"AU. INTENDENTE CANTILO - KM 9.8"}},{"type":"Feature","geometry":{"type":"Point","coordinates":[-58.459687,-34.537584]},"properties":{"ubicacion":"AU. LEOPOLDO LUGONES - KM 9.8"}},{"type":"Feature","geometry":{"type":"Point","coordinates":[-58.459687,-34.537584]},"properties":{"ubicacion":"AU. LEOPOLDO LUGONES - KM 9.8"}},{"type":"Feature","geometry":{"type":"Point","coordinates":[-58.438831,-34.548313]},"properties":{"ubicacion":"AU. LEOPOLDO LUGONES - KM 7.6"}},{"type":"Feature","geometry":{"type":"Point","coordinates":[-58.438831,-34.548313]},"properties":{"ubicacion":"AU. LEOPOLDO LUGONES - KM 7.6"}},{"type":"Feature","geometry":{"type":"Point","coordinates":[-58.415145,-34.563469]},"properties":{"ubicacion":"AU. LEOPOLDO LUGONES - KM 4.9"}},{"type":"Feature","geometry":{"type":"Point","coordinates":[-58.503825,-34.573042]},"properties":{"ubicacion":"AV. DE LOS CONSTITUYENTES - 5880"}},{"type":"Feature","geometry":{"type":"Point","coordinates":[-58.415145,-34.563469]},"properties":{"ubicacion":"AU. LEOPOLDO LUGONES - KM 4.9"}},{"type":"Feature","geometry":{"type":"Point","coordinates":[-58.464551,-34.647662]},"properties":{"ubicacion":"AU. AU1 - AU6 RAMAL DE TRANSICIÓN - KM 0.1"}},{"type":"Feature","geometry":{"type":"Point","coordinates":[-58.420924,-34.566905]},"properties":{"ubicacion":"AV. DORREGO - 3700"}},{"type":"Feature","geometry":{"type":"Point","coordinates":[-58.420969,-34.56716]},"properties":{"ubicacion":"AV. DORREGO - 3700"}},{"type":"Feature","geometry":{"type":"Point","coordinates":[-58.49738,-34.554033]},"properties":{"ubicacion":"AV. RICARDO BALBIN - 4640"}},{"type":"Feature","geometry":{"type":"Point","coordinates":[-58.474297,-34.541081]},"properties":{"ubicacion":"AV. CABILDO - 4740"}},{"type":"Feature","geometry":{"type":"Point","coordinates":[-58.419661,-34.597818]},"properties":{"ubicacion":"AV. CÓRDOBA - 3762"}},{"type":"Feature","geometry":{"type":"Point","coordinates":[-58.445799,-34.624328]},"properties":{"ubicacion":"AV. JUAN B. ALBERDI - 1260"}},{"type":"Feature","geometry":{"type":"Point","coordinates":[-58.42634,-34.628748]},"properties":{"ubicacion":"AU. 25 DE MAYO - KM 4.1"}},{"type":"Feature","geometry":{"type":"Point","coordinates":[-58.392682,-34.623799]},"properties":{"ubicacion":"AU. 25 DE MAYO - KM 7.2"}},{"type":"Feature","geometry":{"type":"Point","coordinates":[-58.392682,-34.623799]},"properties":{"ubicacion":"AU. 25 DE MAYO - KM 7.2"}},{"type":"Feature","geometry":{"type":"Point","coordinates":[-58.42634,-34.628748]},"properties":{"ubicacion":"AU. 25 DE MAYO - KM 4.1"}},{"type":"Feature","geometry":{"type":"Point","coordinates":[-58.501957,-34.553849]},"properties":{"ubicacion":"AU. GENERAL PAZ - KM 4.3"}},{"type":"Feature","geometry":{"type":"Point","coordinates":[-58.501957,-34.553849]},"properties":{"ubicacion":"AU. GENERAL PAZ - KM 4.3"}},{"type":"Feature","geometry":{"type":"Point","coordinates":[-58.523333,-34.599446]},"properties":{"ubicacion":"AU. GENERAL PAZ - KM 10.0"}},{"type":"Feature","geometry":{"type":"Point","coordinates":[-58.523333,-34.599446]},"properties":{"ubicacion":"AU. GENERAL PAZ - KM 10.0"}},{"type":"Feature","geometry":{"type":"Point","coordinates":[-58.514672,-34.664765]},"properties":{"ubicacion":"AU. GENERAL PAZ - KM 17.5"}},{"type":"Feature","geometry":{"type":"Point","coordinates":[-58.475509,-34.694076]},"properties":{"ubicacion":"AU. GENERAL PAZ - KM 22.5"}},{"type":"Feature","geometry":{"type":"Point","coordinates":[-58.530079,-34.629026]},"properties":{"ubicacion":"AU. GENERAL PAZ - KM 13.1"}},{"type":"Feature","geometry":{"type":"Point","coordinates":[-58.530079,-34.629026]},"properties":{"ubicacion":"AU. GENERAL PAZ - KM 13.1"}},{"type":"Feature","geometry":{"type":"Point","coordinates":[-58.501957,-34.553849]},"properties":{"ubicacion":"AU. GENERAL PAZ - KM 4.3"}},{"type":"Feature","geometry":{"type":"Point","coordinates":[-58.501957,-34.553849]},"properties":{"ubicacion":"AU. GENERAL PAZ - KM 4.3"}},{"type":"Feature","geometry":{"type":"Point","coordinates":[-58.41329,-34.626986]},"properties":{"ubicacion":"AU. 25 DE MAYO - KM 5.3"}},{"type":"Feature","geometry":{"type":"Point","coordinates":[-58.41329,-34.626986]},"properties":{"ubicacion":"AU. 25 DE MAYO - KM 5.3"}},{"type":"Feature","geometry":{"type":"Point","coordinates":[-58.39481,-34.624312]},"properties":{"ubicacion":"AU. 25 DE MAYO - KM 7.0"}},{"type":"Feature","geometry":{"type":"Point","coordinates":[-58.39481,-34.624312]},"properties":{"ubicacion":"AU. 25 DE MAYO - KM 7.0"}},{"type":"Feature","geometry":{"type":"Point","coordinates":[-58.389834,-34.618124]},"properties":{"ubicacion":"AV. INDEPENDENCIA - 1668"}},{"type":"Feature","geometry":{"type":"Point","coordinates":[-58.445046,-34.595415]},"properties":{"ubicacion":"AV. JUAN B. JUSTO - 2650"}},{"type":"Feature","geometry":{"type":"Point","coordinates":[-58.41608,-34.56825]},"properties":{"ubicacion":"AV. FIGUEROA ALCORTA - 4750"}},{"type":"Feature","geometry":{"type":"Point","coordinates":[-58.500386,-34.673378]},"properties":{"ubicacion":"AV. EVA PERÓN - 7280"}},{"type":"Feature","geometry":{"type":"Point","coordinates":[-58.414838,-34.608335]},"properties":{"ubicacion":"AV. DÍAZ VÉLEZ - 3420"}},{"type":"Feature","geometry":{"type":"Point","coordinates":[-58.366223,-34.614512]},"properties":{"ubicacion":"PASEO DEL BAJO KM 1.5"}},{"type":"Feature","geometry":{"type":"Point","coordinates":[-58.366223,-34.614512]},"properties":{"ubicacion":"PASEO DEL BAJO KM 1.5"}},{"type":"Feature","geometry":{"type":"Point","coordinates":[-58.382082,-34.579106]},"properties":{"ubicacion":"PASEO DEL BAJO KM 6.0"}},{"type":"Feature","geometry":{"type":"Point","coordinates":[-58.382082,-34.579106]},"properties":{"ubicacion":"PASEO DEL BAJO KM 6.0"}},{"type":"Feature","geometry":{"type":"Point","coordinates":[-58.379718,-34.608993]},"properties":{"ubicacion":"AV. DE MAYO - 930"}},{"type":"Feature","geometry":{"type":"Point","coordinates":[-58.481138,-34.564416]},"properties":{"ubicacion":"CALLE HOLMBERG - 3015"}},{"type":"Feature","geometry":{"type":"Point","coordinates":[-58.457205,-34.594573]},"properties":{"ubicacion":"AV. JORGE NEWBERY - 4733"}},{"type":"Feature","geometry":{"type":"Point","coordinates":[-58.413545,-34.636013]},"properties":{"ubicacion":"AV. CHICLANA - 3474"}},{"type":"Feature","geometry":{"type":"Point","coordinates":[-58.451289,-34.600777]},"properties":{"ubicacion":"AV. HONORIO PUEYRREDON - 1815"}},{"type":"Feature","geometry":{"type":"Point","coordinates":[-58.439244,-34.62622]},"properties":{"ubicacion":"AV. PEDRO GOYENA - 805"}},{"type":"Feature","geometry":{"type":"Point","coordinates":[-58.464781,-34.588939]},"properties":{"ubicacion":"AV. ELCANO - 4510"}}]}
