{"type":"FeatureCollection","name":"zonas-riesgo","description":"Celdas de 250 m donde los robos y hurtos de vehiculos denunciados en 2025 superan el doble de la densidad media de la Ciudad. Que una celda no aparezca no significa que no haya hechos: significa que no llega a ese doble.","attribution":"Buenos Aires Data - Mapa del Delito 2025 (CC-BY), Ministerio de Justicia y Seguridad del GCBA","source":"https://data.buenosaires.gob.ar/dataset/delitos","anio":2025,"ladoMetros":250,"baseline":{"hechos":54475,"sinCoordenada":133,"superficieKm2":203.99,"densidadMediaKm2":267.0,"mediaPorCelda":16.69},"generatedOn":"2026-09-01","features":[{"type":"Feature","properties":{"nivel":"alta","hechos":36,"veces":2.2,"automotor":0,"noche":8,"barrio":"PALERMO","anio":2025},"geometry":{"type":"Point","coordinates":[-58.410777,-34.582045]}},{"type":"Feature","properties":{"nivel":"muy-alta","hechos":52,"veces":3.1,"automotor":1,"noche":11,"barrio":"RETIRO","anio":2025},"geometry":{"type":"Point","coordinates":[-58.380762,-34.582045]}},{"type":"Feature","properties":{"nivel":"muy-alta","hechos":58,"veces":3.5,"automotor":3,"noche":14,"barrio":"VILLA SOLDATI","anio":2025},"geometry":{"type":"Point","coordinates":[-58.451707,-34.663438]}},{"type":"Feature","properties":{"nivel":"alta","hechos":41,"veces":2.5,"automotor":3,"noche":10,"barrio":"ALMAGRO","anio":2025},"geometry":{"type":"Point","coordinates":[-58.424421,-34.606915]}},{"type":"Feature","properties":{"nivel":"alta","hechos":35,"veces":2.1,"automotor":3,"noche":5,"barrio":"MONSERRAT","anio":2025},"geometry":{"type":"Point","coordinates":[-58.383491,-34.613698]}},{"type":"Feature","properties":{"nivel":"alta","hechos":46,"veces":2.8,"automotor":4,"noche":14,"barrio":"VILLA LUGANO","anio":2025},"geometry":{"type":"Point","coordinates":[-58.468079,-34.674743]}},{"type":"Feature","properties":{"nivel":"alta","hechos":40,"veces":2.4,"automotor":0,"noche":21,"barrio":"COLEGIALES","anio":2025},"geometry":{"type":"Point","coordinates":[-58.451707,-34.579784]}},{"type":"Feature","properties":{"nivel":"alta","hechos":41,"veces":2.5,"automotor":2,"noche":14,"barrio":"CONSTITUCION","anio":2025},"geometry":{"type":"Point","coordinates":[-58.388948,-34.627263]}},{"type":"Feature","properties":{"nivel":"alta","hechos":43,"veces":2.6,"automotor":2,"noche":23,"barrio":"MONTE CASTRO","anio":2025},"geometry":{"type":"Point","coordinates":[-58.498094,-34.615959]}},{"type":"Feature","properties":{"nivel":"alta","hechos":43,"veces":2.6,"automotor":4,"noche":6,"barrio":"PARQUE CHACABUCO","anio":2025},"geometry":{"type":"Point","coordinates":[-58.44625,-34.631785]}},{"type":"Feature","properties":{"nivel":"alta","hechos":46,"veces":2.8,"automotor":0,"noche":11,"barrio":"SAN NICOLAS","anio":2025},"geometry":{"type":"Point","coordinates":[-58.378034,-34.606915]}},{"type":"Feature","properties":{"nivel":"alta","hechos":39,"veces":2.3,"automotor":4,"noche":10,"barrio":"BARRACAS","anio":2025},"geometry":{"type":"Point","coordinates":[-58.369848,-34.634046]}},{"type":"Feature","properties":{"nivel":"alta","hechos":44,"veces":2.6,"automotor":1,"noche":9,"barrio":"RECOLETA","anio":2025},"geometry":{"type":"Point","coordinates":[-58.40532,-34.593349]}},{"type":"Feature","properties":{"nivel":"muy-alta","hechos":54,"veces":3.2,"automotor":1,"noche":17,"barrio":"MONSERRAT","anio":2025},"geometry":{"type":"Point","coordinates":[-58.372576,-34.613698]}},{"type":"Feature","properties":{"nivel":"muy-alta","hechos":53,"veces":3.2,"automotor":12,"noche":14,"barrio":"BARRACAS","anio":2025},"geometry":{"type":"Point","coordinates":[-58.372576,-34.629524]}},{"type":"Feature","properties":{"nivel":"alta","hechos":36,"veces":2.2,"automotor":0,"noche":14,"barrio":"MONSERRAT","anio":2025},"geometry":{"type":"Point","coordinates":[-58.380762,-34.615959]}},{"type":"Feature","properties":{"nivel":"alta","hechos":45,"veces":2.7,"automotor":1,"noche":12,"barrio":"PALERMO","anio":2025},"geometry":{"type":"Point","coordinates":[-58.424421,-34.582045]}},{"type":"Feature","properties":{"nivel":"alta","hechos":34,"veces":2.0,"automotor":4,"noche":7,"barrio":"PARQUE CHACABUCO","anio":2025},"geometry":{"type":"Point","coordinates":[-58.451707,-34.634046]}},{"type":"Feature","properties":{"nivel":"alta","hechos":40,"veces":2.4,"automotor":2,"noche":16,"barrio":"RECOLETA","anio":2025},"geometry":{"type":"Point","coordinates":[-58.413506,-34.597871]}},{"type":"Feature","properties":{"nivel":"alta","hechos":47,"veces":2.8,"automotor":2,"noche":13,"barrio":"SAN CRISTOBAL","anio":2025},"geometry":{"type":"Point","coordinates":[-58.391677,-34.625002]}},{"type":"Feature","properties":{"nivel":"alta","hechos":44,"veces":2.6,"automotor":7,"noche":7,"barrio":"CABALLITO","anio":2025},"geometry":{"type":"Point","coordinates":[-58.438064,-34.615959]}},{"type":"Feature","properties":{"nivel":"muy-alta","hechos":57,"veces":3.4,"automotor":0,"noche":15,"barrio":"MONSERRAT","anio":2025},"geometry":{"type":"Point","coordinates":[-58.380762,-34.609176]}},{"type":"Feature","properties":{"nivel":"alta","hechos":42,"veces":2.5,"automotor":0,"noche":15,"barrio":"CABALLITO","anio":2025},"geometry":{"type":"Point","coordinates":[-58.429878,-34.615959]}},{"type":"Feature","properties":{"nivel":"alta","hechos":41,"veces":2.5,"automotor":0,"noche":10,"barrio":"SAN TELMO","anio":2025},"geometry":{"type":"Point","coordinates":[-58.369848,-34.618219]}},{"type":"Feature","properties":{"nivel":"alta","hechos":44,"veces":2.6,"automotor":5,"noche":21,"barrio":"CABALLITO","anio":2025},"geometry":{"type":"Point","coordinates":[-58.443521,-34.622741]}},{"type":"Feature","properties":{"nivel":"extrema","hechos":87,"veces":5.2,"automotor":2,"noche":21,"barrio":"RECOLETA","anio":2025},"geometry":{"type":"Point","coordinates":[-58.402591,-34.59561]}},{"type":"Feature","properties":{"nivel":"muy-alta","hechos":57,"veces":3.4,"automotor":1,"noche":14,"barrio":"RECOLETA","anio":2025},"geometry":{"type":"Point","coordinates":[-58.388948,-34.59561]}},{"type":"Feature","properties":{"nivel":"muy-alta","hechos":53,"veces":3.2,"automotor":0,"noche":9,"barrio":"PALERMO","anio":2025},"geometry":{"type":"Point","coordinates":[-58.421692,-34.582045]}},{"type":"Feature","properties":{"nivel":"alta","hechos":35,"veces":2.1,"automotor":7,"noche":13,"barrio":"VILLA LUGANO","anio":2025},"geometry":{"type":"Point","coordinates":[-58.489908,-34.66796]}},{"type":"Feature","properties":{"nivel":"muy-alta","hechos":51,"veces":3.1,"automotor":5,"noche":17,"barrio":"PALERMO","anio":2025},"geometry":{"type":"Point","coordinates":[-58.440792,-34.586566]}},{"type":"Feature","properties":{"nivel":"alta","hechos":49,"veces":2.9,"automotor":4,"noche":4,"barrio":"BARRACAS","anio":2025},"geometry":{"type":"Point","coordinates":[-58.375305,-34.638568]}},{"type":"Feature","properties":{"nivel":"muy-alta","hechos":58,"veces":3.5,"automotor":1,"noche":16,"barrio":"RECOLETA","anio":2025},"geometry":{"type":"Point","coordinates":[-58.394405,-34.59561]}},{"type":"Feature","properties":{"nivel":"alta","hechos":34,"veces":2.0,"automotor":4,"noche":8,"barrio":"FLORES","anio":2025},"geometry":{"type":"Point","coordinates":[-58.457164,-34.625002]}},{"type":"Feature","properties":{"nivel":"alta","hechos":38,"veces":2.3,"automotor":5,"noche":9,"barrio":"FLORES","anio":2025},"geometry":{"type":"Point","coordinates":[-58.457164,-34.629524]}},{"type":"Feature","properties":{"nivel":"muy-alta","hechos":61,"veces":3.7,"automotor":0,"noche":13,"barrio":"SAN NICOLAS","anio":2025},"geometry":{"type":"Point","coordinates":[-58.369848,-34.602393]}},{"type":"Feature","properties":{"nivel":"alta","hechos":37,"veces":2.2,"automotor":2,"noche":11,"barrio":"NUEVA POMPEYA","anio":2025},"geometry":{"type":"Point","coordinates":[-58.416235,-34.652133]}},{"type":"Feature","properties":{"nivel":"extrema","hechos":116,"veces":7.0,"automotor":0,"noche":23,"barrio":"LINIERS","anio":2025},"geometry":{"type":"Point","coordinates":[-58.52538,-34.638568]}},{"type":"Feature","properties":{"nivel":"muy-alta","hechos":63,"veces":3.8,"automotor":3,"noche":26,"barrio":"ALMAGRO","anio":2025},"geometry":{"type":"Point","coordinates":[-58.418963,-34.609176]}},{"type":"Feature","properties":{"nivel":"muy-alta","hechos":71,"veces":4.3,"automotor":1,"noche":13,"barrio":"MONSERRAT","anio":2025},"geometry":{"type":"Point","coordinates":[-58.386219,-34.609176]}},{"type":"Feature","properties":{"nivel":"alta","hechos":34,"veces":2.0,"automotor":5,"noche":4,"barrio":"FLORES","anio":2025},"geometry":{"type":"Point","coordinates":[-58.468079,-34.625002]}},{"type":"Feature","properties":{"nivel":"alta","hechos":43,"veces":2.6,"automotor":0,"noche":15,"barrio":"MONSERRAT","anio":2025},"geometry":{"type":"Point","coordinates":[-58.378034,-34.611437]}},{"type":"Feature","properties":{"nivel":"extrema","hechos":124,"veces":7.4,"automotor":2,"noche":39,"barrio":"BALVANERA","anio":2025},"geometry":{"type":"Point","coordinates":[-58.410777,-34.604654]}},{"type":"Feature","properties":{"nivel":"muy-alta","hechos":53,"veces":3.2,"automotor":3,"noche":11,"barrio":"RECOLETA","anio":2025},"geometry":{"type":"Point","coordinates":[-58.402591,-34.593349]}},{"type":"Feature","properties":{"nivel":"alta","hechos":43,"veces":2.6,"automotor":4,"noche":20,"barrio":"VILLA SOLDATI","anio":2025},"geometry":{"type":"Point","coordinates":[-58.454436,-34.656655]}},{"type":"Feature","properties":{"nivel":"alta","hechos":41,"veces":2.5,"automotor":3,"noche":12,"barrio":"MATADEROS","anio":2025},"geometry":{"type":"Point","coordinates":[-58.492637,-34.66796]}},{"type":"Feature","properties":{"nivel":"alta","hechos":39,"veces":2.3,"automotor":8,"noche":13,"barrio":"MATADEROS","anio":2025},"geometry":{"type":"Point","coordinates":[-58.517195,-34.661177]}},{"type":"Feature","properties":{"nivel":"alta","hechos":34,"veces":2.0,"automotor":0,"noche":7,"barrio":"SAN TELMO","anio":2025},"geometry":{"type":"Point","coordinates":[-58.372576,-34.62048]}},{"type":"Feature","properties":{"nivel":"muy-alta","hechos":61,"veces":3.7,"automotor":1,"noche":14,"barrio":"SAN NICOLAS","anio":2025},"geometry":{"type":"Point","coordinates":[-58.388948,-34.600132]}},{"type":"Feature","properties":{"nivel":"alta","hechos":37,"veces":2.2,"automotor":1,"noche":8,"barrio":"CABALLITO","anio":2025},"geometry":{"type":"Point","coordinates":[-58.440792,-34.613698]}},{"type":"Feature","properties":{"nivel":"alta","hechos":35,"veces":2.1,"automotor":0,"noche":13,"barrio":"CONSTITUCION","anio":2025},"geometry":{"type":"Point","coordinates":[-58.380762,-34.622741]}},{"type":"Feature","properties":{"nivel":"alta","hechos":34,"veces":2.0,"automotor":0,"noche":13,"barrio":"CHACARITA","anio":2025},"geometry":{"type":"Point","coordinates":[-58.44625,-34.591088]}},{"type":"Feature","properties":{"nivel":"alta","hechos":45,"veces":2.7,"automotor":3,"noche":9,"barrio":"ALMAGRO","anio":2025},"geometry":{"type":"Point","coordinates":[-58.413506,-34.613698]}},{"type":"Feature","properties":{"nivel":"alta","hechos":37,"veces":2.2,"automotor":1,"noche":22,"barrio":"LINIERS","anio":2025},"geometry":{"type":"Point","coordinates":[-58.519923,-34.634046]}},{"type":"Feature","properties":{"nivel":"muy-alta","hechos":54,"veces":3.2,"automotor":1,"noche":15,"barrio":"RETIRO","anio":2025},"geometry":{"type":"Point","coordinates":[-58.375305,-34.597871]}},{"type":"Feature","properties":{"nivel":"alta","hechos":39,"veces":2.3,"automotor":0,"noche":14,"barrio":"RETIRO","anio":2025},"geometry":{"type":"Point","coordinates":[-58.375305,-34.59561]}},{"type":"Feature","properties":{"nivel":"alta","hechos":37,"veces":2.2,"automotor":2,"noche":14,"barrio":"VILLA SOLDATI","anio":2025},"geometry":{"type":"Point","coordinates":[-58.457164,-34.654394]}},{"type":"Feature","properties":{"nivel":"alta","hechos":46,"veces":2.8,"automotor":12,"noche":9,"barrio":"FLORESTA","anio":2025},"geometry":{"type":"Point","coordinates":[-58.478993,-34.631785]}},{"type":"Feature","properties":{"nivel":"muy-alta","hechos":74,"veces":4.4,"automotor":1,"noche":21,"barrio":"MONSERRAT","anio":2025},"geometry":{"type":"Point","coordinates":[-58.378034,-34.609176]}},{"type":"Feature","properties":{"nivel":"alta","hechos":36,"veces":2.2,"automotor":2,"noche":9,"barrio":"FLORES","anio":2025},"geometry":{"type":"Point","coordinates":[-58.462622,-34.64309]}},{"type":"Feature","properties":{"nivel":"extrema","hechos":101,"veces":6.1,"automotor":1,"noche":23,"barrio":"CONSTITUCION","anio":2025},"geometry":{"type":"Point","coordinates":[-58.383491,-34.625002]}},{"type":"Feature","properties":{"nivel":"muy-alta","hechos":65,"veces":3.9,"automotor":0,"noche":9,"barrio":"SAN NICOLAS","anio":2025},"geometry":{"type":"Point","coordinates":[-58.372576,-34.606915]}},{"type":"Feature","properties":{"nivel":"alta","hechos":44,"veces":2.6,"automotor":3,"noche":17,"barrio":"CABALLITO","anio":2025},"geometry":{"type":"Point","coordinates":[-58.427149,-34.622741]}},{"type":"Feature","properties":{"nivel":"muy-alta","hechos":61,"veces":3.7,"automotor":2,"noche":19,"barrio":"PALERMO","anio":2025},"geometry":{"type":"Point","coordinates":[-58.413506,-34.586566]}},{"type":"Feature","properties":{"nivel":"alta","hechos":35,"veces":2.1,"automotor":3,"noche":12,"barrio":"VILLA LUGANO","anio":2025},"geometry":{"type":"Point","coordinates":[-58.492637,-34.672482]}},{"type":"Feature","properties":{"nivel":"alta","hechos":43,"veces":2.6,"automotor":2,"noche":13,"barrio":"ALMAGRO","anio":2025},"geometry":{"type":"Point","coordinates":[-58.424421,-34.602393]}},{"type":"Feature","properties":{"nivel":"alta","hechos":35,"veces":2.1,"automotor":9,"noche":5,"barrio":"CABALLITO","anio":2025},"geometry":{"type":"Point","coordinates":[-58.432606,-34.604654]}},{"type":"Feature","properties":{"nivel":"alta","hechos":35,"veces":2.1,"automotor":0,"noche":7,"barrio":"PALERMO","anio":2025},"geometry":{"type":"Point","coordinates":[-58.429878,-34.577523]}},{"type":"Feature","properties":{"nivel":"alta","hechos":42,"veces":2.5,"automotor":3,"noche":9,"barrio":"MATADEROS","anio":2025},"geometry":{"type":"Point","coordinates":[-58.495365,-34.670221]}},{"type":"Feature","properties":{"nivel":"alta","hechos":50,"veces":3.0,"automotor":1,"noche":8,"barrio":"PALERMO","anio":2025},"geometry":{"type":"Point","coordinates":[-58.408049,-34.582045]}},{"type":"Feature","properties":{"nivel":"alta","hechos":38,"veces":2.3,"automotor":0,"noche":14,"barrio":"VILLA CRESPO","anio":2025},"geometry":{"type":"Point","coordinates":[-58.427149,-34.59561]}},{"type":"Feature","properties":{"nivel":"alta","hechos":44,"veces":2.6,"automotor":2,"noche":12,"barrio":"FLORES","anio":2025},"geometry":{"type":"Point","coordinates":[-58.451707,-34.645351]}},{"type":"Feature","properties":{"nivel":"alta","hechos":49,"veces":2.9,"automotor":1,"noche":12,"barrio":"FLORES","anio":2025},"geometry":{"type":"Point","coordinates":[-58.454436,-34.631785]}},{"type":"Feature","properties":{"nivel":"alta","hechos":38,"veces":2.3,"automotor":1,"noche":12,"barrio":"CABALLITO","anio":2025},"geometry":{"type":"Point","coordinates":[-58.440792,-34.62048]}},{"type":"Feature","properties":{"nivel":"alta","hechos":37,"veces":2.2,"automotor":0,"noche":11,"barrio":"SAN NICOLAS","anio":2025},"geometry":{"type":"Point","coordinates":[-58.388948,-34.602393]}},{"type":"Feature","properties":{"nivel":"alta","hechos":47,"veces":2.8,"automotor":0,"noche":16,"barrio":"PALERMO","anio":2025},"geometry":{"type":"Point","coordinates":[-58.429878,-34.579784]}},{"type":"Feature","properties":{"nivel":"alta","hechos":37,"veces":2.2,"automotor":5,"noche":9,"barrio":"VILLA LUGANO","anio":2025},"geometry":{"type":"Point","coordinates":[-58.489908,-34.677004]}},{"type":"Feature","properties":{"nivel":"alta","hechos":48,"veces":2.9,"automotor":3,"noche":8,"barrio":"FLORES","anio":2025},"geometry":{"type":"Point","coordinates":[-58.468079,-34.629524]}},{"type":"Feature","properties":{"nivel":"alta","hechos":39,"veces":2.3,"automotor":3,"noche":11,"barrio":"VILLA CRESPO","anio":2025},"geometry":{"type":"Point","coordinates":[-58.443521,-34.59561]}},{"type":"Feature","properties":{"nivel":"alta","hechos":48,"veces":2.9,"automotor":1,"noche":11,"barrio":"RECOLETA","anio":2025},"geometry":{"type":"Point","coordinates":[-58.397134,-34.597871]}},{"type":"Feature","properties":{"nivel":"muy-alta","hechos":56,"veces":3.4,"automotor":0,"noche":13,"barrio":"RECOLETA","anio":2025},"geometry":{"type":"Point","coordinates":[-58.399863,-34.584306]}},{"type":"Feature","properties":{"nivel":"alta","hechos":44,"veces":2.6,"automotor":1,"noche":8,"barrio":"BALVANERA","anio":2025},"geometry":{"type":"Point","coordinates":[-58.399863,-34.600132]}},{"type":"Feature","properties":{"nivel":"alta","hechos":43,"veces":2.6,"automotor":1,"noche":7,"barrio":"SAN NICOLAS","anio":2025},"geometry":{"type":"Point","coordinates":[-58.375305,-34.602393]}},{"type":"Feature","properties":{"nivel":"alta","hechos":38,"veces":2.3,"automotor":1,"noche":16,"barrio":"CONSTITUCION","anio":2025},"geometry":{"type":"Point","coordinates":[-58.388948,-34.622741]}},{"type":"Feature","properties":{"nivel":"alta","hechos":47,"veces":2.8,"automotor":3,"noche":18,"barrio":"VILLA SOLDATI","anio":2025},"geometry":{"type":"Point","coordinates":[-58.457164,-34.658916]}},{"type":"Feature","properties":{"nivel":"alta","hechos":42,"veces":2.5,"automotor":6,"noche":6,"barrio":"VILLA LUGANO","anio":2025},"geometry":{"type":"Point","coordinates":[-58.470808,-34.665699]}},{"type":"Feature","properties":{"nivel":"alta","hechos":49,"veces":2.9,"automotor":2,"noche":14,"barrio":"SAN TELMO","anio":2025},"geometry":{"type":"Point","coordinates":[-58.369848,-34.627263]}},{"type":"Feature","properties":{"nivel":"muy-alta","hechos":79,"veces":4.7,"automotor":0,"noche":34,"barrio":"BALVANERA","anio":2025},"geometry":{"type":"Point","coordinates":[-58.410777,-34.606915]}},{"type":"Feature","properties":{"nivel":"alta","hechos":38,"veces":2.3,"automotor":4,"noche":10,"barrio":"ALMAGRO","anio":2025},"geometry":{"type":"Point","coordinates":[-58.416235,-34.613698]}},{"type":"Feature","properties":{"nivel":"muy-alta","hechos":60,"veces":3.6,"automotor":3,"noche":13,"barrio":"VILLA CRESPO","anio":2025},"geometry":{"type":"Point","coordinates":[-58.438064,-34.600132]}},{"type":"Feature","properties":{"nivel":"muy-alta","hechos":60,"veces":3.6,"automotor":2,"noche":15,"barrio":"PALERMO","anio":2025},"geometry":{"type":"Point","coordinates":[-58.40532,-34.584306]}},{"type":"Feature","properties":{"nivel":"extrema","hechos":169,"veces":10.1,"automotor":2,"noche":34,"barrio":"LINIERS","anio":2025},"geometry":{"type":"Point","coordinates":[-58.528109,-34.638568]}},{"type":"Feature","properties":{"nivel":"alta","hechos":39,"veces":2.3,"automotor":0,"noche":12,"barrio":"RETIRO","anio":2025},"geometry":{"type":"Point","coordinates":[-58.383491,-34.582045]}},{"type":"Feature","properties":{"nivel":"alta","hechos":48,"veces":2.9,"automotor":6,"noche":19,"barrio":"VILLA LUGANO","anio":2025},"geometry":{"type":"Point","coordinates":[-58.462622,-34.674743]}},{"type":"Feature","properties":{"nivel":"muy-alta","hechos":56,"veces":3.4,"automotor":2,"noche":18,"barrio":"ALMAGRO","anio":2025},"geometry":{"type":"Point","coordinates":[-58.418963,-34.611437]}},{"type":"Feature","properties":{"nivel":"alta","hechos":35,"veces":2.1,"automotor":2,"noche":11,"barrio":"PARQUE CHACABUCO","anio":2025},"geometry":{"type":"Point","coordinates":[-58.435335,-34.64309]}},{"type":"Feature","properties":{"nivel":"alta","hechos":40,"veces":2.4,"automotor":0,"noche":3,"barrio":"SAN NICOLAS","anio":2025},"geometry":{"type":"Point","coordinates":[-58.369848,-34.604654]}},{"type":"Feature","properties":{"nivel":"alta","hechos":35,"veces":2.1,"automotor":5,"noche":7,"barrio":"SAN CRISTOBAL","anio":2025},"geometry":{"type":"Point","coordinates":[-58.408049,-34.622741]}},{"type":"Feature","properties":{"nivel":"muy-alta","hechos":52,"veces":3.1,"automotor":3,"noche":20,"barrio":"MONSERRAT","anio":2025},"geometry":{"type":"Point","coordinates":[-58.372576,-34.615959]}},{"type":"Feature","properties":{"nivel":"alta","hechos":37,"veces":2.2,"automotor":3,"noche":8,"barrio":"PALERMO","anio":2025},"geometry":{"type":"Point","coordinates":[-58.427149,-34.582045]}},{"type":"Feature","properties":{"nivel":"alta","hechos":41,"veces":2.5,"automotor":4,"noche":12,"barrio":"SAN CRISTOBAL","anio":2025},"geometry":{"type":"Point","coordinates":[-58.394405,-34.622741]}},{"type":"Feature","properties":{"nivel":"alta","hechos":42,"veces":2.5,"automotor":5,"noche":8,"barrio":"FLORES","anio":2025},"geometry":{"type":"Point","coordinates":[-58.454436,-34.627263]}},{"type":"Feature","properties":{"nivel":"alta","hechos":36,"veces":2.2,"automotor":2,"noche":6,"barrio":"RECOLETA","anio":2025},"geometry":{"type":"Point","coordinates":[-58.40532,-34.588827]}},{"type":"Feature","properties":{"nivel":"extrema","hechos":120,"veces":7.2,"automotor":2,"noche":30,"barrio":"FLORES","anio":2025},"geometry":{"type":"Point","coordinates":[-58.440792,-34.649872]}},{"type":"Feature","properties":{"nivel":"muy-alta","hechos":69,"veces":4.1,"automotor":2,"noche":18,"barrio":"PARQUE CHACABUCO","anio":2025},"geometry":{"type":"Point","coordinates":[-58.440792,-34.64309]}},{"type":"Feature","properties":{"nivel":"alta","hechos":35,"veces":2.1,"automotor":2,"noche":6,"barrio":"BALVANERA","anio":2025},"geometry":{"type":"Point","coordinates":[-58.408049,-34.615959]}},{"type":"Feature","properties":{"nivel":"alta","hechos":42,"veces":2.5,"automotor":0,"noche":9,"barrio":"BALVANERA","anio":2025},"geometry":{"type":"Point","coordinates":[-58.391677,-34.602393]}},{"type":"Feature","properties":{"nivel":"muy-alta","hechos":52,"veces":3.1,"automotor":0,"noche":17,"barrio":"VILLA CRESPO","anio":2025},"geometry":{"type":"Point","coordinates":[-58.429878,-34.593349]}},{"type":"Feature","properties":{"nivel":"alta","hechos":50,"veces":3.0,"automotor":4,"noche":20,"barrio":"CONSTITUCION","anio":2025},"geometry":{"type":"Point","coordinates":[-58.386219,-34.622741]}},{"type":"Feature","properties":{"nivel":"muy-alta","hechos":55,"veces":3.3,"automotor":6,"noche":6,"barrio":"CABALLITO","anio":2025},"geometry":{"type":"Point","coordinates":[-58.438064,-34.611437]}},{"type":"Feature","properties":{"nivel":"alta","hechos":37,"veces":2.2,"automotor":0,"noche":12,"barrio":"MONSERRAT","anio":2025},"geometry":{"type":"Point","coordinates":[-58.380762,-34.611437]}},{"type":"Feature","properties":{"nivel":"muy-alta","hechos":52,"veces":3.1,"automotor":1,"noche":4,"barrio":"MONSERRAT","anio":2025},"geometry":{"type":"Point","coordinates":[-58.372576,-34.609176]}},{"type":"Feature","properties":{"nivel":"muy-alta","hechos":70,"veces":4.2,"automotor":3,"noche":11,"barrio":"BARRACAS","anio":2025},"geometry":{"type":"Point","coordinates":[-58.394405,-34.652133]}},{"type":"Feature","properties":{"nivel":"muy-alta","hechos":58,"veces":3.5,"automotor":3,"noche":24,"barrio":"VILLA SOLDATI","anio":2025},"geometry":{"type":"Point","coordinates":[-58.448978,-34.665699]}},{"type":"Feature","properties":{"nivel":"alta","hechos":35,"veces":2.1,"automotor":9,"noche":4,"barrio":"BOCA","anio":2025},"geometry":{"type":"Point","coordinates":[-58.361662,-34.627263]}},{"type":"Feature","properties":{"nivel":"muy-alta","hechos":56,"veces":3.4,"automotor":2,"noche":18,"barrio":"RECOLETA","anio":2025},"geometry":{"type":"Point","coordinates":[-58.410777,-34.597871]}},{"type":"Feature","properties":{"nivel":"muy-alta","hechos":81,"veces":4.9,"automotor":6,"noche":30,"barrio":"SAN TELMO","anio":2025},"geometry":{"type":"Point","coordinates":[-58.375305,-34.618219]}},{"type":"Feature","properties":{"nivel":"alta","hechos":47,"veces":2.8,"automotor":4,"noche":12,"barrio":"FLORES","anio":2025},"geometry":{"type":"Point","coordinates":[-58.44625,-34.645351]}},{"type":"Feature","properties":{"nivel":"alta","hechos":36,"veces":2.2,"automotor":0,"noche":7,"barrio":"CONSTITUCION","anio":2025},"geometry":{"type":"Point","coordinates":[-58.388948,-34.634046]}},{"type":"Feature","properties":{"nivel":"alta","hechos":35,"veces":2.1,"automotor":0,"noche":10,"barrio":"BARRACAS","anio":2025},"geometry":{"type":"Point","coordinates":[-58.372576,-34.638568]}},{"type":"Feature","properties":{"nivel":"muy-alta","hechos":72,"veces":4.3,"automotor":9,"noche":28,"barrio":"VILLA SOLDATI","anio":2025},"geometry":{"type":"Point","coordinates":[-58.443521,-34.665699]}},{"type":"Feature","properties":{"nivel":"muy-alta","hechos":52,"veces":3.1,"automotor":2,"noche":9,"barrio":"BARRACAS","anio":2025},"geometry":{"type":"Point","coordinates":[-58.372576,-34.645351]}},{"type":"Feature","properties":{"nivel":"alta","hechos":49,"veces":2.9,"automotor":5,"noche":18,"barrio":"CABALLITO","anio":2025},"geometry":{"type":"Point","coordinates":[-58.451707,-34.627263]}},{"type":"Feature","properties":{"nivel":"alta","hechos":40,"veces":2.4,"automotor":1,"noche":8,"barrio":"BALVANERA","anio":2025},"geometry":{"type":"Point","coordinates":[-58.402591,-34.611437]}},{"type":"Feature","properties":{"nivel":"alta","hechos":41,"veces":2.5,"automotor":0,"noche":8,"barrio":"MONSERRAT","anio":2025},"geometry":{"type":"Point","coordinates":[-58.369848,-34.611437]}},{"type":"Feature","properties":{"nivel":"extrema","hechos":191,"veces":11.4,"automotor":0,"noche":28,"barrio":"CONSTITUCION","anio":2025},"geometry":{"type":"Point","coordinates":[-58.380762,-34.627263]}},{"type":"Feature","properties":{"nivel":"alta","hechos":36,"veces":2.2,"automotor":0,"noche":7,"barrio":"BALVANERA","anio":2025},"geometry":{"type":"Point","coordinates":[-58.391677,-34.609176]}},{"type":"Feature","properties":{"nivel":"alta","hechos":42,"veces":2.5,"automotor":2,"noche":5,"barrio":"SAN NICOLAS","anio":2025},"geometry":{"type":"Point","coordinates":[-58.378034,-34.604654]}},{"type":"Feature","properties":{"nivel":"alta","hechos":40,"veces":2.4,"automotor":2,"noche":13,"barrio":"ALMAGRO","anio":2025},"geometry":{"type":"Point","coordinates":[-58.416235,-34.604654]}},{"type":"Feature","properties":{"nivel":"alta","hechos":40,"veces":2.4,"automotor":0,"noche":13,"barrio":"RECOLETA","anio":2025},"geometry":{"type":"Point","coordinates":[-58.386219,-34.597871]}},{"type":"Feature","properties":{"nivel":"alta","hechos":47,"veces":2.8,"automotor":3,"noche":11,"barrio":"BALVANERA","anio":2025},"geometry":{"type":"Point","coordinates":[-58.399863,-34.609176]}},{"type":"Feature","properties":{"nivel":"alta","hechos":50,"veces":3.0,"automotor":7,"noche":10,"barrio":"BOCA","anio":2025},"geometry":{"type":"Point","coordinates":[-58.36439,-34.627263]}},{"type":"Feature","properties":{"nivel":"muy-alta","hechos":58,"veces":3.5,"automotor":1,"noche":18,"barrio":"ALMAGRO","anio":2025},"geometry":{"type":"Point","coordinates":[-58.421692,-34.613698]}},{"type":"Feature","properties":{"nivel":"extrema","hechos":89,"veces":5.3,"automotor":1,"noche":32,"barrio":"MONSERRAT","anio":2025},"geometry":{"type":"Point","coordinates":[-58.375305,-34.613698]}},{"type":"Feature","properties":{"nivel":"alta","hechos":36,"veces":2.2,"automotor":4,"noche":11,"barrio":"ALMAGRO","anio":2025},"geometry":{"type":"Point","coordinates":[-58.421692,-34.604654]}},{"type":"Feature","properties":{"nivel":"alta","hechos":37,"veces":2.2,"automotor":1,"noche":7,"barrio":"ALMAGRO","anio":2025},"geometry":{"type":"Point","coordinates":[-58.427149,-34.62048]}},{"type":"Feature","properties":{"nivel":"alta","hechos":37,"veces":2.2,"automotor":0,"noche":9,"barrio":"PALERMO","anio":2025},"geometry":{"type":"Point","coordinates":[-58.424421,-34.591088]}},{"type":"Feature","properties":{"nivel":"alta","hechos":50,"veces":3.0,"automotor":0,"noche":18,"barrio":"CABALLITO","anio":2025},"geometry":{"type":"Point","coordinates":[-58.448978,-34.625002]}},{"type":"Feature","properties":{"nivel":"alta","hechos":36,"veces":2.2,"automotor":5,"noche":11,"barrio":"ALMAGRO","anio":2025},"geometry":{"type":"Point","coordinates":[-58.416235,-34.62048]}},{"type":"Feature","properties":{"nivel":"alta","hechos":46,"veces":2.8,"automotor":2,"noche":15,"barrio":"FLORES","anio":2025},"geometry":{"type":"Point","coordinates":[-58.44625,-34.649872]}},{"type":"Feature","properties":{"nivel":"alta","hechos":49,"veces":2.9,"automotor":5,"noche":15,"barrio":"SAN TELMO","anio":2025},"geometry":{"type":"Point","coordinates":[-58.375305,-34.625002]}},{"type":"Feature","properties":{"nivel":"muy-alta","hechos":78,"veces":4.7,"automotor":4,"noche":17,"barrio":"RECOLETA","anio":2025},"geometry":{"type":"Point","coordinates":[-58.408049,-34.591088]}},{"type":"Feature","properties":{"nivel":"muy-alta","hechos":68,"veces":4.1,"automotor":1,"noche":10,"barrio":"BARRACAS","anio":2025},"geometry":{"type":"Point","coordinates":[-58.397134,-34.652133]}},{"type":"Feature","properties":{"nivel":"alta","hechos":39,"veces":2.3,"automotor":1,"noche":8,"barrio":"PALERMO","anio":2025},"geometry":{"type":"Point","coordinates":[-58.427149,-34.579784]}},{"type":"Feature","properties":{"nivel":"alta","hechos":40,"veces":2.4,"automotor":0,"noche":12,"barrio":"RETIRO","anio":2025},"geometry":{"type":"Point","coordinates":[-58.380762,-34.584306]}},{"type":"Feature","properties":{"nivel":"alta","hechos":39,"veces":2.3,"automotor":3,"noche":10,"barrio":"CABALLITO","anio":2025},"geometry":{"type":"Point","coordinates":[-58.432606,-34.622741]}},{"type":"Feature","properties":{"nivel":"alta","hechos":39,"veces":2.3,"automotor":1,"noche":15,"barrio":"BOCA","anio":2025},"geometry":{"type":"Point","coordinates":[-58.367119,-34.627263]}},{"type":"Feature","properties":{"nivel":"muy-alta","hechos":51,"veces":3.1,"automotor":2,"noche":10,"barrio":"CONSTITUCION","anio":2025},"geometry":{"type":"Point","coordinates":[-58.388948,-34.62048]}},{"type":"Feature","properties":{"nivel":"alta","hechos":47,"veces":2.8,"automotor":1,"noche":8,"barrio":"BOCA","anio":2025},"geometry":{"type":"Point","coordinates":[-58.367119,-34.625002]}},{"type":"Feature","properties":{"nivel":"muy-alta","hechos":69,"veces":4.1,"automotor":4,"noche":17,"barrio":"RETIRO","anio":2025},"geometry":{"type":"Point","coordinates":[-58.375305,-34.584306]}},{"type":"Feature","properties":{"nivel":"muy-alta","hechos":58,"veces":3.5,"automotor":2,"noche":16,"barrio":"MONSERRAT","anio":2025},"geometry":{"type":"Point","coordinates":[-58.369848,-34.613698]}},{"type":"Feature","properties":{"nivel":"muy-alta","hechos":52,"veces":3.1,"automotor":3,"noche":15,"barrio":"CONSTITUCION","anio":2025},"geometry":{"type":"Point","coordinates":[-58.378034,-34.622741]}},{"type":"Feature","properties":{"nivel":"alta","hechos":38,"veces":2.3,"automotor":1,"noche":10,"barrio":"FLORES","anio":2025},"geometry":{"type":"Point","coordinates":[-58.438064,-34.649872]}},{"type":"Feature","properties":{"nivel":"alta","hechos":36,"veces":2.2,"automotor":3,"noche":14,"barrio":"SAN CRISTOBAL","anio":2025},"geometry":{"type":"Point","coordinates":[-58.397134,-34.622741]}},{"type":"Feature","properties":{"nivel":"alta","hechos":41,"veces":2.5,"automotor":3,"noche":13,"barrio":"ALMAGRO","anio":2025},"geometry":{"type":"Point","coordinates":[-58.416235,-34.606915]}},{"type":"Feature","properties":{"nivel":"alta","hechos":39,"veces":2.3,"automotor":1,"noche":12,"barrio":"PALERMO","anio":2025},"geometry":{"type":"Point","coordinates":[-58.413506,-34.591088]}},{"type":"Feature","properties":{"nivel":"alta","hechos":34,"veces":2.0,"automotor":0,"noche":10,"barrio":"BALVANERA","anio":2025},"geometry":{"type":"Point","coordinates":[-58.413506,-34.609176]}},{"type":"Feature","properties":{"nivel":"alta","hechos":36,"veces":2.2,"automotor":1,"noche":8,"barrio":"PARQUE AVELLANEDA","anio":2025},"geometry":{"type":"Point","coordinates":[-58.473536,-34.656655]}},{"type":"Feature","properties":{"nivel":"alta","hechos":37,"veces":2.2,"automotor":1,"noche":13,"barrio":"ALMAGRO","anio":2025},"geometry":{"type":"Point","coordinates":[-58.416235,-34.609176]}},{"type":"Feature","properties":{"nivel":"alta","hechos":35,"veces":2.1,"automotor":0,"noche":7,"barrio":"PARQUE CHACABUCO","anio":2025},"geometry":{"type":"Point","coordinates":[-58.44625,-34.640829]}},{"type":"Feature","properties":{"nivel":"alta","hechos":42,"veces":2.5,"automotor":6,"noche":15,"barrio":"VILLA LUGANO","anio":2025},"geometry":{"type":"Point","coordinates":[-58.489908,-34.670221]}},{"type":"Feature","properties":{"nivel":"muy-alta","hechos":62,"veces":3.7,"automotor":1,"noche":20,"barrio":"MONSERRAT","anio":2025},"geometry":{"type":"Point","coordinates":[-58.375305,-34.609176]}},{"type":"Feature","properties":{"nivel":"extrema","hechos":164,"veces":9.8,"automotor":1,"noche":29,"barrio":"SAN NICOLAS","anio":2025},"geometry":{"type":"Point","coordinates":[-58.380762,-34.604654]}},{"type":"Feature","properties":{"nivel":"muy-alta","hechos":59,"veces":3.5,"automotor":1,"noche":15,"barrio":"BALVANERA","anio":2025},"geometry":{"type":"Point","coordinates":[-58.402591,-34.609176]}},{"type":"Feature","properties":{"nivel":"alta","hechos":42,"veces":2.5,"automotor":3,"noche":13,"barrio":"VILLA CRESPO","anio":2025},"geometry":{"type":"Point","coordinates":[-58.435335,-34.597871]}},{"type":"Feature","properties":{"nivel":"alta","hechos":36,"veces":2.2,"automotor":8,"noche":7,"barrio":"VILLA LUGANO","anio":2025},"geometry":{"type":"Point","coordinates":[-58.473536,-34.665699]}},{"type":"Feature","properties":{"nivel":"muy-alta","hechos":53,"veces":3.2,"automotor":1,"noche":11,"barrio":"SAN NICOLAS","anio":2025},"geometry":{"type":"Point","coordinates":[-58.375305,-34.606915]}},{"type":"Feature","properties":{"nivel":"alta","hechos":37,"veces":2.2,"automotor":4,"noche":7,"barrio":"BARRACAS","anio":2025},"geometry":{"type":"Point","coordinates":[-58.375305,-34.634046]}},{"type":"Feature","properties":{"nivel":"alta","hechos":39,"veces":2.3,"automotor":2,"noche":11,"barrio":"PALERMO","anio":2025},"geometry":{"type":"Point","coordinates":[-58.418963,-34.586566]}},{"type":"Feature","properties":{"nivel":"alta","hechos":34,"veces":2.0,"automotor":1,"noche":7,"barrio":"PARQUE PATRICIOS","anio":2025},"geometry":{"type":"Point","coordinates":[-58.397134,-34.636307]}},{"type":"Feature","properties":{"nivel":"alta","hechos":39,"veces":2.3,"automotor":0,"noche":7,"barrio":"CONSTITUCION","anio":2025},"geometry":{"type":"Point","coordinates":[-58.383491,-34.622741]}},{"type":"Feature","properties":{"nivel":"extrema","hechos":128,"veces":7.7,"automotor":3,"noche":38,"barrio":"PALERMO","anio":2025},"geometry":{"type":"Point","coordinates":[-58.410777,-34.588827]}},{"type":"Feature","properties":{"nivel":"alta","hechos":49,"veces":2.9,"automotor":2,"noche":4,"barrio":"SAN NICOLAS","anio":2025},"geometry":{"type":"Point","coordinates":[-58.380762,-34.602393]}},{"type":"Feature","properties":{"nivel":"alta","hechos":35,"veces":2.1,"automotor":2,"noche":13,"barrio":"CHACARITA","anio":2025},"geometry":{"type":"Point","coordinates":[-58.454436,-34.584306]}},{"type":"Feature","properties":{"nivel":"muy-alta","hechos":56,"veces":3.4,"automotor":4,"noche":22,"barrio":"BOCA","anio":2025},"geometry":{"type":"Point","coordinates":[-58.361662,-34.631785]}},{"type":"Feature","properties":{"nivel":"muy-alta","hechos":60,"veces":3.6,"automotor":2,"noche":9,"barrio":"BARRACAS","anio":2025},"geometry":{"type":"Point","coordinates":[-58.372576,-34.647612]}},{"type":"Feature","properties":{"nivel":"alta","hechos":38,"veces":2.3,"automotor":6,"noche":7,"barrio":"PATERNAL","anio":2025},"geometry":{"type":"Point","coordinates":[-58.46535,-34.602393]}},{"type":"Feature","properties":{"nivel":"muy-alta","hechos":56,"veces":3.4,"automotor":1,"noche":17,"barrio":"ALMAGRO","anio":2025},"geometry":{"type":"Point","coordinates":[-58.418963,-34.602393]}},{"type":"Feature","properties":{"nivel":"muy-alta","hechos":59,"veces":3.5,"automotor":0,"noche":11,"barrio":"SAN NICOLAS","anio":2025},"geometry":{"type":"Point","coordinates":[-58.369848,-34.600132]}},{"type":"Feature","properties":{"nivel":"alta","hechos":44,"veces":2.6,"automotor":1,"noche":7,"barrio":"RECOLETA","anio":2025},"geometry":{"type":"Point","coordinates":[-58.397134,-34.586566]}},{"type":"Feature","properties":{"nivel":"muy-alta","hechos":52,"veces":3.1,"automotor":3,"noche":17,"barrio":"PARQUE CHACABUCO","anio":2025},"geometry":{"type":"Point","coordinates":[-58.443521,-34.640829]}},{"type":"Feature","properties":{"nivel":"alta","hechos":43,"veces":2.6,"automotor":1,"noche":13,"barrio":"ALMAGRO","anio":2025},"geometry":{"type":"Point","coordinates":[-58.421692,-34.611437]}},{"type":"Feature","properties":{"nivel":"alta","hechos":42,"veces":2.5,"automotor":7,"noche":11,"barrio":"BALVANERA","anio":2025},"geometry":{"type":"Point","coordinates":[-58.413506,-34.611437]}},{"type":"Feature","properties":{"nivel":"muy-alta","hechos":56,"veces":3.4,"automotor":0,"noche":17,"barrio":"RECOLETA","anio":2025},"geometry":{"type":"Point","coordinates":[-58.391677,-34.59561]}},{"type":"Feature","properties":{"nivel":"alta","hechos":40,"veces":2.4,"automotor":1,"noche":13,"barrio":"VILLA SOLDATI","anio":2025},"geometry":{"type":"Point","coordinates":[-58.44625,-34.663438]}},{"type":"Feature","properties":{"nivel":"alta","hechos":34,"veces":2.0,"automotor":2,"noche":6,"barrio":"VILLA CRESPO","anio":2025},"geometry":{"type":"Point","coordinates":[-58.435335,-34.600132]}},{"type":"Feature","properties":{"nivel":"alta","hechos":35,"veces":2.1,"automotor":2,"noche":6,"barrio":"RECOLETA","anio":2025},"geometry":{"type":"Point","coordinates":[-58.399863,-34.593349]}},{"type":"Feature","properties":{"nivel":"alta","hechos":49,"veces":2.9,"automotor":1,"noche":12,"barrio":"BALVANERA","anio":2025},"geometry":{"type":"Point","coordinates":[-58.408049,-34.611437]}},{"type":"Feature","properties":{"nivel":"extrema","hechos":122,"veces":7.3,"automotor":1,"noche":29,"barrio":"BALVANERA","anio":2025},"geometry":{"type":"Point","coordinates":[-58.40532,-34.604654]}},{"type":"Feature","properties":{"nivel":"muy-alta","hechos":70,"veces":4.2,"automotor":0,"noche":23,"barrio":"SAN NICOLAS","anio":2025},"geometry":{"type":"Point","coordinates":[-58.388948,-34.604654]}},{"type":"Feature","properties":{"nivel":"muy-alta","hechos":54,"veces":3.2,"automotor":4,"noche":8,"barrio":"VILLA LUGANO","anio":2025},"geometry":{"type":"Point","coordinates":[-58.489908,-34.681525]}},{"type":"Feature","properties":{"nivel":"muy-alta","hechos":58,"veces":3.5,"automotor":4,"noche":17,"barrio":"BALVANERA","anio":2025},"geometry":{"type":"Point","coordinates":[-58.408049,-34.602393]}},{"type":"Feature","properties":{"nivel":"alta","hechos":43,"veces":2.6,"automotor":3,"noche":15,"barrio":"FLORES","anio":2025},"geometry":{"type":"Point","coordinates":[-58.454436,-34.64309]}},{"type":"Feature","properties":{"nivel":"extrema","hechos":94,"veces":5.6,"automotor":5,"noche":14,"barrio":"FLORES","anio":2025},"geometry":{"type":"Point","coordinates":[-58.44625,-34.64309]}},{"type":"Feature","properties":{"nivel":"alta","hechos":41,"veces":2.5,"automotor":4,"noche":11,"barrio":"VILLA CRESPO","anio":2025},"geometry":{"type":"Point","coordinates":[-58.457164,-34.604654]}},{"type":"Feature","properties":{"nivel":"muy-alta","hechos":56,"veces":3.4,"automotor":2,"noche":22,"barrio":"PALERMO","anio":2025},"geometry":{"type":"Point","coordinates":[-58.438064,-34.588827]}},{"type":"Feature","properties":{"nivel":"alta","hechos":40,"veces":2.4,"automotor":2,"noche":13,"barrio":"RECOLETA","anio":2025},"geometry":{"type":"Point","coordinates":[-58.399863,-34.586566]}},{"type":"Feature","properties":{"nivel":"alta","hechos":48,"veces":2.9,"automotor":5,"noche":19,"barrio":"CHACARITA","anio":2025},"geometry":{"type":"Point","coordinates":[-58.440792,-34.588827]}},{"type":"Feature","properties":{"nivel":"alta","hechos":35,"veces":2.1,"automotor":1,"noche":11,"barrio":"CABALLITO","anio":2025},"geometry":{"type":"Point","coordinates":[-58.429878,-34.618219]}},{"type":"Feature","properties":{"nivel":"muy-alta","hechos":63,"veces":3.8,"automotor":3,"noche":21,"barrio":"VILLA SOLDATI","anio":2025},"geometry":{"type":"Point","coordinates":[-58.451707,-34.656655]}},{"type":"Feature","properties":{"nivel":"alta","hechos":39,"veces":2.3,"automotor":2,"noche":4,"barrio":"BOEDO","anio":2025},"geometry":{"type":"Point","coordinates":[-58.410777,-34.638568]}},{"type":"Feature","properties":{"nivel":"alta","hechos":44,"veces":2.6,"automotor":4,"noche":24,"barrio":"VILLA CRESPO","anio":2025},"geometry":{"type":"Point","coordinates":[-58.44625,-34.59561]}},{"type":"Feature","properties":{"nivel":"alta","hechos":43,"veces":2.6,"automotor":6,"noche":13,"barrio":"BOEDO","anio":2025},"geometry":{"type":"Point","coordinates":[-58.427149,-34.627263]}},{"type":"Feature","properties":{"nivel":"alta","hechos":37,"veces":2.2,"automotor":3,"noche":4,"barrio":"BELGRANO","anio":2025},"geometry":{"type":"Point","coordinates":[-58.454436,-34.566218]}},{"type":"Feature","properties":{"nivel":"muy-alta","hechos":52,"veces":3.1,"automotor":3,"noche":13,"barrio":"FLORESTA","anio":2025},"geometry":{"type":"Point","coordinates":[-58.476265,-34.631785]}},{"type":"Feature","properties":{"nivel":"muy-alta","hechos":66,"veces":4.0,"automotor":1,"noche":12,"barrio":"PALERMO","anio":2025},"geometry":{"type":"Point","coordinates":[-58.418963,-34.582045]}},{"type":"Feature","properties":{"nivel":"alta","hechos":41,"veces":2.5,"automotor":2,"noche":11,"barrio":"ALMAGRO","anio":2025},"geometry":{"type":"Point","coordinates":[-58.421692,-34.62048]}},{"type":"Feature","properties":{"nivel":"muy-alta","hechos":57,"veces":3.4,"automotor":1,"noche":11,"barrio":"RETIRO","anio":2025},"geometry":{"type":"Point","coordinates":[-58.386219,-34.59561]}},{"type":"Feature","properties":{"nivel":"alta","hechos":36,"veces":2.2,"automotor":4,"noche":7,"barrio":"FLORES","anio":2025},"geometry":{"type":"Point","coordinates":[-58.438064,-34.647612]}},{"type":"Feature","properties":{"nivel":"alta","hechos":38,"veces":2.3,"automotor":0,"noche":5,"barrio":"BALVANERA","anio":2025},"geometry":{"type":"Point","coordinates":[-58.410777,-34.613698]}},{"type":"Feature","properties":{"nivel":"alta","hechos":38,"veces":2.3,"automotor":3,"noche":16,"barrio":"BARRACAS","anio":2025},"geometry":{"type":"Point","coordinates":[-58.397134,-34.654394]}},{"type":"Feature","properties":{"nivel":"alta","hechos":48,"veces":2.9,"automotor":1,"noche":13,"barrio":"MONSERRAT","anio":2025},"geometry":{"type":"Point","coordinates":[-58.383491,-34.609176]}},{"type":"Feature","properties":{"nivel":"alta","hechos":49,"veces":2.9,"automotor":3,"noche":15,"barrio":"BOCA","anio":2025},"geometry":{"type":"Point","coordinates":[-58.356204,-34.634046]}},{"type":"Feature","properties":{"nivel":"alta","hechos":48,"veces":2.9,"automotor":3,"noche":6,"barrio":"PARQUE PATRICIOS","anio":2025},"geometry":{"type":"Point","coordinates":[-58.399863,-34.636307]}},{"type":"Feature","properties":{"nivel":"alta","hechos":47,"veces":2.8,"automotor":4,"noche":14,"barrio":"SAN TELMO","anio":2025},"geometry":{"type":"Point","coordinates":[-58.372576,-34.622741]}},{"type":"Feature","properties":{"nivel":"alta","hechos":40,"veces":2.4,"automotor":2,"noche":12,"barrio":"PALERMO","anio":2025},"geometry":{"type":"Point","coordinates":[-58.416235,-34.586566]}},{"type":"Feature","properties":{"nivel":"alta","hechos":48,"veces":2.9,"automotor":3,"noche":13,"barrio":"NUEVA POMPEYA","anio":2025},"geometry":{"type":"Point","coordinates":[-58.402591,-34.654394]}},{"type":"Feature","properties":{"nivel":"alta","hechos":40,"veces":2.4,"automotor":5,"noche":10,"barrio":"PALERMO","anio":2025},"geometry":{"type":"Point","coordinates":[-58.418963,-34.59561]}},{"type":"Feature","properties":{"nivel":"alta","hechos":36,"veces":2.2,"automotor":2,"noche":4,"barrio":"RECOLETA","anio":2025},"geometry":{"type":"Point","coordinates":[-58.408049,-34.597871]}},{"type":"Feature","properties":{"nivel":"alta","hechos":48,"veces":2.9,"automotor":7,"noche":23,"barrio":"BOCA","anio":2025},"geometry":{"type":"Point","coordinates":[-58.36439,-34.629524]}},{"type":"Feature","properties":{"nivel":"alta","hechos":47,"veces":2.8,"automotor":1,"noche":9,"barrio":"SAN TELMO","anio":2025},"geometry":{"type":"Point","coordinates":[-58.369848,-34.625002]}},{"type":"Feature","properties":{"nivel":"alta","hechos":47,"veces":2.8,"automotor":0,"noche":16,"barrio":"RETIRO","anio":2025},"geometry":{"type":"Point","coordinates":[-58.378034,-34.59561]}},{"type":"Feature","properties":{"nivel":"alta","hechos":34,"veces":2.0,"automotor":4,"noche":6,"barrio":"BOCA","anio":2025},"geometry":{"type":"Point","coordinates":[-58.367119,-34.629524]}},{"type":"Feature","properties":{"nivel":"alta","hechos":45,"veces":2.7,"automotor":4,"noche":15,"barrio":"ALMAGRO","anio":2025},"geometry":{"type":"Point","coordinates":[-58.424421,-34.600132]}},{"type":"Feature","properties":{"nivel":"alta","hechos":46,"veces":2.8,"automotor":0,"noche":12,"barrio":"RETIRO","anio":2025},"geometry":{"type":"Point","coordinates":[-58.383491,-34.59561]}},{"type":"Feature","properties":{"nivel":"muy-alta","hechos":54,"veces":3.2,"automotor":6,"noche":7,"barrio":"BARRACAS","anio":2025},"geometry":{"type":"Point","coordinates":[-58.372576,-34.631785]}},{"type":"Feature","properties":{"nivel":"alta","hechos":37,"veces":2.2,"automotor":0,"noche":6,"barrio":"CONSTITUCION","anio":2025},"geometry":{"type":"Point","coordinates":[-58.386219,-34.62048]}},{"type":"Feature","properties":{"nivel":"extrema","hechos":274,"veces":16.4,"automotor":5,"noche":77,"barrio":"CONSTITUCION","anio":2025},"geometry":{"type":"Point","coordinates":[-58.383491,-34.627263]}},{"type":"Feature","properties":{"nivel":"extrema","hechos":107,"veces":6.4,"automotor":6,"noche":43,"barrio":"BALVANERA","anio":2025},"geometry":{"type":"Point","coordinates":[-58.410777,-34.602393]}},{"type":"Feature","properties":{"nivel":"alta","hechos":38,"veces":2.3,"automotor":5,"noche":7,"barrio":"FLORES","anio":2025},"geometry":{"type":"Point","coordinates":[-58.462622,-34.618219]}},{"type":"Feature","properties":{"nivel":"alta","hechos":45,"veces":2.7,"automotor":5,"noche":14,"barrio":"BALVANERA","anio":2025},"geometry":{"type":"Point","coordinates":[-58.397134,-34.609176]}},{"type":"Feature","properties":{"nivel":"alta","hechos":39,"veces":2.3,"automotor":5,"noche":9,"barrio":"VILLA LUGANO","anio":2025},"geometry":{"type":"Point","coordinates":[-58.46535,-34.674743]}},{"type":"Feature","properties":{"nivel":"alta","hechos":36,"veces":2.2,"automotor":4,"noche":12,"barrio":"VILLA LUGANO","anio":2025},"geometry":{"type":"Point","coordinates":[-58.492637,-34.674743]}},{"type":"Feature","properties":{"nivel":"alta","hechos":37,"veces":2.2,"automotor":1,"noche":7,"barrio":"BALVANERA","anio":2025},"geometry":{"type":"Point","coordinates":[-58.394405,-34.613698]}},{"type":"Feature","properties":{"nivel":"alta","hechos":41,"veces":2.5,"automotor":0,"noche":20,"barrio":"PARQUE PATRICIOS","anio":2025},"geometry":{"type":"Point","coordinates":[-58.397134,-34.64309]}},{"type":"Feature","properties":{"nivel":"muy-alta","hechos":53,"veces":3.2,"automotor":1,"noche":13,"barrio":"BOCA","anio":2025},"geometry":{"type":"Point","coordinates":[-58.356204,-34.636307]}},{"type":"Feature","properties":{"nivel":"alta","hechos":37,"veces":2.2,"automotor":0,"noche":10,"barrio":"CABALLITO","anio":2025},"geometry":{"type":"Point","coordinates":[-58.451707,-34.629524]}},{"type":"Feature","properties":{"nivel":"muy-alta","hechos":53,"veces":3.2,"automotor":1,"noche":15,"barrio":"CONSTITUCION","anio":2025},"geometry":{"type":"Point","coordinates":[-58.386219,-34.618219]}},{"type":"Feature","properties":{"nivel":"muy-alta","hechos":58,"veces":3.5,"automotor":1,"noche":9,"barrio":"RECOLETA","anio":2025},"geometry":{"type":"Point","coordinates":[-58.386219,-34.577523]}},{"type":"Feature","properties":{"nivel":"alta","hechos":47,"veces":2.8,"automotor":0,"noche":18,"barrio":"SAN NICOLAS","anio":2025},"geometry":{"type":"Point","coordinates":[-58.383491,-34.604654]}},{"type":"Feature","properties":{"nivel":"extrema","hechos":161,"veces":9.6,"automotor":0,"noche":41,"barrio":"RETIRO","anio":2025},"geometry":{"type":"Point","coordinates":[-58.372576,-34.591088]}},{"type":"Feature","properties":{"nivel":"alta","hechos":38,"veces":2.3,"automotor":2,"noche":5,"barrio":"RECOLETA","anio":2025},"geometry":{"type":"Point","coordinates":[-58.410777,-34.593349]}},{"type":"Feature","properties":{"nivel":"muy-alta","hechos":58,"veces":3.5,"automotor":3,"noche":10,"barrio":"LINIERS","anio":2025},"geometry":{"type":"Point","coordinates":[-58.528109,-34.640829]}},{"type":"Feature","properties":{"nivel":"muy-alta","hechos":68,"veces":4.1,"automotor":1,"noche":10,"barrio":"BALVANERA","anio":2025},"geometry":{"type":"Point","coordinates":[-58.402591,-34.597871]}},{"type":"Feature","properties":{"nivel":"muy-alta","hechos":60,"veces":3.6,"automotor":0,"noche":16,"barrio":"SAN TELMO","anio":2025},"geometry":{"type":"Point","coordinates":[-58.372576,-34.618219]}},{"type":"Feature","properties":{"nivel":"muy-alta","hechos":61,"veces":3.7,"automotor":0,"noche":33,"barrio":"RECOLETA","anio":2025},"geometry":{"type":"Point","coordinates":[-58.394405,-34.573001]}},{"type":"Feature","properties":{"nivel":"alta","hechos":41,"veces":2.5,"automotor":0,"noche":15,"barrio":"RETIRO","anio":2025},"geometry":{"type":"Point","coordinates":[-58.380762,-34.59561]}},{"type":"Feature","properties":{"nivel":"alta","hechos":40,"veces":2.4,"automotor":1,"noche":5,"barrio":"BALVANERA","anio":2025},"geometry":{"type":"Point","coordinates":[-58.40532,-34.613698]}},{"type":"Feature","properties":{"nivel":"muy-alta","hechos":61,"veces":3.7,"automotor":1,"noche":17,"barrio":"SAN NICOLAS","anio":2025},"geometry":{"type":"Point","coordinates":[-58.391677,-34.600132]}},{"type":"Feature","properties":{"nivel":"alta","hechos":39,"veces":2.3,"automotor":1,"noche":9,"barrio":"FLORES","anio":2025},"geometry":{"type":"Point","coordinates":[-58.451707,-34.638568]}},{"type":"Feature","properties":{"nivel":"muy-alta","hechos":72,"veces":4.3,"automotor":3,"noche":15,"barrio":"PALERMO","anio":2025},"geometry":{"type":"Point","coordinates":[-58.416235,-34.584306]}},{"type":"Feature","properties":{"nivel":"muy-alta","hechos":51,"veces":3.1,"automotor":0,"noche":8,"barrio":"ALMAGRO","anio":2025},"geometry":{"type":"Point","coordinates":[-58.421692,-34.602393]}},{"type":"Feature","properties":{"nivel":"alta","hechos":34,"veces":2.0,"automotor":0,"noche":11,"barrio":"PARQUE CHACABUCO","anio":2025},"geometry":{"type":"Point","coordinates":[-58.451707,-34.636307]}},{"type":"Feature","properties":{"nivel":"muy-alta","hechos":53,"veces":3.2,"automotor":1,"noche":19,"barrio":"ALMAGRO","anio":2025},"geometry":{"type":"Point","coordinates":[-58.421692,-34.606915]}},{"type":"Feature","properties":{"nivel":"muy-alta","hechos":68,"veces":4.1,"automotor":1,"noche":27,"barrio":"BALVANERA","anio":2025},"geometry":{"type":"Point","coordinates":[-58.413506,-34.606915]}},{"type":"Feature","properties":{"nivel":"alta","hechos":40,"veces":2.4,"automotor":4,"noche":12,"barrio":"CABALLITO","anio":2025},"geometry":{"type":"Point","coordinates":[-58.432606,-34.627263]}},{"type":"Feature","properties":{"nivel":"alta","hechos":50,"veces":3.0,"automotor":0,"noche":6,"barrio":"BARRACAS","anio":2025},"geometry":{"type":"Point","coordinates":[-58.375305,-34.647612]}},{"type":"Feature","properties":{"nivel":"muy-alta","hechos":66,"veces":4.0,"automotor":4,"noche":21,"barrio":"VILLA SOLDATI","anio":2025},"geometry":{"type":"Point","coordinates":[-58.454436,-34.661177]}},{"type":"Feature","properties":{"nivel":"alta","hechos":40,"veces":2.4,"automotor":1,"noche":11,"barrio":"CONSTITUCION","anio":2025},"geometry":{"type":"Point","coordinates":[-58.383491,-34.62048]}},{"type":"Feature","properties":{"nivel":"alta","hechos":49,"veces":2.9,"automotor":0,"noche":6,"barrio":"RETIRO","anio":2025},"geometry":{"type":"Point","coordinates":[-58.380762,-34.579784]}},{"type":"Feature","properties":{"nivel":"alta","hechos":48,"veces":2.9,"automotor":1,"noche":13,"barrio":"MONSERRAT","anio":2025},"geometry":{"type":"Point","coordinates":[-58.378034,-34.613698]}},{"type":"Feature","properties":{"nivel":"alta","hechos":39,"veces":2.3,"automotor":3,"noche":9,"barrio":"VILLA CRESPO","anio":2025},"geometry":{"type":"Point","coordinates":[-58.432606,-34.602393]}},{"type":"Feature","properties":{"nivel":"alta","hechos":43,"veces":2.6,"automotor":3,"noche":13,"barrio":"FLORES","anio":2025},"geometry":{"type":"Point","coordinates":[-58.448978,-34.640829]}},{"type":"Feature","properties":{"nivel":"alta","hechos":39,"veces":2.3,"automotor":0,"noche":12,"barrio":"SAN TELMO","anio":2025},"geometry":{"type":"Point","coordinates":[-58.369848,-34.615959]}},{"type":"Feature","properties":{"nivel":"muy-alta","hechos":57,"veces":3.4,"automotor":1,"noche":8,"barrio":"BELGRANO","anio":2025},"geometry":{"type":"Point","coordinates":[-58.457164,-34.561696]}},{"type":"Feature","properties":{"nivel":"muy-alta","hechos":55,"veces":3.3,"automotor":9,"noche":20,"barrio":"VILLA SOLDATI","anio":2025},"geometry":{"type":"Point","coordinates":[-58.443521,-34.663438]}},{"type":"Feature","properties":{"nivel":"muy-alta","hechos":54,"veces":3.2,"automotor":5,"noche":13,"barrio":"ALMAGRO","anio":2025},"geometry":{"type":"Point","coordinates":[-58.418963,-34.604654]}},{"type":"Feature","properties":{"nivel":"alta","hechos":36,"veces":2.2,"automotor":2,"noche":7,"barrio":"NUEVA POMPEYA","anio":2025},"geometry":{"type":"Point","coordinates":[-58.416235,-34.649872]}},{"type":"Feature","properties":{"nivel":"extrema","hechos":84,"veces":5.0,"automotor":2,"noche":38,"barrio":"SAN NICOLAS","anio":2025},"geometry":{"type":"Point","coordinates":[-58.386219,-34.604654]}},{"type":"Feature","properties":{"nivel":"muy-alta","hechos":58,"veces":3.5,"automotor":0,"noche":14,"barrio":"RETIRO","anio":2025},"geometry":{"type":"Point","coordinates":[-58.372576,-34.597871]}},{"type":"Feature","properties":{"nivel":"alta","hechos":38,"veces":2.3,"automotor":1,"noche":8,"barrio":"SAN NICOLAS","anio":2025},"geometry":{"type":"Point","coordinates":[-58.380762,-34.600132]}},{"type":"Feature","properties":{"nivel":"muy-alta","hechos":83,"veces":5.0,"automotor":0,"noche":23,"barrio":"BALVANERA","anio":2025},"geometry":{"type":"Point","coordinates":[-58.408049,-34.609176]}},{"type":"Feature","properties":{"nivel":"muy-alta","hechos":64,"veces":3.8,"automotor":1,"noche":23,"barrio":"MONSERRAT","anio":2025},"geometry":{"type":"Point","coordinates":[-58.375305,-34.611437]}},{"type":"Feature","properties":{"nivel":"alta","hechos":44,"veces":2.6,"automotor":2,"noche":6,"barrio":"FLORES","anio":2025},"geometry":{"type":"Point","coordinates":[-58.440792,-34.647612]}},{"type":"Feature","properties":{"nivel":"alta","hechos":34,"veces":2.0,"automotor":1,"noche":6,"barrio":"CONSTITUCION","anio":2025},"geometry":{"type":"Point","coordinates":[-58.391677,-34.62048]}},{"type":"Feature","properties":{"nivel":"muy-alta","hechos":66,"veces":4.0,"automotor":2,"noche":31,"barrio":"BALVANERA","anio":2025},"geometry":{"type":"Point","coordinates":[-58.413506,-34.602393]}},{"type":"Feature","properties":{"nivel":"alta","hechos":44,"veces":2.6,"automotor":0,"noche":6,"barrio":"BALVANERA","anio":2025},"geometry":{"type":"Point","coordinates":[-58.408049,-34.606915]}},{"type":"Feature","properties":{"nivel":"muy-alta","hechos":67,"veces":4.0,"automotor":2,"noche":26,"barrio":"CONSTITUCION","anio":2025},"geometry":{"type":"Point","coordinates":[-58.378034,-34.618219]}},{"type":"Feature","properties":{"nivel":"muy-alta","hechos":59,"veces":3.5,"automotor":3,"noche":15,"barrio":"PALERMO","anio":2025},"geometry":{"type":"Point","coordinates":[-58.413506,-34.593349]}},{"type":"Feature","properties":{"nivel":"alta","hechos":39,"veces":2.3,"automotor":2,"noche":6,"barrio":"FLORES","anio":2025},"geometry":{"type":"Point","coordinates":[-58.457164,-34.640829]}},{"type":"Feature","properties":{"nivel":"alta","hechos":47,"veces":2.8,"automotor":3,"noche":18,"barrio":"BOCA","anio":2025},"geometry":{"type":"Point","coordinates":[-58.358933,-34.631785]}},{"type":"Feature","properties":{"nivel":"alta","hechos":48,"veces":2.9,"automotor":4,"noche":17,"barrio":"VILLA SOLDATI","anio":2025},"geometry":{"type":"Point","coordinates":[-58.459893,-34.656655]}},{"type":"Feature","properties":{"nivel":"extrema","hechos":187,"veces":11.2,"automotor":4,"noche":32,"barrio":"FLORES","anio":2025},"geometry":{"type":"Point","coordinates":[-58.443521,-34.649872]}},{"type":"Feature","properties":{"nivel":"extrema","hechos":109,"veces":6.5,"automotor":1,"noche":23,"barrio":"PARQUE CHACABUCO","anio":2025},"geometry":{"type":"Point","coordinates":[-58.443521,-34.64309]}},{"type":"Feature","properties":{"nivel":"alta","hechos":42,"veces":2.5,"automotor":1,"noche":10,"barrio":"BALVANERA","anio":2025},"geometry":{"type":"Point","coordinates":[-58.397134,-34.613698]}},{"type":"Feature","properties":{"nivel":"alta","hechos":34,"veces":2.0,"automotor":2,"noche":11,"barrio":"CABALLITO","anio":2025},"geometry":{"type":"Point","coordinates":[-58.435335,-34.622741]}},{"type":"Feature","properties":{"nivel":"muy-alta","hechos":59,"veces":3.5,"automotor":0,"noche":16,"barrio":"RETIRO","anio":2025},"geometry":{"type":"Point","coordinates":[-58.375305,-34.591088]}},{"type":"Feature","properties":{"nivel":"alta","hechos":46,"veces":2.8,"automotor":0,"noche":13,"barrio":"PALERMO","anio":2025},"geometry":{"type":"Point","coordinates":[-58.427149,-34.591088]}},{"type":"Feature","properties":{"nivel":"alta","hechos":47,"veces":2.8,"automotor":1,"noche":19,"barrio":"ALMAGRO","anio":2025},"geometry":{"type":"Point","coordinates":[-58.416235,-34.597871]}},{"type":"Feature","properties":{"nivel":"alta","hechos":34,"veces":2.0,"automotor":4,"noche":4,"barrio":"SAN CRISTOBAL","anio":2025},"geometry":{"type":"Point","coordinates":[-58.40532,-34.62048]}},{"type":"Feature","properties":{"nivel":"alta","hechos":39,"veces":2.3,"automotor":3,"noche":11,"barrio":"ALMAGRO","anio":2025},"geometry":{"type":"Point","coordinates":[-58.427149,-34.604654]}},{"type":"Feature","properties":{"nivel":"muy-alta","hechos":63,"veces":3.8,"automotor":0,"noche":21,"barrio":"SAN NICOLAS","anio":2025},"geometry":{"type":"Point","coordinates":[-58.378034,-34.600132]}},{"type":"Feature","properties":{"nivel":"muy-alta","hechos":52,"veces":3.1,"automotor":5,"noche":7,"barrio":"VERSALLES","anio":2025},"geometry":{"type":"Point","coordinates":[-58.528109,-34.634046]}},{"type":"Feature","properties":{"nivel":"alta","hechos":38,"veces":2.3,"automotor":1,"noche":9,"barrio":"BALVANERA","anio":2025},"geometry":{"type":"Point","coordinates":[-58.410777,-34.609176]}},{"type":"Feature","properties":{"nivel":"muy-alta","hechos":83,"veces":5.0,"automotor":0,"noche":24,"barrio":"CONSTITUCION","anio":2025},"geometry":{"type":"Point","coordinates":[-58.380762,-34.625002]}},{"type":"Feature","properties":{"nivel":"muy-alta","hechos":63,"veces":3.8,"automotor":0,"noche":12,"barrio":"NUEVA POMPEYA","anio":2025},"geometry":{"type":"Point","coordinates":[-58.40532,-34.649872]}},{"type":"Feature","properties":{"nivel":"alta","hechos":40,"veces":2.4,"automotor":3,"noche":3,"barrio":"BARRACAS","anio":2025},"geometry":{"type":"Point","coordinates":[-58.375305,-34.640829]}},{"type":"Feature","properties":{"nivel":"muy-alta","hechos":51,"veces":3.1,"automotor":3,"noche":13,"barrio":"MONSERRAT","anio":2025},"geometry":{"type":"Point","coordinates":[-58.391677,-34.615959]}},{"type":"Feature","properties":{"nivel":"alta","hechos":46,"veces":2.8,"automotor":3,"noche":13,"barrio":"RETIRO","anio":2025},"geometry":{"type":"Point","coordinates":[-58.378034,-34.597871]}},{"type":"Feature","properties":{"nivel":"alta","hechos":34,"veces":2.0,"automotor":3,"noche":10,"barrio":"BARRACAS","anio":2025},"geometry":{"type":"Point","coordinates":[-58.378034,-34.629524]}},{"type":"Feature","properties":{"nivel":"muy-alta","hechos":65,"veces":3.9,"automotor":4,"noche":20,"barrio":"BALVANERA","anio":2025},"geometry":{"type":"Point","coordinates":[-58.410777,-34.611437]}},{"type":"Feature","properties":{"nivel":"alta","hechos":37,"veces":2.2,"automotor":1,"noche":11,"barrio":"BALVANERA","anio":2025},"geometry":{"type":"Point","coordinates":[-58.410777,-34.600132]}},{"type":"Feature","properties":{"nivel":"extrema","hechos":97,"veces":5.8,"automotor":1,"noche":31,"barrio":"BALVANERA","anio":2025},"geometry":{"type":"Point","coordinates":[-58.391677,-34.604654]}},{"type":"Feature","properties":{"nivel":"muy-alta","hechos":55,"veces":3.3,"automotor":5,"noche":10,"barrio":"FLORES","anio":2025},"geometry":{"type":"Point","coordinates":[-58.454436,-34.629524]}},{"type":"Feature","properties":{"nivel":"muy-alta","hechos":79,"veces":4.7,"automotor":1,"noche":13,"barrio":"PALERMO","anio":2025},"geometry":{"type":"Point","coordinates":[-58.427149,-34.577523]}},{"type":"Feature","properties":{"nivel":"alta","hechos":35,"veces":2.1,"automotor":7,"noche":6,"barrio":"CABALLITO","anio":2025},"geometry":{"type":"Point","coordinates":[-58.432606,-34.606915]}},{"type":"Feature","properties":{"nivel":"muy-alta","hechos":61,"veces":3.7,"automotor":4,"noche":23,"barrio":"SAN NICOLAS","anio":2025},"geometry":{"type":"Point","coordinates":[-58.388948,-34.606915]}},{"type":"Feature","properties":{"nivel":"alta","hechos":35,"veces":2.1,"automotor":1,"noche":7,"barrio":"VILLA SOLDATI","anio":2025},"geometry":{"type":"Point","coordinates":[-58.448978,-34.658916]}},{"type":"Feature","properties":{"nivel":"alta","hechos":48,"veces":2.9,"automotor":1,"noche":10,"barrio":"RECOLETA","anio":2025},"geometry":{"type":"Point","coordinates":[-58.397134,-34.588827]}},{"type":"Feature","properties":{"nivel":"alta","hechos":50,"veces":3.0,"automotor":7,"noche":10,"barrio":"BARRACAS","anio":2025},"geometry":{"type":"Point","coordinates":[-58.372576,-34.64309]}},{"type":"Feature","properties":{"nivel":"alta","hechos":44,"veces":2.6,"automotor":2,"noche":6,"barrio":"FLORES","anio":2025},"geometry":{"type":"Point","coordinates":[-58.46535,-34.627263]}},{"type":"Feature","properties":{"nivel":"alta","hechos":39,"veces":2.3,"automotor":5,"noche":10,"barrio":"BALVANERA","anio":2025},"geometry":{"type":"Point","coordinates":[-58.408049,-34.600132]}},{"type":"Feature","properties":{"nivel":"alta","hechos":35,"veces":2.1,"automotor":3,"noche":8,"barrio":"SAN TELMO","anio":2025},"geometry":{"type":"Point","coordinates":[-58.369848,-34.622741]}},{"type":"Feature","properties":{"nivel":"alta","hechos":35,"veces":2.1,"automotor":2,"noche":12,"barrio":"CABALLITO","anio":2025},"geometry":{"type":"Point","coordinates":[-58.435335,-34.627263]}},{"type":"Feature","properties":{"nivel":"alta","hechos":49,"veces":2.9,"automotor":1,"noche":16,"barrio":"ALMAGRO","anio":2025},"geometry":{"type":"Point","coordinates":[-58.416235,-34.611437]}},{"type":"Feature","properties":{"nivel":"muy-alta","hechos":53,"veces":3.2,"automotor":1,"noche":13,"barrio":"RECOLETA","anio":2025},"geometry":{"type":"Point","coordinates":[-58.410777,-34.591088]}},{"type":"Feature","properties":{"nivel":"alta","hechos":34,"veces":2.0,"automotor":1,"noche":14,"barrio":"PALERMO","anio":2025},"geometry":{"type":"Point","coordinates":[-58.432606,-34.586566]}},{"type":"Feature","properties":{"nivel":"alta","hechos":34,"veces":2.0,"automotor":1,"noche":10,"barrio":"PARQUE CHACABUCO","anio":2025},"geometry":{"type":"Point","coordinates":[-58.443521,-34.629524]}},{"type":"Feature","properties":{"nivel":"muy-alta","hechos":56,"veces":3.4,"automotor":0,"noche":4,"barrio":"FLORES","anio":2025},"geometry":{"type":"Point","coordinates":[-58.46535,-34.629524]}},{"type":"Feature","properties":{"nivel":"alta","hechos":50,"veces":3.0,"automotor":0,"noche":13,"barrio":"SAN NICOLAS","anio":2025},"geometry":{"type":"Point","coordinates":[-58.375305,-34.600132]}},{"type":"Feature","properties":{"nivel":"alta","hechos":37,"veces":2.2,"automotor":2,"noche":11,"barrio":"ALMAGRO","anio":2025},"geometry":{"type":"Point","coordinates":[-58.427149,-34.600132]}},{"type":"Feature","properties":{"nivel":"muy-alta","hechos":60,"veces":3.6,"automotor":2,"noche":16,"barrio":"VILLA LUGANO","anio":2025},"geometry":{"type":"Point","coordinates":[-58.459893,-34.674743]}},{"type":"Feature","properties":{"nivel":"alta","hechos":43,"veces":2.6,"automotor":4,"noche":8,"barrio":"BOCA","anio":2025},"geometry":{"type":"Point","coordinates":[-58.369848,-34.629524]}},{"type":"Feature","properties":{"nivel":"extrema","hechos":154,"veces":9.2,"automotor":0,"noche":22,"barrio":"BALVANERA","anio":2025},"geometry":{"type":"Point","coordinates":[-58.40532,-34.609176]}},{"type":"Feature","properties":{"nivel":"muy-alta","hechos":52,"veces":3.1,"automotor":3,"noche":13,"barrio":"ALMAGRO","anio":2025},"geometry":{"type":"Point","coordinates":[-58.413506,-34.600132]}},{"type":"Feature","properties":{"nivel":"alta","hechos":34,"veces":2.0,"automotor":1,"noche":7,"barrio":"FLORES","anio":2025},"geometry":{"type":"Point","coordinates":[-58.448978,-34.647612]}},{"type":"Feature","properties":{"nivel":"alta","hechos":35,"veces":2.1,"automotor":0,"noche":14,"barrio":"SAN NICOLAS","anio":2025},"geometry":{"type":"Point","coordinates":[-58.386219,-34.606915]}},{"type":"Feature","properties":{"nivel":"alta","hechos":34,"veces":2.0,"automotor":4,"noche":7,"barrio":"FLORES","anio":2025},"geometry":{"type":"Point","coordinates":[-58.435335,-34.647612]}},{"type":"Feature","properties":{"nivel":"muy-alta","hechos":53,"veces":3.2,"automotor":0,"noche":14,"barrio":"MONSERRAT","anio":2025},"geometry":{"type":"Point","coordinates":[-58.388948,-34.609176]}},{"type":"Feature","properties":{"nivel":"muy-alta","hechos":70,"veces":4.2,"automotor":2,"noche":22,"barrio":"MONSERRAT","anio":2025},"geometry":{"type":"Point","coordinates":[-58.375305,-34.615959]}},{"type":"Feature","properties":{"nivel":"muy-alta","hechos":54,"veces":3.2,"automotor":3,"noche":11,"barrio":"RECOLETA","anio":2025},"geometry":{"type":"Point","coordinates":[-58.408049,-34.586566]}},{"type":"Feature","properties":{"nivel":"alta","hechos":35,"veces":2.1,"automotor":1,"noche":29,"barrio":"BELGRANO","anio":2025},"geometry":{"type":"Point","coordinates":[-58.448978,-34.54587]}},{"type":"Feature","properties":{"nivel":"muy-alta","hechos":64,"veces":3.8,"automotor":4,"noche":18,"barrio":"CABALLITO","anio":2025},"geometry":{"type":"Point","coordinates":[-58.454436,-34.625002]}},{"type":"Feature","properties":{"nivel":"alta","hechos":37,"veces":2.2,"automotor":1,"noche":19,"barrio":"PALERMO","anio":2025},"geometry":{"type":"Point","coordinates":[-58.435335,-34.584306]}},{"type":"Feature","properties":{"nivel":"alta","hechos":35,"veces":2.1,"automotor":1,"noche":13,"barrio":"RECOLETA","anio":2025},"geometry":{"type":"Point","coordinates":[-58.394405,-34.591088]}},{"type":"Feature","properties":{"nivel":"alta","hechos":37,"veces":2.2,"automotor":3,"noche":11,"barrio":"BARRACAS","anio":2025},"geometry":{"type":"Point","coordinates":[-58.399863,-34.656655]}},{"type":"Feature","properties":{"nivel":"muy-alta","hechos":77,"veces":4.6,"automotor":0,"noche":21,"barrio":"RETIRO","anio":2025},"geometry":{"type":"Point","coordinates":[-58.375305,-34.593349]}},{"type":"Feature","properties":{"nivel":"alta","hechos":40,"veces":2.4,"automotor":0,"noche":12,"barrio":"MONSERRAT","anio":2025},"geometry":{"type":"Point","coordinates":[-58.386219,-34.615959]}},{"type":"Feature","properties":{"nivel":"alta","hechos":47,"veces":2.8,"automotor":2,"noche":21,"barrio":"CONSTITUCION","anio":2025},"geometry":{"type":"Point","coordinates":[-58.386219,-34.625002]}},{"type":"Feature","properties":{"nivel":"alta","hechos":40,"veces":2.4,"automotor":11,"noche":9,"barrio":"LINIERS","anio":2025},"geometry":{"type":"Point","coordinates":[-58.52538,-34.640829]}},{"type":"Feature","properties":{"nivel":"alta","hechos":34,"veces":2.0,"automotor":0,"noche":7,"barrio":"MONSERRAT","anio":2025},"geometry":{"type":"Point","coordinates":[-58.380762,-34.613698]}},{"type":"Feature","properties":{"nivel":"muy-alta","hechos":57,"veces":3.4,"automotor":23,"noche":13,"barrio":"VILLA LUGANO","anio":2025},"geometry":{"type":"Point","coordinates":[-58.462622,-34.686047]}},{"type":"Feature","properties":{"nivel":"alta","hechos":36,"veces":2.2,"automotor":2,"noche":12,"barrio":"ALMAGRO","anio":2025},"geometry":{"type":"Point","coordinates":[-58.421692,-34.609176]}},{"type":"Feature","properties":{"nivel":"muy-alta","hechos":73,"veces":4.4,"automotor":0,"noche":3,"barrio":"SAAVEDRA","anio":2025},"geometry":{"type":"Point","coordinates":[-58.476265,-34.539087]}},{"type":"Feature","properties":{"nivel":"alta","hechos":38,"veces":2.3,"automotor":9,"noche":8,"barrio":"BOCA","anio":2025},"geometry":{"type":"Point","coordinates":[-58.361662,-34.629524]}},{"type":"Feature","properties":{"nivel":"muy-alta","hechos":61,"veces":3.7,"automotor":2,"noche":23,"barrio":"PALERMO","anio":2025},"geometry":{"type":"Point","coordinates":[-58.424421,-34.597871]}},{"type":"Feature","properties":{"nivel":"alta","hechos":43,"veces":2.6,"automotor":3,"noche":13,"barrio":"MONSERRAT","anio":2025},"geometry":{"type":"Point","coordinates":[-58.380762,-34.618219]}},{"type":"Feature","properties":{"nivel":"muy-alta","hechos":81,"veces":4.9,"automotor":4,"noche":25,"barrio":"SAN NICOLAS","anio":2025},"geometry":{"type":"Point","coordinates":[-58.391677,-34.606915]}},{"type":"Feature","properties":{"nivel":"alta","hechos":46,"veces":2.8,"automotor":2,"noche":9,"barrio":"CABALLITO","anio":2025},"geometry":{"type":"Point","coordinates":[-58.438064,-34.618219]}},{"type":"Feature","properties":{"nivel":"alta","hechos":40,"veces":2.4,"automotor":2,"noche":12,"barrio":"FLORES","anio":2025},"geometry":{"type":"Point","coordinates":[-58.457164,-34.631785]}},{"type":"Feature","properties":{"nivel":"alta","hechos":49,"veces":2.9,"automotor":6,"noche":9,"barrio":"CABALLITO","anio":2025},"geometry":{"type":"Point","coordinates":[-58.438064,-34.62048]}},{"type":"Feature","properties":{"nivel":"muy-alta","hechos":54,"veces":3.2,"automotor":7,"noche":28,"barrio":"VILLA SOLDATI","anio":2025},"geometry":{"type":"Point","coordinates":[-58.457164,-34.656655]}},{"type":"Feature","properties":{"nivel":"muy-alta","hechos":51,"veces":3.1,"automotor":2,"noche":15,"barrio":"RECOLETA","anio":2025},"geometry":{"type":"Point","coordinates":[-58.399863,-34.59561]}},{"type":"Feature","properties":{"nivel":"muy-alta","hechos":67,"veces":4.0,"automotor":2,"noche":24,"barrio":"MONSERRAT","anio":2025},"geometry":{"type":"Point","coordinates":[-58.383491,-34.618219]}},{"type":"Feature","properties":{"nivel":"alta","hechos":50,"veces":3.0,"automotor":0,"noche":15,"barrio":"RECOLETA","anio":2025},"geometry":{"type":"Point","coordinates":[-58.397134,-34.59561]}},{"type":"Feature","properties":{"nivel":"alta","hechos":39,"veces":2.3,"automotor":3,"noche":2,"barrio":"BOCA","anio":2025},"geometry":{"type":"Point","coordinates":[-58.369848,-34.631785]}},{"type":"Feature","properties":{"nivel":"alta","hechos":43,"veces":2.6,"automotor":4,"noche":9,"barrio":"MONSERRAT","anio":2025},"geometry":{"type":"Point","coordinates":[-58.383491,-34.615959]}},{"type":"Feature","properties":{"nivel":"muy-alta","hechos":56,"veces":3.4,"automotor":1,"noche":16,"barrio":"BALVANERA","anio":2025},"geometry":{"type":"Point","coordinates":[-58.397134,-34.600132]}},{"type":"Feature","properties":{"nivel":"alta","hechos":36,"veces":2.2,"automotor":1,"noche":12,"barrio":"SAN NICOLAS","anio":2025},"geometry":{"type":"Point","coordinates":[-58.386219,-34.602393]}},{"type":"Feature","properties":{"nivel":"alta","hechos":39,"veces":2.3,"automotor":2,"noche":10,"barrio":"VILLA CRESPO","anio":2025},"geometry":{"type":"Point","coordinates":[-58.44625,-34.606915]}},{"type":"Feature","properties":{"nivel":"alta","hechos":35,"veces":2.1,"automotor":4,"noche":12,"barrio":"CONSTITUCION","anio":2025},"geometry":{"type":"Point","coordinates":[-58.386219,-34.629524]}},{"type":"Feature","properties":{"nivel":"alta","hechos":34,"veces":2.0,"automotor":3,"noche":2,"barrio":"CONSTITUCION","anio":2025},"geometry":{"type":"Point","coordinates":[-58.383491,-34.631785]}},{"type":"Feature","properties":{"nivel":"muy-alta","hechos":77,"veces":4.6,"automotor":1,"noche":22,"barrio":"BALVANERA","anio":2025},"geometry":{"type":"Point","coordinates":[-58.40532,-34.606915]}},{"type":"Feature","properties":{"nivel":"alta","hechos":50,"veces":3.0,"automotor":6,"noche":14,"barrio":"VILLA LUGANO","anio":2025},"geometry":{"type":"Point","coordinates":[-58.46535,-34.677004]}},{"type":"Feature","properties":{"nivel":"muy-alta","hechos":72,"veces":4.3,"automotor":2,"noche":21,"barrio":"CABALLITO","anio":2025},"geometry":{"type":"Point","coordinates":[-58.435335,-34.618219]}},{"type":"Feature","properties":{"nivel":"alta","hechos":39,"veces":2.3,"automotor":3,"noche":6,"barrio":"PARQUE CHACABUCO","anio":2025},"geometry":{"type":"Point","coordinates":[-58.438064,-34.629524]}},{"type":"Feature","properties":{"nivel":"alta","hechos":49,"veces":2.9,"automotor":1,"noche":9,"barrio":"FLORES","anio":2025},"geometry":{"type":"Point","coordinates":[-58.462622,-34.629524]}},{"type":"Feature","properties":{"nivel":"alta","hechos":46,"veces":2.8,"automotor":3,"noche":12,"barrio":"PALERMO","anio":2025},"geometry":{"type":"Point","coordinates":[-58.418963,-34.588827]}},{"type":"Feature","properties":{"nivel":"alta","hechos":40,"veces":2.4,"automotor":3,"noche":14,"barrio":"CONSTITUCION","anio":2025},"geometry":{"type":"Point","coordinates":[-58.383491,-34.629524]}},{"type":"Feature","properties":{"nivel":"alta","hechos":41,"veces":2.5,"automotor":4,"noche":10,"barrio":"SAAVEDRA","anio":2025},"geometry":{"type":"Point","coordinates":[-58.487179,-34.54587]}},{"type":"Feature","properties":{"nivel":"alta","hechos":39,"veces":2.3,"automotor":3,"noche":5,"barrio":"PALERMO","anio":2025},"geometry":{"type":"Point","coordinates":[-58.416235,-34.591088]}},{"type":"Feature","properties":{"nivel":"alta","hechos":37,"veces":2.2,"automotor":9,"noche":9,"barrio":"BELGRANO","anio":2025},"geometry":{"type":"Point","coordinates":[-58.454436,-34.557174]}},{"type":"Feature","properties":{"nivel":"alta","hechos":36,"veces":2.2,"automotor":0,"noche":3,"barrio":"PARQUE PATRICIOS","anio":2025},"geometry":{"type":"Point","coordinates":[-58.391677,-34.634046]}},{"type":"Feature","properties":{"nivel":"alta","hechos":36,"veces":2.2,"automotor":4,"noche":5,"barrio":"VILLA CRESPO","anio":2025},"geometry":{"type":"Point","coordinates":[-58.440792,-34.600132]}},{"type":"Feature","properties":{"nivel":"alta","hechos":34,"veces":2.0,"automotor":0,"noche":14,"barrio":"RECOLETA","anio":2025},"geometry":{"type":"Point","coordinates":[-58.394405,-34.588827]}},{"type":"Feature","properties":{"nivel":"alta","hechos":44,"veces":2.6,"automotor":1,"noche":13,"barrio":"NUEVA POMPEYA","anio":2025},"geometry":{"type":"Point","coordinates":[-58.429878,-34.649872]}},{"type":"Feature","properties":{"nivel":"muy-alta","hechos":64,"veces":3.8,"automotor":0,"noche":20,"barrio":"PALERMO","anio":2025},"geometry":{"type":"Point","coordinates":[-58.424421,-34.579784]}},{"type":"Feature","properties":{"nivel":"alta","hechos":40,"veces":2.4,"automotor":2,"noche":9,"barrio":"SAN TELMO","anio":2025},"geometry":{"type":"Point","coordinates":[-58.375305,-34.627263]}},{"type":"Feature","properties":{"nivel":"muy-alta","hechos":71,"veces":4.3,"automotor":4,"noche":32,"barrio":"VILLA SOLDATI","anio":2025},"geometry":{"type":"Point","coordinates":[-58.454436,-34.658916]}},{"type":"Feature","properties":{"nivel":"alta","hechos":50,"veces":3.0,"automotor":1,"noche":8,"barrio":"BARRACAS","anio":2025},"geometry":{"type":"Point","coordinates":[-58.399863,-34.652133]}},{"type":"Feature","properties":{"nivel":"alta","hechos":41,"veces":2.5,"automotor":0,"noche":5,"barrio":"RETIRO","anio":2025},"geometry":{"type":"Point","coordinates":[-58.369848,-34.597871]}},{"type":"Feature","properties":{"nivel":"alta","hechos":40,"veces":2.4,"automotor":0,"noche":9,"barrio":"CONSTITUCION","anio":2025},"geometry":{"type":"Point","coordinates":[-58.388948,-34.618219]}},{"type":"Feature","properties":{"nivel":"muy-alta","hechos":53,"veces":3.2,"automotor":3,"noche":6,"barrio":"FLORES","anio":2025},"geometry":{"type":"Point","coordinates":[-58.470808,-34.631785]}},{"type":"Feature","properties":{"nivel":"extrema","hechos":189,"veces":11.3,"automotor":1,"noche":57,"barrio":"RETIRO","anio":2025},"geometry":{"type":"Point","coordinates":[-58.372576,-34.588827]}},{"type":"Feature","properties":{"nivel":"muy-alta","hechos":61,"veces":3.7,"automotor":5,"noche":18,"barrio":"BALVANERA","anio":2025},"geometry":{"type":"Point","coordinates":[-58.408049,-34.604654]}},{"type":"Feature","properties":{"nivel":"muy-alta","hechos":72,"veces":4.3,"automotor":2,"noche":25,"barrio":"FLORES","anio":2025},"geometry":{"type":"Point","coordinates":[-58.457164,-34.627263]}},{"type":"Feature","properties":{"nivel":"alta","hechos":35,"veces":2.1,"automotor":3,"noche":3,"barrio":"VILLA GRAL. MITRE","anio":2025},"geometry":{"type":"Point","coordinates":[-58.468079,-34.602393]}},{"type":"Feature","properties":{"nivel":"muy-alta","hechos":51,"veces":3.1,"automotor":2,"noche":24,"barrio":"PALERMO","anio":2025},"geometry":{"type":"Point","coordinates":[-58.429878,-34.588827]}},{"type":"Feature","properties":{"nivel":"alta","hechos":34,"veces":2.0,"automotor":1,"noche":2,"barrio":"PARQUE PATRICIOS","anio":2025},"geometry":{"type":"Point","coordinates":[-58.391677,-34.631785]}},{"type":"Feature","properties":{"nivel":"muy-alta","hechos":71,"veces":4.3,"automotor":2,"noche":19,"barrio":"SAN TELMO","anio":2025},"geometry":{"type":"Point","coordinates":[-58.375305,-34.62048]}},{"type":"Feature","properties":{"nivel":"muy-alta","hechos":60,"veces":3.6,"automotor":1,"noche":28,"barrio":"PALERMO","anio":2025},"geometry":{"type":"Point","coordinates":[-58.438064,-34.586566]}},{"type":"Feature","properties":{"nivel":"muy-alta","hechos":69,"veces":4.1,"automotor":0,"noche":21,"barrio":"SAN TELMO","anio":2025},"geometry":{"type":"Point","coordinates":[-58.369848,-34.62048]}},{"type":"Feature","properties":{"nivel":"alta","hechos":37,"veces":2.2,"automotor":0,"noche":12,"barrio":"CABALLITO","anio":2025},"geometry":{"type":"Point","coordinates":[-58.448978,-34.622741]}},{"type":"Feature","properties":{"nivel":"alta","hechos":44,"veces":2.6,"automotor":4,"noche":6,"barrio":"PARQUE CHACABUCO","anio":2025},"geometry":{"type":"Point","coordinates":[-58.440792,-34.631785]}},{"type":"Feature","properties":{"nivel":"muy-alta","hechos":72,"veces":4.3,"automotor":3,"noche":23,"barrio":"BOCA","anio":2025},"geometry":{"type":"Point","coordinates":[-58.358933,-34.636307]}},{"type":"Feature","properties":{"nivel":"muy-alta","hechos":57,"veces":3.4,"automotor":5,"noche":14,"barrio":"BALVANERA","anio":2025},"geometry":{"type":"Point","coordinates":[-58.40532,-34.602393]}},{"type":"Feature","properties":{"nivel":"alta","hechos":45,"veces":2.7,"automotor":3,"noche":23,"barrio":"NUÑEZ","anio":2025},"geometry":{"type":"Point","coordinates":[-58.459893,-34.54587]}},{"type":"Feature","properties":{"nivel":"alta","hechos":38,"veces":2.3,"automotor":3,"noche":11,"barrio":"PARQUE CHACABUCO","anio":2025},"geometry":{"type":"Point","coordinates":[-58.443521,-34.636307]}},{"type":"Feature","properties":{"nivel":"alta","hechos":46,"veces":2.8,"automotor":4,"noche":12,"barrio":"BALVANERA","anio":2025},"geometry":{"type":"Point","coordinates":[-58.40532,-34.600132]}},{"type":"Feature","properties":{"nivel":"muy-alta","hechos":55,"veces":3.3,"automotor":5,"noche":19,"barrio":"CONSTITUCION","anio":2025},"geometry":{"type":"Point","coordinates":[-58.378034,-34.62048]}},{"type":"Feature","properties":{"nivel":"alta","hechos":45,"veces":2.7,"automotor":3,"noche":11,"barrio":"BARRACAS","anio":2025},"geometry":{"type":"Point","coordinates":[-58.369848,-34.638568]}},{"type":"Feature","properties":{"nivel":"alta","hechos":49,"veces":2.9,"automotor":3,"noche":14,"barrio":"CABALLITO","anio":2025},"geometry":{"type":"Point","coordinates":[-58.440792,-34.622741]}},{"type":"Feature","properties":{"nivel":"alta","hechos":34,"veces":2.0,"automotor":5,"noche":8,"barrio":"CABALLITO","anio":2025},"geometry":{"type":"Point","coordinates":[-58.440792,-34.627263]}},{"type":"Feature","properties":{"nivel":"alta","hechos":44,"veces":2.6,"automotor":1,"noche":11,"barrio":"RETIRO","anio":2025},"geometry":{"type":"Point","coordinates":[-58.378034,-34.584306]}},{"type":"Feature","properties":{"nivel":"muy-alta","hechos":68,"veces":4.1,"automotor":1,"noche":25,"barrio":"ALMAGRO","anio":2025},"geometry":{"type":"Point","coordinates":[-58.413506,-34.604654]}},{"type":"Feature","properties":{"nivel":"alta","hechos":35,"veces":2.1,"automotor":1,"noche":8,"barrio":"CABALLITO","anio":2025},"geometry":{"type":"Point","coordinates":[-58.44625,-34.622741]}},{"type":"Feature","properties":{"nivel":"alta","hechos":36,"veces":2.2,"automotor":1,"noche":7,"barrio":"ALMAGRO","anio":2025},"geometry":{"type":"Point","coordinates":[-58.429878,-34.600132]}},{"type":"Feature","properties":{"nivel":"alta","hechos":45,"veces":2.7,"automotor":3,"noche":8,"barrio":"PARQUE CHACABUCO","anio":2025},"geometry":{"type":"Point","coordinates":[-58.440792,-34.629524]}},{"type":"Feature","properties":{"nivel":"alta","hechos":50,"veces":3.0,"automotor":2,"noche":16,"barrio":"ALMAGRO","anio":2025},"geometry":{"type":"Point","coordinates":[-58.418963,-34.613698]}},{"type":"Feature","properties":{"nivel":"muy-alta","hechos":53,"veces":3.2,"automotor":5,"noche":19,"barrio":"PALERMO","anio":2025},"geometry":{"type":"Point","coordinates":[-58.424421,-34.59561]}},{"type":"Feature","properties":{"nivel":"alta","hechos":50,"veces":3.0,"automotor":4,"noche":13,"barrio":"SAN TELMO","anio":2025},"geometry":{"type":"Point","coordinates":[-58.375305,-34.622741]}},{"type":"Feature","properties":{"nivel":"muy-alta","hechos":59,"veces":3.5,"automotor":3,"noche":24,"barrio":"PALERMO","anio":2025},"geometry":{"type":"Point","coordinates":[-58.418963,-34.597871]}},{"type":"Feature","properties":{"nivel":"muy-alta","hechos":51,"veces":3.1,"automotor":3,"noche":12,"barrio":"BALVANERA","anio":2025},"geometry":{"type":"Point","coordinates":[-58.394405,-34.609176]}},{"type":"Feature","properties":{"nivel":"alta","hechos":40,"veces":2.4,"automotor":2,"noche":7,"barrio":"CABALLITO","anio":2025},"geometry":{"type":"Point","coordinates":[-58.438064,-34.613698]}}]}
